[{
 "type":
 "schnitzler-tagebuch",
 "color":
 "#037a33",
 "filename":
 "entry__1887-08-21",
 "caption":
 "Tagebuch",
 "idno":
 "https://schnitzler-tagebuch.acdh.oeaw.ac.at/entry__1887-08-21.html",
 "head":
 "Tagebuch, 21. August 1887",
 "desc":
{"listPerson":
  [
{
 "persName":
 "Helene Binder",
 "ref":
 "person_13733"},
 {
 "persName":
 "Anton Bum",
 "ref":
 "person_14060"},
 {
 "persName":
 "Cora Cahn",
 "ref":
 "person_14109"},
 {
 "persName":
 "Marie Engländer",
 "ref":
 "person_14761"},
 {
 "persName":
 "Gustav Fried",
 "ref":
 "person_15203"},
 {
 "persName":
 "Louis Philipp Friedmann",
 "ref":
 "person_15229"},
 {
 "persName":
 "Nelly G.",
 "ref":
 "person_15317"},
 {
 "persName":
 "Josef Goldschmid",
 "ref":
 "person_15538"},
 {
 "persName":
 "Gr.",
 "ref":
 "person_15602"},
 {
 "persName":
 "Herschb.",
 "ref":
 "person_16124"},
 {
 "persName":
 "Hirsch",
 "ref":
 "person_16212"},
 {
 "persName":
 "Willibald Horwitz",
 "ref":
 "person_16391"},
 {
 "persName":
 "Adele Kapper",
 "ref":
 "person_16706"},
 {
 "persName":
 "Friedrich Kapper",
 "ref":
 "person_16709"},
 {
 "persName":
 "Dorothea Kohnberger",
 "ref":
 "person_16995"},
 {
 "persName":
 "Moritz Koritschoner",
 "ref":
 "person_17050"},
 {
 "persName":
 "B. Löv",
 "ref":
 "person_17630"},
 {
 "persName":
 "Löwenfeld",
 "ref":
 "person_17647"},
 {
 "persName":
 "Edmund Markbreiter",
 "ref":
 "person_17899"},
 {
 "persName":
 "Ornstein",
 "ref":
 "person_18578"},
 {
 "persName":
 "Jenny P.",
 "ref":
 "person_18628"},
 {
 "persName":
 "Vilma Parlaghy",
 "ref":
 "person_18663"},
 {
 "persName":
 "Sp.",
 "ref":
 "person_20226"},
 {
 "persName":
 "Richard Tausenau",
 "ref":
 "person_20643"},
 {
 "persName":
 "Albert Vogl",
 "ref":
 "person_20982"},
 {
 "persName":
 "Olga Waissnix",
 "ref":
 "person_21047"},
 {
 "persName":
 "Otto Zuckerkandl",
 "ref":
 "person_21601"},
 {
 "persName":
 "Hermann Cohn",
 "ref":
 "person_14251"},
 {
 "persName":
 "Thomas Knorr",
 "ref":
 "person_16945"},
 {
 "persName":
 "Oscar Kraus",
 "ref":
 "person_17114"},
 {
 "persName":
 "Lichtst.",
 "ref":
 "person_17511"},
 {
 "persName":
 "Irene Mandl",
 "ref":
 "person_17822"},
 {
 "persName":
 "Pollak",
 "ref":
 "person_18870"},
 {
 "persName":
 "R.",
 "ref":
 "person_19004"},
 {
 "persName":
 "Johann Schnitzler",
 "ref":
 "person_19824"},
 {
 "persName":
 "Adele von Sonnenthal",
 "ref":
 "person_20203"},
 {
 "persName":
 "Winternitz",
 "ref":
 "person_21380"},
 {
 "persName":
 "Stefanie Glogau",
 "ref":
 "person_15473"},
 {
 "persName":
 "Kr.",
 "ref":
 "person_17070"},
 {
 "persName":
 "List",
 "ref":
 "person_17590"},
 {
 "persName":
 "Leonore Nossal",
 "ref":
 "person_18478"},
 {
 "persName":
 "Johann Schrammel",
 "ref":
 "person_19876"}],
 "listBibl":
  [
 {
 "title":
 "Gabrielens Reue",
 "ref":
 "pmb33824"}
 ],
 "listPlace":
  [
 {
 "placeName":
 "Baden bei Wien",
 "ref":
 "pmb662"}
 ,  {
 "placeName":
 "Wien",
 "ref":
 "pmb50"}
 ,  {
 "placeName":
 "Bad Ischl",
 "ref":
 "pmb213"}
 ,  {
 "placeName":
 "Grillgasse",
 "ref":
 "pmb92259"}
 ,  {
 "placeName":
 "Währing",
 "ref":
 "pmb90546"}
 ,  {
 "placeName":
 "Gmunden",
 "ref":
 "pmb874"}
 ,  {
 "placeName":
 "Sankt Wolfgang im Salzkammergut",
 "ref":
 "pmb61000"}
 ,  {
 "placeName":
 "",
 "ref":
 "pmb91574"}
 ,  {
 "placeName":
 "Schafberg (St. Gilgen)",
 "ref":
 "pmb59367"}
 ,  {
 "placeName":
 "München",
 "ref":
 "pmb45258"}
 ,  {
 "placeName":
 "Trieste",
 "ref":
 "pmb91944"}
 ,  {
 "placeName":
 "Unterach am Attersee",
 "ref":
 "pmb91973"}
 ,  {
 "placeName":
 "Traunkirchen",
 "ref":
 "pmb88392"}
 ]
}
}, {
 "type":
 "schnitzler-orte",
 "color":
 "#045344",
 "filename":
 "entity/50/",
 "caption":
 "Aufenthaltsorte",
 "idno":
 "https://pmb.acdh.oeaw.ac.at/entity/50/",
 "head":
 "Wien"
}] 