[{
 "type":
 "schnitzler-tagebuch",
 "color":
 "#037a33",
 "filename":
 "entry__1890-08-11",
 "caption":
 "Tagebuch",
 "idno":
 "https://schnitzler-tagebuch.acdh.oeaw.ac.at/entry__1890-08-11.html",
 "head":
 "Tagebuch, 11. August 1890",
 "desc":
{"listPerson":
  [
{
 "persName":
 "Marie Glümer",
 "ref":
 "person_15485"},
 {
 "persName":
 "Friedrich Kapper",
 "ref":
 "person_16709"}]
}
}, {
 "type":
 "schnitzler-briefe",
 "color":
 "#A63437",
 "filename":
 "L02648",
 "caption":
 "Briefe mit Autorinnen und Autoren",
 "idno":
 "https://schnitzler-briefe.acdh.oeaw.ac.at/L02648.html",
 "head":
 "Paul Goldmann an Arthur Schnitzler, 11. 8. 1890",
 "desc":
{"listPerson":
  [
{
 "persName":
 "Paul Goldmann",
 "ref":
 "pmb11485"},
 {
 "persName":
 "Fedor Mamroth",
 "ref":
 "pmb4986"},
 {
 "persName":
 "Olga Waissnix",
 "ref":
 "pmb2453"},
 {
 "persName":
 "Carl Waissnix",
 "ref":
 "pmb26594"},
 {
 "persName":
 "Rudolf Pick",
 "ref":
 "pmb22552"},
 {
 "persName":
 "Gustav Pick",
 "ref":
 "pmb22546"},
 {
 "persName":
 "Alfred Pick",
 "ref":
 "pmb9262"},
 {
 "persName":
 "Theodor Herzl",
 "ref":
 "pmb11673"},
 {
 "persName":
 "Julie Herzl",
 "ref":
 "pmb2812"},
 {
 "persName":
 "Franz Rettinger",
 "ref":
 "pmb23300"},
 {
 "persName":
 "Robert Hirschfeld",
 "ref":
 "pmb11707"},
 {
 "persName":
 "Friedrich Kapper",
 "ref":
 "pmb19106"}],
 "listBibl":
  [
 {
 "title":
 "Tagebuch",
 "ref":
 "pmb33243"}
 ,  {
 "title":
 "Jugend in Wien",
 "ref":
 "pmb33838"}
 ],
 "listOrg":
  [
 {
 "orgName":
 "Josef Eberle Stein-, Buch und Musikaliendruckerei",
 "ref":
 "pmb53104"}
 ,  {
 "orgName":
 "An der schönen blauen Donau",
 "ref":
 "pmb29698"}
 ],
 "listPlace":
  [
 {
 "placeName":
 "Pörtschach",
 "ref":
 "pmb44278"}
 ,  {
 "placeName":
 "Wien",
 "ref":
 "pmb50"}
 ,  {
 "placeName":
 "Seidengasse",
 "ref":
 "pmb53101"}
 ,  {
 "placeName":
 "Berggasse",
 "ref":
 "pmb52510"}
 ,  {
 "placeName":
 "Thalhof",
 "ref":
 "pmb796"}
 ,  {
 "placeName":
 "Reichenau an der Rax",
 "ref":
 "pmb483"}
 ,  {
 "placeName":
 "Donaukanal",
 "ref":
 "pmb88879"}
 ,  {
 "placeName":
 "Donau",
 "ref":
 "pmb59370"}
 ]
}
}, {
 "type":
 "schnitzler-orte",
 "color":
 "#045344",
 "filename":
 "entity/50/",
 "caption":
 "Aufenthaltsorte",
 "idno":
 "https://pmb.acdh.oeaw.ac.at/entity/50/",
 "head":
 "Wien"
}] 