[{
 "type":
 "schnitzler-tagebuch",
 "color":
 "#037a33",
 "filename":
 "entry__1891-12-31",
 "caption":
 "Tagebuch",
 "idno":
 "https://schnitzler-tagebuch.acdh.oeaw.ac.at/entry__1891-12-31.html",
 "head":
 "Tagebuch, 31. Dezember 1891",
 "desc":
{"listPerson":
  [
{
 "persName":
 "Emma Adler",
 "ref":
 "person_13095"},
 {
 "persName":
 "Richard Beer-Hofmann",
 "ref":
 "person_13551"},
 {
 "persName":
 "Max Devrient",
 "ref":
 "person_14434"},
 {
 "persName":
 "Marie Glümer",
 "ref":
 "person_15485"},
 {
 "persName":
 "Paul Goldmann",
 "ref":
 "person_15529"},
 {
 "persName":
 "Ludwig Mandl",
 "ref":
 "person_17826"},
 {
 "persName":
 "Felix Salten",
 "ref":
 "person_19542"},
 {
 "persName":
 "Gustav Schwarzkopf",
 "ref":
 "person_19986"},
 {
 "persName":
 "Olga Waissnix",
 "ref":
 "person_21047"},
 {
 "persName":
 "Friedrich Michael Fels",
 "ref":
 "person_14942"},
 {
 "persName":
 "Hermann Bahr",
 "ref":
 "person_13374"},
 {
 "persName":
 "Ferry Bératon",
 "ref":
 "person_13611"},
 {
 "persName":
 "Hugo von Hofmannsthal",
 "ref":
 "person_16293"}],
 "listBibl":
  [
 {
 "title":
 "Das Abenteuer seines Lebens. Ein einaktiges Lustspiel",
 "ref":
 "pmb30143"}
 ,  {
 "title":
 "Weihnachts-Einkäufe",
 "ref":
 "pmb30163"}
 ,  {
 "title":
 "Denksteine",
 "ref":
 "pmb30145"}
 ,  {
 "title":
 "Abschiedssouper",
 "ref":
 "pmb30005"}
 ,  {
 "title":
 "Agonie",
 "ref":
 "pmb30159"}
 ,  {
 "title":
 "Die Braut",
 "ref":
 "pmb30165"}
 ,  {
 "title":
 "Gedichte",
 "ref":
 "pmb76533"}
 ,  {
 "title":
 "Das Himmelbett",
 "ref":
 "pmb30169"}
 ,  {
 "title":
 "Die kleine Komödie",
 "ref":
 "pmb31975"}
 ,  {
 "title":
 "Das Märchen. Schauspiel in drei Aufzügen",
 "ref":
 "pmb29823"}
 ],
 "listPlace":
  [
 {
 "placeName":
 "XV., Rudolfsheim-Fünfhaus",
 "ref":
 "pmb65"}
 ,  {
 "placeName":
 "VIII., Josefstadt",
 "ref":
 "pmb58"}
 ,  {
 "placeName":
 "Wien",
 "ref":
 "pmb50"}
 ,  {
 "placeName":
 "Brüssel",
 "ref":
 "pmb862"}
 ,  {
 "placeName":
 "Paris",
 "ref":
 "pmb182"}
 ,  {
 "placeName":
 "Salzburg",
 "ref":
 "pmb30"}
 ,  {
 "placeName":
 "Baden bei Wien",
 "ref":
 "pmb662"}
 ,  {
 "placeName":
 "Deutsches Volkstheater",
 "ref":
 "pmb92202"}
 ]
}
}, {
 "type":
 "schnitzler-orte",
 "color":
 "#045344",
 "filename":
 "entity/50/",
 "caption":
 "Aufenthaltsorte",
 "idno":
 "https://pmb.acdh.oeaw.ac.at/entity/50/",
 "head":
 "Wien"
}, {
 "type":
 "schnitzler-bahr",
 "color":
 "#F9BD63",
 "filename":
 "D041016",
 "caption":
 "Schnitzler/Bahr",
 "idno":
 "https://schnitzler-bahr.acdh.oeaw.ac.at/D041016.html",
 "head":
 "Tagebuch von Schnitzler, 31. 12. 1891",
 "desc":
{"listPerson":
  [
{
 "persName":
 "Hermann Bahr",
 "ref":
 "pmb10815"},
 {
 "persName":
 "Marie Glümer",
 "ref":
 "pmb14953"},
 {
 "persName":
 "Irene Mandl",
 "ref":
 "pmb20902"},
 {
 "persName":
 "Ludwig Mandl",
 "ref":
 "pmb20911"},
 {
 "persName":
 "Emma Adler",
 "ref":
 "pmb13234"},
 {
 "persName":
 "Max Devrient",
 "ref":
 "pmb2446"},
 {
 "persName":
 "Hugo von Hofmannsthal",
 "ref":
 "pmb11740"},
 {
 "persName":
 "Felix Salten",
 "ref":
 "pmb2167"},
 {
 "persName":
 "Richard Beer-Hofmann",
 "ref":
 "pmb10863"},
 {
 "persName":
 "Ferry Bératon",
 "ref":
 "pmb14756"},
 {
 "persName":
 "Gustav Schwarzkopf",
 "ref":
 "pmb12740"},
 {
 "persName":
 "Friedrich Michael Fels",
 "ref":
 "pmb2450"},
 {
 "persName":
 "Paul Goldmann",
 "ref":
 "pmb11485"},
 {
 "persName":
 "Olga Waissnix",
 "ref":
 "pmb2453"}],
 "listBibl":
  [
 {
 "title":
 "Das Abenteuer seines Lebens",
 "ref":
 "pmb30143"}
 ,  {
 "title":
 "Denksteine",
 "ref":
 "pmb30145"}
 ,  {
 "title":
 "Tagebuchblatt",
 "ref":
 "pmb31881"}
 ,  {
 "title":
 "Morgenandacht",
 "ref":
 "pmb30151"}
 ,  {
 "title":
 "Weihnachts-Einkäufe",
 "ref":
 "pmb30163"}
 ,  {
 "title":
 "Das Märchen. Schauspiel in drei Aufzügen",
 "ref":
 "pmb29823"}
 ,  {
 "title":
 "Agonie",
 "ref":
 "pmb30159"}
 ,  {
 "title":
 "Anatols Größenwahn",
 "ref":
 "pmb30161"}
 ,  {
 "title":
 "Abschiedssouper",
 "ref":
 "pmb30005"}
 ,  {
 "title":
 "Die Braut",
 "ref":
 "pmb30165"}
 ,  {
 "title":
 "Die kleine Komödie",
 "ref":
 "pmb31975"}
 ,  {
 "title":
 "Das Himmelbett",
 "ref":
 "pmb30169"}
 ],
 "listPlace":
  [
 {
 "placeName":
 "Volkstheater in Rudolphsheim",
 "ref":
 "pmb39"}
 ,  {
 "placeName":
 "Theater in der Josefstadt",
 "ref":
 "pmb40"}
 ,  {
 "placeName":
 "Lessing-Theater",
 "ref":
 "pmb18"}
 ,  {
 "placeName":
 "Wien",
 "ref":
 "pmb50"}
 ,  {
 "placeName":
 "Brüssel",
 "ref":
 "pmb862"}
 ,  {
 "placeName":
 "Paris",
 "ref":
 "pmb182"}
 ,  {
 "placeName":
 "Salzburg",
 "ref":
 "pmb30"}
 ,  {
 "placeName":
 "Baden bei Wien",
 "ref":
 "pmb662"}
 ,  {
 "placeName":
 "Volkstheater",
 "ref":
 "pmb20"}
 ,  {
 "placeName":
 "Südbahnhotel",
 "ref":
 "pmb413"}
 ,  {
 "placeName":
 "Allgemeine Poliklinik",
 "ref":
 "pmb41"}
 ],
 "listOrg":
  [
 {
 "orgName":
 "»Freie Bühne« Verein für moderne Literatur",
 "ref":
 "pmb29781"}
 ,  {
 "orgName":
 "Moderne Dichtung/Moderne Rundschau",
 "ref":
 "pmb29417"}
 ,  {
 "orgName":
 "Die Gesellschaft",
 "ref":
 "pmb29440"}
 ,  {
 "orgName":
 "Frankfurter Zeitung",
 "ref":
 "pmb29442"}
 ]
}
}] 