[{
 "type":
 "schnitzler-tagebuch",
 "color":
 "#037a33",
 "filename":
 "entry__1891-08-30",
 "caption":
 "Tagebuch",
 "idno":
 "https://schnitzler-tagebuch.acdh.oeaw.ac.at/entry__1891-08-30.html",
 "head":
 "Tagebuch, 30. August 1891",
 "desc":
{"listPerson":
  [
{
 "persName":
 "Julius von Gans-Ludassy",
 "ref":
 "person_15338"},
 {
 "persName":
 "Marie Glümer",
 "ref":
 "person_15485"}],
 "listPlace":
  [
 {
 "placeName":
 "Baden bei Wien",
 "ref":
 "pmb662"}
 ,  {
 "placeName":
 "Tribuswinkel",
 "ref":
 "pmb91942"}
 ,  {
 "placeName":
 "Bad Vöslau",
 "ref":
 "pmb992"}
 ]
}
}, {
 "type":
 "schnitzler-briefe",
 "color":
 "#A63437",
 "filename":
 "L00037",
 "caption":
 "Briefe mit Autorinnen und Autoren",
 "idno":
 "https://schnitzler-briefe.acdh.oeaw.ac.at/L00037.html",
 "head":
 "Eduard Michael Kafka an Arthur Schnitzler, 30. 8. 1891",
 "desc":
{"listPerson":
  [
{
 "persName":
 "Eduard Michael Kafka",
 "ref":
 "pmb2563"},
 {
 "persName":
 "Ferdinand von Saar",
 "ref":
 "pmb12602"},
 {
 "persName":
 "Adolf Baumann",
 "ref":
 "pmb42970"},
 {
 "persName":
 "Julius Schnitzler",
 "ref":
 "pmb12698"}],
 "listBibl":
  [
 {
 "title":
 "Die drei Elixire",
 "ref":
 "pmb31965"}
 ,  {
 "title":
 "Anatol",
 "ref":
 "pmb29935"}
 ,  {
 "title":
 "Das Märchen. Schauspiel in drei Aufzügen",
 "ref":
 "pmb29823"}
 ],
 "listOrg":
  [
 {
 "orgName":
 "Moderne Dichtung/Moderne Rundschau",
 "ref":
 "pmb29417"}
 ,  {
 "orgName":
 "Holzwarth &amp; Ortony",
 "ref":
 "pmb42965"}
 ],
 "listPlace":
  [
 {
 "placeName":
 "Brünn",
 "ref":
 "pmb833"}
 ,  {
 "placeName":
 "Wien",
 "ref":
 "pmb50"}
 ,  {
 "placeName":
 "Stadttheater",
 "ref":
 "pmb42968"}
 ,  {
 "placeName":
 "Hybešova",
 "ref":
 "pmb788"}
 ,  {
 "placeName":
 "Buchfeldgasse",
 "ref":
 "pmb789"}
 ,  {
 "placeName":
 "Liechtensteinstraße",
 "ref":
 "pmb34305"}
 ]
}
}, {
 "type":
 "schnitzler-orte",
 "color":
 "#045344",
 "filename":
 "entity/50/",
 "caption":
 "Aufenthaltsorte",
 "idno":
 "https://pmb.acdh.oeaw.ac.at/entity/50/",
 "head":
 "Wien"
}] 