[{
 "type":
 "schnitzler-tagebuch",
 "color":
 "#037a33",
 "filename":
 "entry__1892-12-31",
 "caption":
 "Tagebuch",
 "idno":
 "https://schnitzler-tagebuch.acdh.oeaw.ac.at/entry__1892-12-31.html",
 "head":
 "Tagebuch, 31. Dezember 1892",
 "desc":
{"listPerson":
  [
{
 "persName":
 "Else Berger",
 "ref":
 "person_13626"},
 {
 "persName":
 "Leopold Rosenberg",
 "ref":
 "person_19372"},
 {
 "persName":
 "Ida Rosenberg",
 "ref":
 "person_19370"}]
}
}, {
 "type":
 "schnitzler-briefe",
 "color":
 "#A63437",
 "filename":
 "L00150",
 "caption":
 "Briefe mit Autorinnen und Autoren",
 "idno":
 "https://schnitzler-briefe.acdh.oeaw.ac.at/L00150.html",
 "head":
 "Karl Kraus an Arthur Schnitzler, 31. 12. 1892",
 "desc":
{"listPerson":
  [
{
 "persName":
 "Karl Kraus",
 "ref":
 "pmb11988"}],
 "listBibl":
  [
 {
 "title":
 "Arthur Schnitzler, Anatol",
 "ref":
 "pmb33552"}
 ,  {
 "title":
 "Die Gesellschaft. Monatsschrift für Litteratur, Kunst und Sozialpolitik",
 "ref":
 "pmb35919"}
 ,  {
 "title":
 "Anatol",
 "ref":
 "pmb29935"}
 ],
 "listOrg":
  [
 {
 "orgName":
 "Die Gesellschaft",
 "ref":
 "pmb29440"}
 ,  {
 "orgName":
 "Bibliographisches Bureau",
 "ref":
 "pmb29716"}
 ],
 "listPlace":
  [
 {
 "placeName":
 "I., Innere Stadt",
 "ref":
 "pmb51"}
 ,  {
 "placeName":
 "Wien",
 "ref":
 "pmb50"}
 ,  {
 "placeName":
 "Grillparzerstraße",
 "ref":
 "pmb412"}
 ,  {
 "placeName":
 "Berlin",
 "ref":
 "pmb168"}
 ,  {
 "placeName":
 "Café Griensteidl",
 "ref":
 "pmb34"}
 ,  {
 "placeName":
 "Mahlerstraße",
 "ref":
 "pmb1178"}
 ]
}
}, {
 "type":
 "schnitzler-briefe",
 "color":
 "#A63437",
 "filename":
 "L00151",
 "caption":
 "Briefe mit Autorinnen und Autoren",
 "idno":
 "https://schnitzler-briefe.acdh.oeaw.ac.at/L00151.html",
 "head":
 "Friedrich M. Fels an Arthur Schnitzler, [Ende 1892?]",
 "desc":
{"listPerson":
  [
{
 "persName":
 "Friedrich Michael Fels",
 "ref":
 "pmb2450"},
 {
 "persName":
 "?? [Bote von Friedrich M. Fels]",
 "ref":
 "pmb41906"},
 {
 "persName":
 "?? [Vermieter von F. M. Fels]",
 "ref":
 "pmb41903"},
 {
 "persName":
 "Richard Beer-Hofmann",
 "ref":
 "pmb10863"},
 {
 "persName":
 "Hugo von Hofmannsthal",
 "ref":
 "pmb11740"}],
 "listPlace":
  [
 {
 "placeName":
 "Wien",
 "ref":
 "pmb50"}
 ,  {
 "placeName":
 "Meran",
 "ref":
 "pmb43520"}
 ]
}
}, {
 "type":
 "schnitzler-briefe",
 "color":
 "#A63437",
 "filename":
 "L00152",
 "caption":
 "Briefe mit Autorinnen und Autoren",
 "idno":
 "https://schnitzler-briefe.acdh.oeaw.ac.at/L00152.html",
 "head":
 "Friedrich M. Fels an Arthur Schnitzler, [vor dem 1. 1. 1893?]",
 "desc":
{"listPerson":
  [
{
 "persName":
 "Friedrich Michael Fels",
 "ref":
 "pmb2450"}],
 "listPlace":
  [
 {
 "placeName":
 "Wien",
 "ref":
 "pmb50"}
 ,  {
 "placeName":
 "II., Leopoldstadt",
 "ref":
 "pmb52"}
 ,  {
 "placeName":
 "Café Central",
 "ref":
 "pmb262"}
 ]
}
}, {
 "type":
 "schnitzler-orte",
 "color":
 "#045344",
 "filename":
 "entity/50/",
 "caption":
 "Aufenthaltsorte",
 "idno":
 "https://pmb.acdh.oeaw.ac.at/entity/50/",
 "head":
 "Wien"
}, {
 "type":
 "schnitzler-orte",
 "color":
 "#045344",
 "filename":
 "entity/412/",
 "caption":
 "Aufenthaltsorte",
 "idno":
 "https://pmb.acdh.oeaw.ac.at/entity/412/",
 "head":
 "Grillparzerstraße"
}, {
 "type":
 "schnitzler-cmif",
 "subtype":
 "#j7685005-64da-4e31-99b6-b4641aa1628c",
 "color":
 "#654321",
 "caption":
 "Gedruckte Briefwechsel",
 "head":
 "Arthur Schnitzler an Marie Glümer, 31. 12. 1892",
 "source":
 "Arthur Schnitzler: Briefe 1875–1912. Hrsg. v. Therese Nickl u. Heinrich Schnitzler. Frankfurt am Main: S. Fischer 1981."
}] 