[{
 "type":
 "schnitzler-tagebuch",
 "color":
 "#037a33",
 "filename":
 "entry__1892-08-06",
 "caption":
 "Tagebuch",
 "idno":
 "https://schnitzler-tagebuch.acdh.oeaw.ac.at/entry__1892-08-06.html",
 "head":
 "Tagebuch, 6. August 1892",
 "desc":
{"listPerson":
  [
{
 "persName":
 "Marie Glümer",
 "ref":
 "person_15485"}],
 "listBibl":
  [
 {
 "title":
 "Anatol",
 "ref":
 "pmb29935"}
 ,  {
 "title":
 "Das Märchen. Schauspiel in drei Aufzügen",
 "ref":
 "pmb29823"}
 ,  {
 "title":
 "Cavalleria rusticana",
 "ref":
 "pmb30603"}
 ],
 "listPlace":
  [
 {
 "placeName":
 "Prag",
 "ref":
 "pmb652"}
 ]
}
}, {
 "type":
 "schnitzler-briefe",
 "color":
 "#A63437",
 "filename":
 "L00112",
 "caption":
 "Briefe mit Autorinnen und Autoren",
 "idno":
 "https://schnitzler-briefe.acdh.oeaw.ac.at/L00112.html",
 "head":
 "Arthur Schnitzler an Hugo von Hofmannsthal, 6. 8. 1892",
 "desc":
{"listPerson":
  [
{
 "persName":
 "Hugo von Hofmannsthal",
 "ref":
 "pmb11740"},
 {
 "persName":
 "Hermann Bahr",
 "ref":
 "pmb10815"},
 {
 "persName":
 "Marie Herzfeld",
 "ref":
 "pmb11666"},
 {
 "persName":
 "Wilhelm Bölsche",
 "ref":
 "pmb11061"},
 {
 "persName":
 "Oskar Blumenthal",
 "ref":
 "pmb14328"},
 {
 "persName":
 "Falk Schupp",
 "ref":
 "pmb12737"},
 {
 "persName":
 "Theodor Herzl",
 "ref":
 "pmb11673"},
 {
 "persName":
 "Julius Kulka",
 "ref":
 "pmb19832"},
 {
 "persName":
 "Richard Beer-Hofmann",
 "ref":
 "pmb10863"},
 {
 "persName":
 "Gustav Schwarzkopf",
 "ref":
 "pmb12740"}],
 "listBibl":
  [
 {
 "title":
 "Der Sohn. Aus den Papieren eines Arztes",
 "ref":
 "pmb30257"}
 ,  {
 "title":
 "Anatol",
 "ref":
 "pmb29935"}
 ],
 "listOrg":
  [
 {
 "orgName":
 "Bibliographisches Bureau",
 "ref":
 "pmb29716"}
 ,  {
 "orgName":
 "Weltausstellung 1893",
 "ref":
 "pmb29318"}
 ],
 "listPlace":
  [
 {
 "placeName":
 "Wien",
 "ref":
 "pmb50"}
 ,  {
 "placeName":
 "Berlin",
 "ref":
 "pmb168"}
 ,  {
 "placeName":
 "Prag",
 "ref":
 "pmb652"}
 ,  {
 "placeName":
 "Chicago",
 "ref":
 "pmb880"}
 ,  {
 "placeName":
 "Bad Ischl",
 "ref":
 "pmb213"}
 ]
}
}, {
 "type":
 "schnitzler-orte",
 "color":
 "#045344",
 "filename":
 "entity/50/",
 "caption":
 "Aufenthaltsorte",
 "idno":
 "https://pmb.acdh.oeaw.ac.at/entity/50/",
 "head":
 "Wien"
}, {
 "type":
 "schnitzler-bahr",
 "color":
 "#F9BD63",
 "filename":
 "L041416",
 "caption":
 "Schnitzler/Bahr",
 "idno":
 "https://schnitzler-bahr.acdh.oeaw.ac.at/L041416.html",
 "head":
 "Schnitzler an Hofmannsthal, 6. 8. 1892",
 "desc":
{"listPerson":
  [
{
 "persName":
 "Hugo von Hofmannsthal",
 "ref":
 "pmb11740"},
 {
 "persName":
 "Marie Herzfeld",
 "ref":
 "pmb11666"},
 {
 "persName":
 "Wilhelm Bölsche",
 "ref":
 "pmb11061"},
 {
 "persName":
 "Oskar Blumenthal",
 "ref":
 "pmb14328"},
 {
 "persName":
 "Falk Schupp",
 "ref":
 "pmb12737"},
 {
 "persName":
 "Theodor Herzl",
 "ref":
 "pmb11673"},
 {
 "persName":
 "Julius Kulka",
 "ref":
 "pmb19832"},
 {
 "persName":
 "Richard Beer-Hofmann",
 "ref":
 "pmb10863"},
 {
 "persName":
 "Gustav Schwarzkopf",
 "ref":
 "pmb12740"},
 {
 "persName":
 "Hermann Bahr",
 "ref":
 "pmb10815"}],
 "listBibl":
  [
 {
 "title":
 "Der Sohn. Aus den Papieren eines Arztes",
 "ref":
 "pmb30257"}
 ,  {
 "title":
 "Anatol",
 "ref":
 "pmb29935"}
 ],
 "listPlace":
  [
 {
 "placeName":
 "Wien",
 "ref":
 "pmb50"}
 ,  {
 "placeName":
 "Berlin",
 "ref":
 "pmb168"}
 ,  {
 "placeName":
 "Prag",
 "ref":
 "pmb652"}
 ,  {
 "placeName":
 "Chicago",
 "ref":
 "pmb880"}
 ,  {
 "placeName":
 "Bad Ischl",
 "ref":
 "pmb213"}
 ],
 "listOrg":
  [
 {
 "orgName":
 "Bibliographisches Bureau",
 "ref":
 "pmb29716"}
 ,  {
 "orgName":
 "Weltausstellung 1893",
 "ref":
 "pmb29318"}
 ]
}
}] 