[{
 "type":
 "schnitzler-tagebuch",
 "color":
 "#037a33",
 "filename":
 "entry__1893-06-21",
 "caption":
 "Tagebuch",
 "idno":
 "https://schnitzler-tagebuch.acdh.oeaw.ac.at/entry__1893-06-21.html",
 "head":
 "Tagebuch, 21. Juni 1893",
 "desc":
{"listPerson":
  [
{
 "persName":
 "Marie Glümer",
 "ref":
 "person_15485"},
 {
 "persName":
 "Leopold Rosenberg",
 "ref":
 "person_19372"}],
 "listBibl":
  [
 {
 "title":
 "Ohnmacht",
 "ref":
 "pmb33560"}
 ],
 "listPlace":
  [
 {
 "placeName":
 "Weimar",
 "ref":
 "pmb197"}
 ,  {
 "placeName":
 "W.",
 "ref":
 "pmb92587"}
 ,  {
 "placeName":
 "Ober-Sankt-Veit",
 "ref":
 "pmb91377"}
 ,  {
 "placeName":
 "Wiesbaden",
 "ref":
 "pmb883"}
 ]
}
}, {
 "type":
 "schnitzler-briefe",
 "color":
 "#A63437",
 "filename":
 "L00224",
 "caption":
 "Briefe mit Autorinnen und Autoren",
 "idno":
 "https://schnitzler-briefe.acdh.oeaw.ac.at/L00224.html",
 "head":
 "Michael Georg Conrad an Arthur Schnitzler, 21. 6. 1893",
 "desc":
{"listPerson":
  [
{
 "persName":
 "Michael Georg Conrad",
 "ref":
 "pmb11098"},
 {
 "persName":
 "Hans Merian",
 "ref":
 "pmb5754"}],
 "listBibl":
  [
 {
 "title":
 "Der gute Irrtum",
 "ref":
 "pmb33558"}
 ,  {
 "title":
 "Ohnmacht",
 "ref":
 "pmb33560"}
 ,  {
 "title":
 "Die Gesellschaft. Monatsschrift für Litteratur, Kunst und Sozialpolitik",
 "ref":
 "pmb35919"}
 ],
 "listPlace":
  [
 {
 "placeName":
 "München",
 "ref":
 "pmb45258"}
 ,  {
 "placeName":
 "Wien",
 "ref":
 "pmb50"}
 ,  {
 "placeName":
 "I., Innere Stadt",
 "ref":
 "pmb51"}
 ,  {
 "placeName":
 "Grillparzerstraße",
 "ref":
 "pmb412"}
 ]
}
}, {
 "type":
 "schnitzler-briefe",
 "color":
 "#A63437",
 "filename":
 "L00225",
 "caption":
 "Briefe mit Autorinnen und Autoren",
 "idno":
 "https://schnitzler-briefe.acdh.oeaw.ac.at/L00225.html",
 "head":
 "Hugo von Hofmannsthal an Arthur Schnitzler, [21.? 6. 1893]",
 "desc":
{"listPerson":
  [
{
 "persName":
 "Hugo von Hofmannsthal",
 "ref":
 "pmb11740"},
 {
 "persName":
 "Felix Salten",
 "ref":
 "pmb2167"}],
 "listBibl":
  [
 {
 "title":
 "Tagebuch",
 "ref":
 "pmb33243"}
 ],
 "listPlace":
  [
 {
 "placeName":
 "Baden bei Wien",
 "ref":
 "pmb662"}
 ]
}
}, {
 "type":
 "schnitzler-orte",
 "color":
 "#045344",
 "filename":
 "entity/50/",
 "caption":
 "Aufenthaltsorte",
 "idno":
 "https://pmb.acdh.oeaw.ac.at/entity/50/",
 "head":
 "Wien"
}, {
 "type":
 "schnitzler-orte",
 "color":
 "#045344",
 "filename":
 "entity/412/",
 "caption":
 "Aufenthaltsorte",
 "idno":
 "https://pmb.acdh.oeaw.ac.at/entity/412/",
 "head":
 "Grillparzerstraße"
}, {
 "type":
 "schnitzler-cmif",
 "subtype":
 "#j7685005-64da-4e31-99b6-b4641aa1628c",
 "color":
 "#654321",
 "caption":
 "Gedruckte Briefwechsel",
 "head":
 "Arthur Schnitzler an Theodor Herzl, 21. 6. 1893",
 "source":
 "Arthur Schnitzler: Briefe 1875–1912. Hrsg. v. Therese Nickl u. Heinrich Schnitzler. Frankfurt am Main: S. Fischer 1981."
}] 