[{
 "type":
 "schnitzler-tagebuch",
 "color":
 "#037a33",
 "filename":
 "entry__1893-07-24",
 "caption":
 "Tagebuch",
 "idno":
 "https://schnitzler-tagebuch.acdh.oeaw.ac.at/entry__1893-07-24.html",
 "head":
 "Tagebuch, 24. Juli 1893",
 "desc":
{"listPerson":
  [
{
 "persName":
 "Marie Glümer",
 "ref":
 "person_15485"},
 {
 "persName":
 "Robert Hirschfeld",
 "ref":
 "person_16228"},
 {
 "persName":
 "Edmund Wengraf",
 "ref":
 "person_21234"},
 {
 "persName":
 "Hermann Bahr",
 "ref":
 "person_13374"}],
 "listPlace":
  [
 {
 "placeName":
 "Brühl",
 "ref":
 "pmb44413"}
 ]
}
}, {
 "type":
 "schnitzler-briefe",
 "color":
 "#A63437",
 "filename":
 "L00241",
 "caption":
 "Briefe mit Autorinnen und Autoren",
 "idno":
 "https://schnitzler-briefe.acdh.oeaw.ac.at/L00241.html",
 "head":
 "Hermann Bahr an Arthur Schnitzler, [24. 7. 1893]",
 "desc":
{"listPerson":
  [
{
 "persName":
 "Hermann Bahr",
 "ref":
 "pmb10815"},
 {
 "persName":
 "Hugo von Hofmannsthal",
 "ref":
 "pmb11740"}],
 "listBibl":
  [
 {
 "title":
 "Abschiedssouper",
 "ref":
 "pmb30005"}
 ],
 "listOrg":
  [
 {
 "orgName":
 "Deutsche Zeitung",
 "ref":
 "pmb29424"}
 ],
 "listPlace":
  [
 {
 "placeName":
 "Wien",
 "ref":
 "pmb50"}
 ,  {
 "placeName":
 "Pelikangasse",
 "ref":
 "pmb198"}
 ,  {
 "placeName":
 "Burgring",
 "ref":
 "pmb274"}
 ,  {
 "placeName":
 "Grillparzerstraße",
 "ref":
 "pmb412"}
 ,  {
 "placeName":
 "Bad Ischl",
 "ref":
 "pmb213"}
 ]
}
}, {
 "type":
 "schnitzler-orte",
 "color":
 "#045344",
 "filename":
 "entity/50/",
 "caption":
 "Aufenthaltsorte",
 "idno":
 "https://pmb.acdh.oeaw.ac.at/entity/50/",
 "head":
 "Wien"
}, {
 "type":
 "schnitzler-orte",
 "color":
 "#045344",
 "filename":
 "entity/412/",
 "caption":
 "Aufenthaltsorte",
 "idno":
 "https://pmb.acdh.oeaw.ac.at/entity/412/",
 "head":
 "Grillparzerstraße"
}, {
 "type":
 "schnitzler-bahr",
 "color":
 "#F9BD63",
 "filename":
 "L041157",
 "caption":
 "Schnitzler/Bahr",
 "idno":
 "https://schnitzler-bahr.acdh.oeaw.ac.at/L041157.html",
 "head":
 "Bahr an Schnitzler, [24. 7. 1893]",
 "desc":
{"listPerson":
  [
{
 "persName":
 "Hermann Bahr",
 "ref":
 "pmb10815"},
 {
 "persName":
 "Hugo von Hofmannsthal",
 "ref":
 "pmb11740"}],
 "listPlace":
  [
 {
 "placeName":
 "Wien",
 "ref":
 "pmb50"}
 ,  {
 "placeName":
 "Pelikangasse",
 "ref":
 "pmb198"}
 ,  {
 "placeName":
 "Burgring",
 "ref":
 "pmb274"}
 ,  {
 "placeName":
 "Grillparzerstraße",
 "ref":
 "pmb412"}
 ,  {
 "placeName":
 "Bad Ischl",
 "ref":
 "pmb213"}
 ],
 "listOrg":
  [
 {
 "orgName":
 "Deutsche Zeitung",
 "ref":
 "pmb29424"}
 ]
}
}, {
 "type":
 "schnitzler-bahr",
 "color":
 "#F9BD63",
 "filename":
 "D041087",
 "caption":
 "Schnitzler/Bahr",
 "idno":
 "https://schnitzler-bahr.acdh.oeaw.ac.at/D041087.html",
 "head":
 "Tagebuch von Schnitzler, 24. 7. 1893",
 "desc":
{"listPerson":
  [
{
 "persName":
 "Hermann Bahr",
 "ref":
 "pmb10815"},
 {
 "persName":
 "Marie Glümer",
 "ref":
 "pmb14953"},
 {
 "persName":
 "Georg Hirschfeld",
 "ref":
 "pmb11701"},
 {
 "persName":
 "Edmund Wengraf",
 "ref":
 "pmb13088"}],
 "listBibl":
  [
 {
 "title":
 "Zwei Freunde Burckhards",
 "ref":
 "pmb30267"}
 ],
 "listPlace":
  [
 {
 "placeName":
 "Hinterbrühl",
 "ref":
 "pmb75"}
 ,  {
 "placeName":
 "Vorderbrühl",
 "ref":
 "pmb957"}
 ],
 "listOrg":
  [
 {
 "orgName":
 "Wiener Sonn- und Montagszeitung",
 "ref":
 "pmb29525"}
 ]
}
}] 