[{
 "type":
 "schnitzler-tagebuch",
 "color":
 "#037a33",
 "filename":
 "entry__1893-03-04",
 "caption":
 "Tagebuch",
 "idno":
 "https://schnitzler-tagebuch.acdh.oeaw.ac.at/entry__1893-03-04.html",
 "head":
 "Tagebuch, 4. März 1893",
 "desc":
{"listPerson":
  [
{
 "persName":
 "Auguste Rosenthal",
 "ref":
 "person_19390"},
 {
 "persName":
 "Marie Rosenthal",
 "ref":
 "person_19393"},
 {
 "persName":
 "Moritz Rosenthal",
 "ref":
 "person_19394"},
 {
 "persName":
 "Sophie Link",
 "ref":
 "person_17574"}],
 "listPlace":
  [
 {
 "placeName":
 "Veprinac",
 "ref":
 "pmb92007"}
 ]
}
}, {
 "type":
 "schnitzler-briefe",
 "color":
 "#A63437",
 "filename":
 "L00184",
 "caption":
 "Briefe mit Autorinnen und Autoren",
 "idno":
 "https://schnitzler-briefe.acdh.oeaw.ac.at/L00184.html",
 "head":
 "Karl Kraus an Arthur Schnitzler, 4. 3. 1893",
 "desc":
{"listPerson":
  [
{
 "persName":
 "Karl Kraus",
 "ref":
 "pmb11988"},
 {
 "persName":
 "Hermann Bahr",
 "ref":
 "pmb10815"},
 {
 "persName":
 "Hugo von Hofmannsthal",
 "ref":
 "pmb11740"},
 {
 "persName":
 "Eleonora Duse",
 "ref":
 "pmb11201"},
 {
 "persName":
 "Victorien Sardou",
 "ref":
 "pmb12624"},
 {
 "persName":
 "Henrik Ibsen",
 "ref":
 "pmb11798"},
 {
 "persName":
 "Charlotte Wolter",
 "ref":
 "pmb13166"},
 {
 "persName":
 "Edmund Wengraf",
 "ref":
 "pmb13088"},
 {
 "persName":
 "Carl Busse",
 "ref":
 "pmb4494"}],
 "listBibl":
  [
 {
 "title":
 "Fernande",
 "ref":
 "pmb32358"}
 ,  {
 "title":
 "Tagebuch",
 "ref":
 "pmb33243"}
 ,  {
 "title":
 "Nora oder ein Puppenheim",
 "ref":
 "pmb31395"}
 ,  {
 "title":
 "Eleonora Duse",
 "ref":
 "pmb31703"}
 ,  {
 "title":
 "Frankfurter Zeitung",
 "ref":
 "pmb36344"}
 ,  {
 "title":
 "Russische Reise",
 "ref":
 "pmb30175"}
 ],
 "listPlace":
  [
 {
 "placeName":
 "Berlin",
 "ref":
 "pmb168"}
 ,  {
 "placeName":
 "Opatija",
 "ref":
 "pmb38096"}
 ,  {
 "placeName":
 "Hotel Guarnero",
 "ref":
 "pmb306"}
 ,  {
 "placeName":
 "Pension Quisisana",
 "ref":
 "pmb756"}
 ,  {
 "placeName":
 "Wien",
 "ref":
 "pmb50"}
 ,  {
 "placeName":
 "Leipzig",
 "ref":
 "pmb864"}
 ,  {
 "placeName":
 "Prag",
 "ref":
 "pmb652"}
 ,  {
 "placeName":
 "Internationales Ausstellungstheater im k.k. Prater",
 "ref":
 "pmb45128"}
 ]
}
}, {
 "type":
 "schnitzler-orte",
 "color":
 "#045344",
 "filename":
 "entity/38096/",
 "caption":
 "Aufenthaltsorte",
 "idno":
 "https://pmb.acdh.oeaw.ac.at/entity/38096/",
 "head":
 "Opatija"
}, {
 "type":
 "schnitzler-orte",
 "color":
 "#045344",
 "filename":
 "entity/756/",
 "caption":
 "Aufenthaltsorte",
 "idno":
 "https://pmb.acdh.oeaw.ac.at/entity/756/",
 "head":
 "Pension Quisisana"
}, {
 "type":
 "schnitzler-bahr",
 "color":
 "#F9BD63",
 "filename":
 "L041523",
 "caption":
 "Schnitzler/Bahr",
 "idno":
 "https://schnitzler-bahr.acdh.oeaw.ac.at/L041523.html",
 "head":
 "Kraus an Schnitzler, 4. 3. 1893",
 "desc":
{"listPerson":
  [
{
 "persName":
 "Karl Kraus",
 "ref":
 "pmb11988"},
 {
 "persName":
 "Hugo von Hofmannsthal",
 "ref":
 "pmb11740"},
 {
 "persName":
 "Eleonora Duse",
 "ref":
 "pmb11201"},
 {
 "persName":
 "Charlotte Wolter",
 "ref":
 "pmb13166"},
 {
 "persName":
 "Edmund Wengraf",
 "ref":
 "pmb13088"},
 {
 "persName":
 "Hermann Bahr",
 "ref":
 "pmb10815"},
 {
 "persName":
 "Carl Busse",
 "ref":
 "pmb4494"}],
 "listPlace":
  [
 {
 "placeName":
 "Berlin",
 "ref":
 "pmb168"}
 ,  {
 "placeName":
 "Opatija",
 "ref":
 "pmb38096"}
 ,  {
 "placeName":
 "Hotel Guarnero",
 "ref":
 "pmb306"}
 ,  {
 "placeName":
 "Pension Quisisana",
 "ref":
 "pmb756"}
 ,  {
 "placeName":
 "Wien",
 "ref":
 "pmb50"}
 ,  {
 "placeName":
 "Leipzig",
 "ref":
 "pmb864"}
 ,  {
 "placeName":
 "Prag",
 "ref":
 "pmb652"}
 ]
}
}] 