[{
 "type":
 "schnitzler-tagebuch",
 "color":
 "#037a33",
 "filename":
 "entry__1893-03-07",
 "caption":
 "Tagebuch",
 "idno":
 "https://schnitzler-tagebuch.acdh.oeaw.ac.at/entry__1893-03-07.html",
 "head":
 "Tagebuch, 7. März 1893",
 "desc":
{"listPerson":
  [
{
 "persName":
 "Sophie Link",
 "ref":
 "person_17574"}]
}
}, {
 "type":
 "schnitzler-briefe",
 "color":
 "#A63437",
 "filename":
 "L00187",
 "caption":
 "Briefe mit Autorinnen und Autoren",
 "idno":
 "https://schnitzler-briefe.acdh.oeaw.ac.at/L00187.html",
 "head":
 "Eduard Michael Kafka an Arthur Schnitzler, 7. 3. 1893",
 "desc":
{"listPerson":
  [
{
 "persName":
 "Eduard Michael Kafka",
 "ref":
 "pmb2563"},
 {
 "persName":
 "Wilhelm Sundermeyer",
 "ref":
 "pmb42566"},
 {
 "persName":
 "Friedrich Michael Fels",
 "ref":
 "pmb2450"}],
 "listBibl":
  [
 {
 "title":
 "Anatol",
 "ref":
 "pmb29935"}
 ],
 "listPlace":
  [
 {
 "placeName":
 "Kreiensen",
 "ref":
 "pmb42561"}
 ,  {
 "placeName":
 "Wien",
 "ref":
 "pmb50"}
 ,  {
 "placeName":
 "Bahnhof",
 "ref":
 "pmb42564"}
 ,  {
 "placeName":
 "München",
 "ref":
 "pmb45258"}
 ,  {
 "placeName":
 "Mannheim",
 "ref":
 "pmb881"}
 ,  {
 "placeName":
 "Pfälzer Hof",
 "ref":
 "pmb42568"}
 ,  {
 "placeName":
 "Brünn",
 "ref":
 "pmb833"}
 ,  {
 "placeName":
 "Prag",
 "ref":
 "pmb652"}
 ,  {
 "placeName":
 "Schweden",
 "ref":
 "pmb44335"}
 ,  {
 "placeName":
 "Norwegen",
 "ref":
 "pmb64465"}
 ]
}
}, {
 "type":
 "schnitzler-orte",
 "color":
 "#045344",
 "filename":
 "entity/38096/",
 "caption":
 "Aufenthaltsorte",
 "idno":
 "https://pmb.acdh.oeaw.ac.at/entity/38096/",
 "head":
 "Opatija"
}, {
 "type":
 "schnitzler-orte",
 "color":
 "#045344",
 "filename":
 "entity/756/",
 "caption":
 "Aufenthaltsorte",
 "idno":
 "https://pmb.acdh.oeaw.ac.at/entity/756/",
 "head":
 "Pension Quisisana"
}] 