[{
 "type":
 "schnitzler-tagebuch",
 "color":
 "#037a33",
 "filename":
 "entry__1893-08-27",
 "caption":
 "Tagebuch",
 "idno":
 "https://schnitzler-tagebuch.acdh.oeaw.ac.at/entry__1893-08-27.html",
 "head":
 "Tagebuch, 27. August 1893",
 "desc":
{"listPerson":
  [
{
 "persName":
 "Anna Kupelwieser",
 "ref":
 "person_17202"},
 {
 "persName":
 "Adolf Weisse",
 "ref":
 "person_21211"}],
 "listBibl":
  [
 {
 "title":
 "Das Märchen. Schauspiel in drei Aufzügen",
 "ref":
 "pmb29823"}
 ],
 "listPlace":
  [
 {
 "placeName":
 "Villach",
 "ref":
 "pmb92011"}
 ,  {
 "placeName":
 "Pörtschach",
 "ref":
 "pmb44278"}
 ,  {
 "placeName":
 "Klagenfurt",
 "ref":
 "pmb91030"}
 ,  {
 "placeName":
 "Moosburg",
 "ref":
 "pmb91290"}
 ]
}
}, {
 "type":
 "schnitzler-briefe",
 "color":
 "#A63437",
 "filename":
 "L00260",
 "caption":
 "Briefe mit Autorinnen und Autoren",
 "idno":
 "https://schnitzler-briefe.acdh.oeaw.ac.at/L00260.html",
 "head":
 "Arthur Schnitzler, Felix Salten an Richard Beer-Hofmann, 27. 8. 1893",
 "desc":
{"listPerson":
  [
{
 "persName":
 "Felix Salten",
 "ref":
 "pmb2167"},
 {
 "persName":
 "Richard Beer-Hofmann",
 "ref":
 "pmb10863"},
 {
 "persName":
 "Hugo von Hofmannsthal",
 "ref":
 "pmb11740"},
 {
 "persName":
 "Tizian",
 "ref":
 "pmb26079"},
 {
 "persName":
 "Anna Kupelwieser",
 "ref":
 "pmb19855"}],
 "listBibl":
  [
 {
 "title":
 "Der Tod des Tizian",
 "ref":
 "pmb31639"}
 ,  {
 "title":
 "Das Kind",
 "ref":
 "pmb30437"}
 ],
 "listPlace":
  [
 {
 "placeName":
 "Pörtschach",
 "ref":
 "pmb44278"}
 ,  {
 "placeName":
 "Znaim",
 "ref":
 "pmb33978"}
 ,  {
 "placeName":
 "Mähren",
 "ref":
 "pmb40823"}
 ,  {
 "placeName":
 "Pieve di Cadore",
 "ref":
 "pmb34112"}
 ]
}
}, {
 "type":
 "schnitzler-orte",
 "color":
 "#045344",
 "filename":
 "entity/92011/",
 "caption":
 "Aufenthaltsorte",
 "idno":
 "https://pmb.acdh.oeaw.ac.at/entity/92011/",
 "head":
 "Villach"
}, {
 "type":
 "schnitzler-orte",
 "color":
 "#045344",
 "filename":
 "entity/44278/",
 "caption":
 "Aufenthaltsorte",
 "idno":
 "https://pmb.acdh.oeaw.ac.at/entity/44278/",
 "head":
 "Pörtschach"
}, {
 "type":
 "schnitzler-orte",
 "color":
 "#045344",
 "filename":
 "entity/91030/",
 "caption":
 "Aufenthaltsorte",
 "idno":
 "https://pmb.acdh.oeaw.ac.at/entity/91030/",
 "head":
 "Klagenfurt"
}] 