[{
 "type":
 "schnitzler-tagebuch",
 "color":
 "#037a33",
 "filename":
 "entry__1893-08-18",
 "caption":
 "Tagebuch",
 "idno":
 "https://schnitzler-tagebuch.acdh.oeaw.ac.at/entry__1893-08-18.html",
 "head":
 "Tagebuch, 18. August 1893",
 "desc":
{"listPerson":
  [
{
 "persName":
 "Auguste Chlum",
 "ref":
 "person_14199"},
 {
 "persName":
 "Oskar Friedrich Eirich",
 "ref":
 "person_14673"},
 {
 "persName":
 "Marie Glümer",
 "ref":
 "person_15485"},
 {
 "persName":
 "Leopold Müller",
 "ref":
 "person_18302"},
 {
 "persName":
 "Gustav Schwarzkopf",
 "ref":
 "person_19986"}],
 "listBibl":
  [
 {
 "title":
 "Das Märchen. Schauspiel in drei Aufzügen",
 "ref":
 "pmb29823"}
 ],
 "listPlace":
  [
 {
 "placeName":
 "Deutschland",
 "ref":
 "pmb151"}
 ,  {
 "placeName":
 "Wien",
 "ref":
 "pmb50"}
 ,  {
 "placeName":
 "Sankt Moritz",
 "ref":
 "pmb44374"}
 ]
}
}, {
 "type":
 "schnitzler-briefe",
 "color":
 "#A63437",
 "filename":
 "L00256",
 "caption":
 "Briefe mit Autorinnen und Autoren",
 "idno":
 "https://schnitzler-briefe.acdh.oeaw.ac.at/L00256.html",
 "head":
 "Arthur Schnitzler an Richard Beer-Hofmann, 18. 8. 1893",
 "desc":
{"listPerson":
  [
{
 "persName":
 "Richard Beer-Hofmann",
 "ref":
 "pmb10863"},
 {
 "persName":
 "Carl Freund",
 "ref":
 "pmb39775"},
 {
 "persName":
 "Felix Salten",
 "ref":
 "pmb2167"}],
 "listPlace":
  [
 {
 "placeName":
 "Wien",
 "ref":
 "pmb50"}
 ,  {
 "placeName":
 "Bad Ischl",
 "ref":
 "pmb213"}
 ,  {
 "placeName":
 "Schulgasse",
 "ref":
 "pmb41463"}
 ,  {
 "placeName":
 "Lienz",
 "ref":
 "pmb897"}
 ]
}
}, {
 "type":
 "schnitzler-briefe",
 "color":
 "#A63437",
 "filename":
 "L02712",
 "caption":
 "Briefe mit Autorinnen und Autoren",
 "idno":
 "https://schnitzler-briefe.acdh.oeaw.ac.at/L02712.html",
 "head":
 "Paul Goldmann an Arthur Schnitzler, 18. 8. [1893]",
 "desc":
{"listPerson":
  [
{
 "persName":
 "Paul Goldmann",
 "ref":
 "pmb11485"},
 {
 "persName":
 "Leopold Sonnemann",
 "ref":
 "pmb87771"},
 {
 "persName":
 "Jean Casimir-Perier",
 "ref":
 "pmb88076"},
 {
 "persName":
 "Georges Clemenceau",
 "ref":
 "pmb4719"},
 {
 "persName":
 "Hugo von Hofmannsthal",
 "ref":
 "pmb11740"},
 {
 "persName":
 "Richard Beer-Hofmann",
 "ref":
 "pmb10863"},
 {
 "persName":
 "Knut Hamsun",
 "ref":
 "pmb11570"},
 {
 "persName":
 "Fedor Mamroth",
 "ref":
 "pmb4986"},
 {
 "persName":
 "Albert Langen",
 "ref":
 "pmb3379"},
 {
 "persName":
 "Willy Gretor",
 "ref":
 "pmb2896"},
 {
 "persName":
 "Hermann Sudermann",
 "ref":
 "pmb12899"},
 {
 "persName":
 "Emerich von Bukovics",
 "ref":
 "pmb2161"},
 {
 "persName":
 "Gabriele D’Annunzio",
 "ref":
 "pmb2142"}],
 "listBibl":
  [
 {
 "title":
 "Anatol",
 "ref":
 "pmb29935"}
 ,  {
 "title":
 "Frankfurter Zeitung",
 "ref":
 "pmb36344"}
 ,  {
 "title":
 "Vermischtes",
 "ref":
 "pmb89938"}
 ,  {
 "title":
 "Vorwärts",
 "ref":
 "pmb58129"}
 ,  {
 "title":
 "Sult",
 "ref":
 "pmb78051"}
 ,  {
 "title":
 "Neue Erde. Roman",
 "ref":
 "pmb78041"}
 ,  {
 "title":
 "Mysterien. Roman",
 "ref":
 "pmb78039"}
 ,  {
 "title":
 "Sterben. Novelle",
 "ref":
 "pmb30117"}
 ,  {
 "title":
 "Im Zwielicht. Zwanglose Geschichten",
 "ref":
 "pmb89947"}
 ,  {
 "title":
 "Frau Sorge",
 "ref":
 "pmb89950"}
 ,  {
 "title":
 "Die Ehre",
 "ref":
 "pmb30255"}
 ,  {
 "title":
 "Das Märchen. Schauspiel in drei Aufzügen",
 "ref":
 "pmb29823"}
 ,  {
 "title":
 "Gabriele d’Annunzio",
 "ref":
 "pmb31873"}
 ],
 "listOrg":
  [
 {
 "orgName":
 "Frankfurter Zeitung",
 "ref":
 "pmb29442"}
 ,  {
 "orgName":
 "S. Fischer Verlag",
 "ref":
 "pmb29639"}
 ,  {
 "orgName":
 "Albert Langen",
 "ref":
 "pmb29654"}
 ,  {
 "orgName":
 "Lessing-Theater",
 "ref":
 "pmb35053"}
 ,  {
 "orgName":
 "Volkstheater",
 "ref":
 "pmb36430"}
 ],
 "listPlace":
  [
 {
 "placeName":
 "Paris",
 "ref":
 "pmb182"}
 ,  {
 "placeName":
 "Wien",
 "ref":
 "pmb50"}
 ,  {
 "placeName":
 "rue Richelieu",
 "ref":
 "pmb34187"}
 ,  {
 "placeName":
 "Frankreich",
 "ref":
 "pmb166"}
 ,  {
 "placeName":
 "Salzburg",
 "ref":
 "pmb30"}
 ,  {
 "placeName":
 "Tirol",
 "ref":
 "pmb423"}
 ,  {
 "placeName":
 "Südtirol",
 "ref":
 "pmb969"}
 ,  {
 "placeName":
 "Italien",
 "ref":
 "pmb40306"}
 ,  {
 "placeName":
 "Kärnten",
 "ref":
 "pmb651"}
 ,  {
 "placeName":
 "Niederösterreich",
 "ref":
 "pmb1003"}
 ,  {
 "placeName":
 "Steiermark",
 "ref":
 "pmb17"}
 ,  {
 "placeName":
 "Reichenau an der Rax",
 "ref":
 "pmb483"}
 ,  {
 "placeName":
 "Deutschland",
 "ref":
 "pmb151"}
 ,  {
 "placeName":
 "Österreich",
 "ref":
 "pmb41240"}
 ,  {
 "placeName":
 "England",
 "ref":
 "pmb254"}
 ,  {
 "placeName":
 "Vereinigte Staaten von Amerika (USA)",
 "ref":
 "pmb43406"}
 ,  {
 "placeName":
 "Mexiko",
 "ref":
 "pmb367"}
 ,  {
 "placeName":
 "Spanien",
 "ref":
 "pmb388"}
 ,  {
 "placeName":
 "Russland",
 "ref":
 "pmb34438"}
 ,  {
 "placeName":
 "rue de Vaugirard",
 "ref":
 "pmb93001"}
 ,  {
 "placeName":
 "Berlin",
 "ref":
 "pmb168"}
 ]
}
}, {
 "type":
 "schnitzler-orte",
 "color":
 "#045344",
 "filename":
 "entity/50/",
 "caption":
 "Aufenthaltsorte",
 "idno":
 "https://pmb.acdh.oeaw.ac.at/entity/50/",
 "head":
 "Wien"
}, {
 "type":
 "schnitzler-orte",
 "color":
 "#045344",
 "filename":
 "entity/412/",
 "caption":
 "Aufenthaltsorte",
 "idno":
 "https://pmb.acdh.oeaw.ac.at/entity/412/",
 "head":
 "Grillparzerstraße"
}, {
 "type":
 "kalliope-verbund",
 "color":
 "#003574",
 "caption":
 "Kalliope Verbundkatalog",
 "idno":
 "http://kalliope-verbund.info/DE-2498-HS00034831",
 "head":
 "Glümer, Marie an Schnitzler, Arthur [Briefe]",
 "text":
 "Letztes Objekt aus der Mappe. 31 Br. 43 Bl., davon 2 Bl. Bruchstück",
 "desc":
{"listPerson":
  [
{
 "persName":
 "Marie (1873-1925) Glümer",
 "ref":
 "http://d-nb.info/gnd/128385022"}]
}
}] 