[{
 "type":
 "schnitzler-tagebuch",
 "color":
 "#037a33",
 "filename":
 "entry__1894-07-03",
 "caption":
 "Tagebuch",
 "idno":
 "https://schnitzler-tagebuch.acdh.oeaw.ac.at/entry__1894-07-03.html",
 "head":
 "Tagebuch, 3. Juli 1894",
 "desc":
{"listPlace":
  [
 {
 "placeName":
 "Rekawinkel",
 "ref":
 "pmb54767"}
 ,  {
 "placeName":
 "Wien",
 "ref":
 "pmb50"}
 ]
}
}, {
 "type":
 "schnitzler-briefe",
 "color":
 "#A63437",
 "filename":
 "L02629",
 "caption":
 "Briefe mit Autorinnen und Autoren",
 "idno":
 "https://schnitzler-briefe.acdh.oeaw.ac.at/L02629.html",
 "head":
 "Paul Goldmann an Arthur Schnitzler, 3. 7. [1894]",
 "desc":
{"listPerson":
  [
{
 "persName":
 "Paul Goldmann",
 "ref":
 "pmb11485"},
 {
 "persName":
 "Julius Schnitzler",
 "ref":
 "pmb12698"},
 {
 "persName":
 "Helene Schnitzler",
 "ref":
 "pmb24423"}],
 "listPlace":
  [
 {
 "placeName":
 "Place de la Bourse",
 "ref":
 "pmb87780"}
 ,  {
 "placeName":
 "IX., Alsergrund",
 "ref":
 "pmb59"}
 ,  {
 "placeName":
 "Paris",
 "ref":
 "pmb182"}
 ,  {
 "placeName":
 "Wien",
 "ref":
 "pmb50"}
 ,  {
 "placeName":
 "Österreich",
 "ref":
 "pmb41240"}
 ,  {
 "placeName":
 "Frankgasse",
 "ref":
 "pmb397"}
 ]
}
}, {
 "type":
 "schnitzler-orte",
 "color":
 "#045344",
 "filename":
 "entity/50/",
 "caption":
 "Aufenthaltsorte",
 "idno":
 "https://pmb.acdh.oeaw.ac.at/entity/50/",
 "head":
 "Wien"
}, {
 "type":
 "schnitzler-cmif",
 "subtype":
 "#g21edf0a-7af3-4163-813b-7d55aaaf2eba",
 "color":
 "#654321",
 "caption":
 "Gedruckte Briefwechsel",
 "head":
 "Adele Sandrock an Arthur Schnitzler, 3.7.1894",
 "source":
 "Renate Wagner (Hg.): Dilly. Geschichte einer Liebe in Briefen, Bildern und Dokumenten. Wien/München: Amalthea 1975."
}, {
 "type":
 "schnitzler-cmif",
 "subtype":
 "#i9ac725a-7aa1-4b66-9aaa-3fb96c91d495",
 "color":
 "#654321",
 "caption":
 "Gedruckte Briefwechsel",
 "head":
 "Theodor Herzl an Arthur Schnitzler, 3.7.1894",
 "source":
 "Theodor Herzl: Briefe und autobiographische Notizen. 1866–1895. Bearbeitet von Johannes Wachten in Zusammenarbeit mit Chaya Harel, Daisy Tycho, Manfred Winkler. Berlin: Propyläen 1983. (Theodor Herzl: Briefe und Tagebücher. Hg. Alex Bein, Hermann Greive, Moshe Schaerf, Julius H. Schoeps. Erster Band)"
}, {
 "type":
 "kalliope-verbund",
 "color":
 "#003574",
 "caption":
 "Kalliope Verbundkatalog",
 "idno":
 "http://kalliope-verbund.info/DE-2498-HS00069447",
 "head":
 "Sandrock, Adele an Schnitzler, Arthur [Briefe]",
 "text":
 "Erstes Objekt aus der Mappe. 15 Br., 3 Tel. 32 Bl. Mit 15 Abschr.",
 "desc":
{"listPerson":
  [
{
 "persName":
 "Adele (1863-1937) Sandrock",
 "ref":
 "http://d-nb.info/gnd/118605429"}]
}
}] 