[{
 "type":
 "schnitzler-tagebuch",
 "color":
 "#037a33",
 "filename":
 "entry__1894-07-29",
 "caption":
 "Tagebuch",
 "idno":
 "https://schnitzler-tagebuch.acdh.oeaw.ac.at/entry__1894-07-29.html",
 "head":
 "Tagebuch, 29. Juli 1894",
 "desc":
{"listPerson":
  [
{
 "persName":
 "Felix Salten",
 "ref":
 "person_19542"},
 {
 "persName":
 "Adele Sandrock",
 "ref":
 "person_19564"}],
 "listPlace":
  [
 {
 "placeName":
 "Marienbad",
 "ref":
 "pmb772"}
 ,  {
 "placeName":
 "Weidlingbach",
 "ref":
 "pmb44394"}
 ,  {
 "placeName":
 "Weidling",
 "ref":
 "pmb44392"}
 ]
}
}, {
 "type":
 "schnitzler-briefe",
 "color":
 "#A63437",
 "filename":
 "L00358",
 "caption":
 "Briefe mit Autorinnen und Autoren",
 "idno":
 "https://schnitzler-briefe.acdh.oeaw.ac.at/L00358.html",
 "head":
 "Hermann Bahr an Arthur Schnitzler, 29. 7. 1894",
 "desc":
{"listPerson":
  [
{
 "persName":
 "Hermann Bahr",
 "ref":
 "pmb10815"},
 {
 "persName":
 "Adele Sandrock",
 "ref":
 "pmb12618"}],
 "listBibl":
  [
 {
 "title":
 "Lehmann’s Allgemeiner Wohnungs-Anzeiger",
 "ref":
 "pmb32580"}
 ],
 "listOrg":
  [
 {
 "orgName":
 "Die Zeit. Wiener Wochenschrift",
 "ref":
 "pmb29209"}
 ],
 "listPlace":
  [
 {
 "placeName":
 "VIII., Josefstadt",
 "ref":
 "pmb58"}
 ,  {
 "placeName":
 "Wien",
 "ref":
 "pmb50"}
 ,  {
 "placeName":
 "IX., Alsergrund",
 "ref":
 "pmb59"}
 ,  {
 "placeName":
 "Frankgasse",
 "ref":
 "pmb397"}
 ,  {
 "placeName":
 "Lammgasse",
 "ref":
 "pmb770"}
 ]
}
}, {
 "type":
 "schnitzler-briefe",
 "color":
 "#A63437",
 "filename":
 "L02608",
 "caption":
 "Briefe mit Autorinnen und Autoren",
 "idno":
 "https://schnitzler-briefe.acdh.oeaw.ac.at/L02608.html",
 "head":
 "Paul Goldmann an Arthur Schnitzler, 29. 7. [1894]",
 "desc":
{"listPerson":
  [
{
 "persName":
 "Paul Goldmann",
 "ref":
 "pmb11485"},
 {
 "persName":
 "Leopold Sonnemann",
 "ref":
 "pmb87771"},
 {
 "persName":
 "Hilda von Mitis",
 "ref":
 "pmb65913"},
 {
 "persName":
 "Maximilian von Mitis",
 "ref":
 "pmb65917"},
 {
 "persName":
 "Julius Schnitzler",
 "ref":
 "pmb12698"},
 {
 "persName":
 "Helene Schnitzler",
 "ref":
 "pmb24423"},
 {
 "persName":
 "Henri Albert",
 "ref":
 "pmb2801"},
 {
 "persName":
 "Hugo von Hofmannsthal",
 "ref":
 "pmb11740"},
 {
 "persName":
 "Richard Beer-Hofmann",
 "ref":
 "pmb10863"},
 {
 "persName":
 "Hermann Bahr",
 "ref":
 "pmb10815"}],
 "listBibl":
  [
 {
 "title":
 "Lehmann’s Allgemeiner Wohnungs-Anzeiger",
 "ref":
 "pmb32580"}
 ,  {
 "title":
 "Les Emplettes de Noël",
 "ref":
 "pmb88052"}
 ,  {
 "title":
 "Tagebuch",
 "ref":
 "pmb33243"}
 ,  {
 "title":
 "Liebelei. Schauspiel in drei Akten",
 "ref":
 "pmb29917"}
 ],
 "listOrg":
  [
 {
 "orgName":
 "Frankfurter Zeitung",
 "ref":
 "pmb29442"}
 ,  {
 "orgName":
 "Landesgericht für Strafsachen",
 "ref":
 "pmb36842"}
 ],
 "listPlace":
  [
 {
 "placeName":
 "Paris",
 "ref":
 "pmb182"}
 ,  {
 "placeName":
 "Wien",
 "ref":
 "pmb50"}
 ,  {
 "placeName":
 "rue Feydeau",
 "ref":
 "pmb42671"}
 ,  {
 "placeName":
 "Alser Straße",
 "ref":
 "pmb51333"}
 ,  {
 "placeName":
 "Almsee",
 "ref":
 "pmb87802"}
 ,  {
 "placeName":
 "Versailles",
 "ref":
 "pmb36549"}
 ,  {
 "placeName":
 "Petit Trianon",
 "ref":
 "pmb87808"}
 ,  {
 "placeName":
 "Grand Trianon",
 "ref":
 "pmb87811"}
 ,  {
 "placeName":
 "Schweiz",
 "ref":
 "pmb43435"}
 ,  {
 "placeName":
 "Tirol",
 "ref":
 "pmb423"}
 ,  {
 "placeName":
 "Südtirol",
 "ref":
 "pmb969"}
 ,  {
 "placeName":
 "Bad Ischl",
 "ref":
 "pmb213"}
 ]
}
}, {
 "type":
 "schnitzler-orte",
 "color":
 "#045344",
 "filename":
 "entity/50/",
 "caption":
 "Aufenthaltsorte",
 "idno":
 "https://pmb.acdh.oeaw.ac.at/entity/50/",
 "head":
 "Wien"
}, {
 "type":
 "schnitzler-bahr",
 "color":
 "#F9BD63",
 "filename":
 "L041171",
 "caption":
 "Schnitzler/Bahr",
 "idno":
 "https://schnitzler-bahr.acdh.oeaw.ac.at/L041171.html",
 "head":
 "Bahr an Schnitzler, 29. 7. 1894",
 "desc":
{"listPerson":
  [
{
 "persName":
 "Hermann Bahr",
 "ref":
 "pmb10815"},
 {
 "persName":
 "Adele Sandrock",
 "ref":
 "pmb12618"}],
 "listPlace":
  [
 {
 "placeName":
 "Wien",
 "ref":
 "pmb50"}
 ,  {
 "placeName":
 "VIII., Josefstadt",
 "ref":
 "pmb58"}
 ,  {
 "placeName":
 "IX., Alsergrund",
 "ref":
 "pmb59"}
 ,  {
 "placeName":
 "Frankgasse",
 "ref":
 "pmb397"}
 ]
}
}] 