[{
 "type":
 "schnitzler-tagebuch",
 "color":
 "#037a33",
 "filename":
 "entry__1894-07-18",
 "caption":
 "Tagebuch",
 "idno":
 "https://schnitzler-tagebuch.acdh.oeaw.ac.at/entry__1894-07-18.html",
 "head":
 "Tagebuch, 18. Juli 1894",
 "desc":
{"listPerson":
  [
{
 "persName":
 "Regine Zeisler",
 "ref":
 "person_21526"},
 {
 "persName":
 "Sophie Ornstein",
 "ref":
 "person_18579"}]
}
}, {
 "type":
 "schnitzler-briefe",
 "color":
 "#A63437",
 "filename":
 "L00354",
 "caption":
 "Briefe mit Autorinnen und Autoren",
 "idno":
 "https://schnitzler-briefe.acdh.oeaw.ac.at/L00354.html",
 "head":
 "Richard Beer-Hofmann an Arthur Schnitzler, [18. 7. 1894]",
 "desc":
{"listPerson":
  [
{
 "persName":
 "Richard Beer-Hofmann",
 "ref":
 "pmb10863"}],
 "listPlace":
  [
 {
 "placeName":
 "Bad Ischl",
 "ref":
 "pmb213"}
 ,  {
 "placeName":
 "Salzburg",
 "ref":
 "pmb30"}
 ]
}
}, {
 "type":
 "schnitzler-briefe",
 "color":
 "#A63437",
 "filename":
 "L00355",
 "caption":
 "Briefe mit Autorinnen und Autoren",
 "idno":
 "https://schnitzler-briefe.acdh.oeaw.ac.at/L00355.html",
 "head":
 "Richard Beer-Hofmann an Arthur Schnitzler, [18. 7. 1894]",
 "desc":
{"listPerson":
  [
{
 "persName":
 "Richard Beer-Hofmann",
 "ref":
 "pmb10863"},
 {
 "persName":
 "Hermann Bahr",
 "ref":
 "pmb10815"},
 {
 "persName":
 "Hugo von Hofmannsthal",
 "ref":
 "pmb11740"},
 {
 "persName":
 "Josephine von Wertheimstein",
 "ref":
 "pmb4980"}],
 "listPlace":
  [
 {
 "placeName":
 "Bad Ischl",
 "ref":
 "pmb213"}
 ,  {
 "placeName":
 "Salzburg",
 "ref":
 "pmb30"}
 ,  {
 "placeName":
 "Bad Fusch",
 "ref":
 "pmb573"}
 ]
}
}, {
 "type":
 "schnitzler-briefe",
 "color":
 "#A63437",
 "filename":
 "L00356",
 "caption":
 "Briefe mit Autorinnen und Autoren",
 "idno":
 "https://schnitzler-briefe.acdh.oeaw.ac.at/L00356.html",
 "head":
 "Arthur Schnitzler an Richard Beer-Hofmann, [18. 7. 1894?]",
 "desc":
{"listPerson":
  [
{
 "persName":
 "Richard Beer-Hofmann",
 "ref":
 "pmb10863"},
 {
 "persName":
 "Hermann Bahr",
 "ref":
 "pmb10815"},
 {
 "persName":
 "Hugo von Hofmannsthal",
 "ref":
 "pmb11740"},
 {
 "persName":
 "Sophie Ornstein",
 "ref":
 "pmb22203"},
 {
 "persName":
 "Wilhelm Ornstein",
 "ref":
 "pmb42107"},
 {
 "persName":
 "Regine Zeisler",
 "ref":
 "pmb27449"}],
 "listPlace":
  [
 {
 "placeName":
 "Bad Ischl",
 "ref":
 "pmb213"}
 ,  {
 "placeName":
 "Eglmoosgasse",
 "ref":
 "pmb766"}
 ,  {
 "placeName":
 "Salzburg",
 "ref":
 "pmb30"}
 ,  {
 "placeName":
 "Esplanade",
 "ref":
 "pmb42117"}
 ,  {
 "placeName":
 "Hotel und Pension Rudolfshöhe (Leopold Petter)",
 "ref":
 "pmb414"}
 ]
}
}, {
 "type":
 "schnitzler-orte",
 "color":
 "#045344",
 "filename":
 "entity/213/",
 "caption":
 "Aufenthaltsorte",
 "idno":
 "https://pmb.acdh.oeaw.ac.at/entity/213/",
 "head":
 "Bad Ischl"
}, {
 "type":
 "schnitzler-bahr",
 "color":
 "#F9BD63",
 "filename":
 "L041695",
 "caption":
 "Schnitzler/Bahr",
 "idno":
 "https://schnitzler-bahr.acdh.oeaw.ac.at/L041695.html",
 "head":
 "Beer-Hofmann an Schnitzler, [18. 7. 1894]",
 "desc":
{"listPerson":
  [
{
 "persName":
 "Richard Beer-Hofmann",
 "ref":
 "pmb10863"},
 {
 "persName":
 "Hermann Bahr",
 "ref":
 "pmb10815"},
 {
 "persName":
 "Hugo von Hofmannsthal",
 "ref":
 "pmb11740"}],
 "listPlace":
  [
 {
 "placeName":
 "Bad Ischl",
 "ref":
 "pmb213"}
 ,  {
 "placeName":
 "Salzburg",
 "ref":
 "pmb30"}
 ,  {
 "placeName":
 "Bad Fusch",
 "ref":
 "pmb573"}
 ]
}
}] 