[{
 "type":
 "schnitzler-tagebuch",
 "color":
 "#037a33",
 "filename":
 "entry__1894-07-02",
 "caption":
 "Tagebuch",
 "idno":
 "https://schnitzler-tagebuch.acdh.oeaw.ac.at/entry__1894-07-02.html",
 "head":
 "Tagebuch, 2. Juli 1894",
 "desc":
{"listPerson":
  [
{
 "persName":
 "Robert Hirschfeld",
 "ref":
 "person_16228"},
 {
 "persName":
 "Adele Sandrock",
 "ref":
 "person_19564"}]
}
}, {
 "type":
 "schnitzler-briefe",
 "color":
 "#A63437",
 "filename":
 "L00343",
 "caption":
 "Briefe mit Autorinnen und Autoren",
 "idno":
 "https://schnitzler-briefe.acdh.oeaw.ac.at/L00343.html",
 "head":
 "Arthur Schnitzler an Richard Beer-Hofmann, 2. 7. 1894",
 "desc":
{"listPerson":
  [
{
 "persName":
 "Richard Beer-Hofmann",
 "ref":
 "pmb10863"},
 {
 "persName":
 "Hermann Bahr",
 "ref":
 "pmb10815"},
 {
 "persName":
 "Helene Schnitzler",
 "ref":
 "pmb24423"},
 {
 "persName":
 "Hugo von Hofmannsthal",
 "ref":
 "pmb11740"},
 {
 "persName":
 "Paul Schulz",
 "ref":
 "pmb24566"},
 {
 "persName":
 "Friedrich Kapper",
 "ref":
 "pmb19106"},
 {
 "persName":
 "Adele Kapper",
 "ref":
 "pmb19096"},
 {
 "persName":
 "Friedrich Michael Fels",
 "ref":
 "pmb2450"},
 {
 "persName":
 "Heinrich von Korff",
 "ref":
 "pmb19610"},
 {
 "persName":
 "Julius Schnitzler",
 "ref":
 "pmb12698"}],
 "listBibl":
  [
 {
 "title":
 "Der Tod Georgs",
 "ref":
 "pmb31535"}
 ],
 "listOrg":
  [
 {
 "orgName":
 "Stoll &amp; Uhlig",
 "ref":
 "pmb39535"}
 ],
 "listPlace":
  [
 {
 "placeName":
 "IX., Alsergrund",
 "ref":
 "pmb59"}
 ,  {
 "placeName":
 "Bad Ischl",
 "ref":
 "pmb213"}
 ,  {
 "placeName":
 "Wien",
 "ref":
 "pmb50"}
 ,  {
 "placeName":
 "Eglmoosgasse",
 "ref":
 "pmb766"}
 ,  {
 "placeName":
 "Frankgasse",
 "ref":
 "pmb397"}
 ,  {
 "placeName":
 "Lobkowitzplatz",
 "ref":
 "pmb41038"}
 ,  {
 "placeName":
 "Salzburg",
 "ref":
 "pmb30"}
 ,  {
 "placeName":
 "Bad Fusch",
 "ref":
 "pmb573"}
 ,  {
 "placeName":
 "Salesianergasse",
 "ref":
 "pmb76"}
 ,  {
 "placeName":
 "XIX., Döbling",
 "ref":
 "pmb69"}
 ]
}
}, {
 "type":
 "schnitzler-briefe",
 "color":
 "#A63437",
 "filename":
 "L00344",
 "caption":
 "Briefe mit Autorinnen und Autoren",
 "idno":
 "https://schnitzler-briefe.acdh.oeaw.ac.at/L00344.html",
 "head":
 "Max Burckhard an Arthur Schnitzler, 2. 7. 1894",
 "desc":
{"listPerson":
  [
{
 "persName":
 "Max Eugen Burckhard",
 "ref":
 "pmb11036"},
 {
 "persName":
 "Karl Glossy",
 "ref":
 "pmb11447"}],
 "listBibl":
  [
 {
 "title":
 "Anatol",
 "ref":
 "pmb29935"}
 ,  {
 "title":
 "Schnitzlers Einzug ins Burgtheater",
 "ref":
 "pmb33434"}
 ,  {
 "title":
 "Neue Freie Presse",
 "ref":
 "pmb36374"}
 ],
 "listOrg":
  [
 {
 "orgName":
 "Burgtheater",
 "ref":
 "pmb36247"}
 ],
 "listPlace":
  [
 {
 "placeName":
 "Wien",
 "ref":
 "pmb50"}
 ]
}
}, {
 "type":
 "schnitzler-briefe",
 "color":
 "#A63437",
 "filename":
 "L00345",
 "caption":
 "Briefe mit Autorinnen und Autoren",
 "idno":
 "https://schnitzler-briefe.acdh.oeaw.ac.at/L00345.html",
 "head":
 "Karl Kraus an Arthur Schnitzler, 2. 7. 1894",
 "desc":
{"listPerson":
  [
{
 "persName":
 "Karl Kraus",
 "ref":
 "pmb11988"}],
 "listPlace":
  [
 {
 "placeName":
 "Schliersee",
 "ref":
 "pmb936"}
 ,  {
 "placeName":
 "Wien",
 "ref":
 "pmb50"}
 ]
}
}, {
 "type":
 "schnitzler-orte",
 "color":
 "#045344",
 "filename":
 "entity/50/",
 "caption":
 "Aufenthaltsorte",
 "idno":
 "https://pmb.acdh.oeaw.ac.at/entity/50/",
 "head":
 "Wien"
}, {
 "type":
 "schnitzler-bahr",
 "color":
 "#F9BD63",
 "filename":
 "L041505",
 "caption":
 "Schnitzler/Bahr",
 "idno":
 "https://schnitzler-bahr.acdh.oeaw.ac.at/L041505.html",
 "head":
 "Schnitzler an Beer-Hofmann, 2. 7. 1894",
 "desc":
{"listPerson":
  [
{
 "persName":
 "Richard Beer-Hofmann",
 "ref":
 "pmb10863"},
 {
 "persName":
 "Hermann Bahr",
 "ref":
 "pmb10815"},
 {
 "persName":
 "Hugo von Hofmannsthal",
 "ref":
 "pmb11740"}],
 "listPlace":
  [
 {
 "placeName":
 "Wien",
 "ref":
 "pmb50"}
 ,  {
 "placeName":
 "Bad Ischl",
 "ref":
 "pmb213"}
 ,  {
 "placeName":
 "IX., Alsergrund",
 "ref":
 "pmb59"}
 ,  {
 "placeName":
 "Eglmoosgasse",
 "ref":
 "pmb766"}
 ,  {
 "placeName":
 "Salzburg",
 "ref":
 "pmb30"}
 ,  {
 "placeName":
 "Bad Fusch",
 "ref":
 "pmb573"}
 ,  {
 "placeName":
 "Salesianergasse",
 "ref":
 "pmb76"}
 ,  {
 "placeName":
 "XIX., Döbling",
 "ref":
 "pmb69"}
 ]
}
}, {
 "type":
 "schnitzler-cmif",
 "subtype":
 "#g21edf0a-7af3-4163-813b-7d55aaaf2eba",
 "color":
 "#654321",
 "caption":
 "Gedruckte Briefwechsel",
 "head":
 "Arthur Schnitzler an Adele Sandrock, 2.7.1894",
 "source":
 "Renate Wagner (Hg.): Dilly. Geschichte einer Liebe in Briefen, Bildern und Dokumenten. Wien/München: Amalthea 1975."
}] 