[{
 "type":
 "schnitzler-tagebuch",
 "color":
 "#037a33",
 "filename":
 "entry__1894-07-30",
 "caption":
 "Tagebuch",
 "idno":
 "https://schnitzler-tagebuch.acdh.oeaw.ac.at/entry__1894-07-30.html",
 "head":
 "Tagebuch, 30. Juli 1894",
 "desc":
{"listPerson":
  [
{
 "persName":
 "Carl Graeser",
 "ref":
 "person_15612"},
 {
 "persName":
 "Hermann Bahr",
 "ref":
 "person_13374"}],
 "listBibl":
  [
 {
 "title":
 "Liebelei. Schauspiel in drei Akten",
 "ref":
 "pmb29917"}
 ],
 "listPlace":
  [
 {
 "placeName":
 "Naples",
 "ref":
 "pmb91330"}
 ,  {
 "placeName":
 "Volksgarten",
 "ref":
 "pmb103"}
 ]
}
}, {
 "type":
 "schnitzler-briefe",
 "color":
 "#A63437",
 "filename":
 "L00359",
 "caption":
 "Briefe mit Autorinnen und Autoren",
 "idno":
 "https://schnitzler-briefe.acdh.oeaw.ac.at/L00359.html",
 "head":
 "Arthur Schnitzler an Richard Beer-Hofmann, [30. 7. 1894]",
 "desc":
{"listPerson":
  [
{
 "persName":
 "Hermann Freinthaller",
 "ref":
 "pmb42058"},
 {
 "persName":
 "Richard Beer-Hofmann",
 "ref":
 "pmb10863"},
 {
 "persName":
 "Hugo von Hofmannsthal",
 "ref":
 "pmb11740"}],
 "listPlace":
  [
 {
 "placeName":
 "Wien",
 "ref":
 "pmb50"}
 ,  {
 "placeName":
 "Bad Ischl",
 "ref":
 "pmb213"}
 ,  {
 "placeName":
 "Eglmoosgasse",
 "ref":
 "pmb766"}
 ,  {
 "placeName":
 "Salzburg",
 "ref":
 "pmb30"}
 ]
}
}, {
 "type":
 "schnitzler-briefe",
 "color":
 "#A63437",
 "filename":
 "L00360",
 "caption":
 "Briefe mit Autorinnen und Autoren",
 "idno":
 "https://schnitzler-briefe.acdh.oeaw.ac.at/L00360.html",
 "head":
 "Richard Beer-Hofmann an Arthur Schnitzler, [30. 7. 1894]",
 "desc":
{"listPerson":
  [
{
 "persName":
 "Richard Beer-Hofmann",
 "ref":
 "pmb10863"},
 {
 "persName":
 "Edmund Winter",
 "ref":
 "pmb41816"},
 {
 "persName":
 "Richard Specht",
 "ref":
 "pmb2456"},
 {
 "persName":
 "Adele Sandrock",
 "ref":
 "pmb12618"}],
 "listBibl":
  [
 {
 "title":
 "Sündentraum",
 "ref":
 "pmb41820"}
 ],
 "listPlace":
  [
 {
 "placeName":
 "Bad Ischl",
 "ref":
 "pmb213"}
 ,  {
 "placeName":
 "Wien",
 "ref":
 "pmb50"}
 ,  {
 "placeName":
 "Österreichischer Hof",
 "ref":
 "pmb230"}
 ]
}
}, {
 "type":
 "schnitzler-orte",
 "color":
 "#045344",
 "filename":
 "entity/50/",
 "caption":
 "Aufenthaltsorte",
 "idno":
 "https://pmb.acdh.oeaw.ac.at/entity/50/",
 "head":
 "Wien"
}, {
 "type":
 "schnitzler-bahr",
 "color":
 "#F9BD63",
 "filename":
 "D041112",
 "caption":
 "Schnitzler/Bahr",
 "idno":
 "https://schnitzler-bahr.acdh.oeaw.ac.at/D041112.html",
 "head":
 "Tagebuch von Schnitzler, 30. 7. 1894",
 "desc":
{"listPerson":
  [
{
 "persName":
 "Hermann Bahr",
 "ref":
 "pmb10815"},
 {
 "persName":
 "Carl Graeser",
 "ref":
 "pmb2808"}],
 "listBibl":
  [
 {
 "title":
 "Liebelei. Schauspiel in drei Akten",
 "ref":
 "pmb29917"}
 ],
 "listPlace":
  [
 {
 "placeName":
 "Deutsch-Schweizer Hospital",
 "ref":
 "pmb105"}
 ,  {
 "placeName":
 "Neapel",
 "ref":
 "pmb595"}
 ,  {
 "placeName":
 "Volksgarten",
 "ref":
 "pmb103"}
 ,  {
 "placeName":
 "Café Arkaden",
 "ref":
 "pmb104"}
 ]
}
}, {
 "type":
 "kalliope-verbund",
 "color":
 "#003574",
 "caption":
 "Kalliope Verbundkatalog",
 "idno":
 "http://kalliope-verbund.info/DE-2498-HS00081065",
 "head":
 "Schnitzler, Arthur: Liebelei [Dramatisches] (Drucktitel)",
 "text":
 "Letztes Objekt aus der Mappe. 7 Bl."
}] 