[{
 "type":
 "schnitzler-tagebuch",
 "color":
 "#037a33",
 "filename":
 "entry__1894-03-21",
 "caption":
 "Tagebuch",
 "idno":
 "https://schnitzler-tagebuch.acdh.oeaw.ac.at/entry__1894-03-21.html",
 "head":
 "Tagebuch, 21. März 1894",
 "desc":
{"listPerson":
  [
{
 "persName":
 "Adele Sandrock",
 "ref":
 "person_19564"}]
}
}, {
 "type":
 "schnitzler-briefe",
 "color":
 "#A63437",
 "filename":
 "L00306",
 "caption":
 "Briefe mit Autorinnen und Autoren",
 "idno":
 "https://schnitzler-briefe.acdh.oeaw.ac.at/L00306.html",
 "head":
 "Arthur Schnitzler an Richard Beer-Hofmann, 21. 3. 1894",
 "desc":
{"listPerson":
  [
{
 "persName":
 "Richard Beer-Hofmann",
 "ref":
 "pmb10863"}],
 "listPlace":
  [
 {
 "placeName":
 "I., Innere Stadt",
 "ref":
 "pmb51"}
 ,  {
 "placeName":
 "Wien",
 "ref":
 "pmb50"}
 ,  {
 "placeName":
 "Wollzeile",
 "ref":
 "pmb338"}
 ]
}
}, {
 "type":
 "schnitzler-briefe",
 "color":
 "#A63437",
 "filename":
 "L00307",
 "caption":
 "Briefe mit Autorinnen und Autoren",
 "idno":
 "https://schnitzler-briefe.acdh.oeaw.ac.at/L00307.html",
 "head":
 "Gerhard Wiese an Arthur Schnitzler, 21. 3. 1894",
 "desc":
{"listPerson":
  [
{
 "persName":
 "Gerhard Wiese",
 "ref":
 "pmb35015"},
 {
 "persName":
 "Oskar Blumenthal",
 "ref":
 "pmb14328"}],
 "listBibl":
  [
 {
 "title":
 "Der Eisenfresser",
 "ref":
 "pmb35020"}
 ,  {
 "title":
 "Niobe",
 "ref":
 "pmb31155"}
 ],
 "listOrg":
  [
 {
 "orgName":
 "Lessing-Theater",
 "ref":
 "pmb35053"}
 ],
 "listPlace":
  [
 {
 "placeName":
 "Berlin",
 "ref":
 "pmb168"}
 ,  {
 "placeName":
 "Wien",
 "ref":
 "pmb50"}
 ,  {
 "placeName":
 "Kapelle-Ufer",
 "ref":
 "pmb34999"}
 ,  {
 "placeName":
 "Moskau",
 "ref":
 "pmb869"}
 ]
}
}, {
 "type":
 "schnitzler-briefe",
 "color":
 "#A63437",
 "filename":
 "L02613",
 "caption":
 "Briefe mit Autorinnen und Autoren",
 "idno":
 "https://schnitzler-briefe.acdh.oeaw.ac.at/L02613.html",
 "head":
 "Paul Goldmann an Arthur Schnitzler, 21. 3. [1894]",
 "desc":
{"listPerson":
  [
{
 "persName":
 "Paul Goldmann",
 "ref":
 "pmb11485"},
 {
 "persName":
 "Henri Albert",
 "ref":
 "pmb2801"},
 {
 "persName":
 "Hermann Bahr",
 "ref":
 "pmb10815"},
 {
 "persName":
 "Heinrich Kanner",
 "ref":
 "pmb11867"},
 {
 "persName":
 "Isidor Singer",
 "ref":
 "pmb12790"}],
 "listBibl":
  [
 {
 "title":
 "Weihnachts-Einkäufe",
 "ref":
 "pmb30163"}
 ,  {
 "title":
 "Les Emplettes de Noël",
 "ref":
 "pmb88052"}
 ,  {
 "title":
 "L'Idée libre. Revue mensuelle de Littérature et d'Art",
 "ref":
 "pmb88050"}
 ,  {
 "title":
 "Das Märchen. Schauspiel in drei Aufzügen",
 "ref":
 "pmb29823"}
 ],
 "listOrg":
  [
 {
 "orgName":
 "Die Zeit. Wiener Wochenschrift",
 "ref":
 "pmb29209"}
 ],
 "listPlace":
  [
 {
 "placeName":
 "Paris",
 "ref":
 "pmb182"}
 ,  {
 "placeName":
 "Wien",
 "ref":
 "pmb50"}
 ]
}
}, {
 "type":
 "schnitzler-orte",
 "color":
 "#045344",
 "filename":
 "entity/50/",
 "caption":
 "Aufenthaltsorte",
 "idno":
 "https://pmb.acdh.oeaw.ac.at/entity/50/",
 "head":
 "Wien"
}] 