[{
 "type":
 "schnitzler-tagebuch",
 "color":
 "#037a33",
 "filename":
 "entry__1894-10-20",
 "caption":
 "Tagebuch",
 "idno":
 "https://schnitzler-tagebuch.acdh.oeaw.ac.at/entry__1894-10-20.html",
 "head":
 "Tagebuch, 20. Oktober 1894",
 "desc":
{"listPerson":
  [
{
 "persName":
 "Karl Kraus",
 "ref":
 "person_17108"},
 {
 "persName":
 "Édouard Pailleron",
 "ref":
 "person_18637"},
 {
 "persName":
 "Felix Salten",
 "ref":
 "person_19542"},
 {
 "persName":
 "Adele Sandrock",
 "ref":
 "person_19564"},
 {
 "persName":
 "Friedrich Schik",
 "ref":
 "person_19685"},
 {
 "persName":
 "Hermann Sudermann",
 "ref":
 "person_20563"}],
 "listBibl":
  [
 {
 "title":
 "Comödianten",
 "ref":
 "pmb31527"}
 ]
}
}, {
 "type":
 "schnitzler-briefe",
 "color":
 "#A63437",
 "filename":
 "L00387",
 "caption":
 "Briefe mit Autorinnen und Autoren",
 "idno":
 "https://schnitzler-briefe.acdh.oeaw.ac.at/L00387.html",
 "head":
 "Arthur Schnitzler an Richard Beer-Hofmann, 20. 10. 1894",
 "desc":
{"listPerson":
  [
{
 "persName":
 "Richard Beer-Hofmann",
 "ref":
 "pmb10863"},
 {
 "persName":
 "Hermann Bahr",
 "ref":
 "pmb10815"},
 {
 "persName":
 "Hermann Sudermann",
 "ref":
 "pmb12899"},
 {
 "persName":
 "?? [Schreibkraft für Arthur Schnitzler]",
 "ref":
 "pmb27711"},
 {
 "persName":
 "Hugo von Hofmannsthal",
 "ref":
 "pmb11740"},
 {
 "persName":
 "Felix Salten",
 "ref":
 "pmb2167"},
 {
 "persName":
 "Max Eugen Burckhard",
 "ref":
 "pmb11036"},
 {
 "persName":
 "Edmund Heding",
 "ref":
 "pmb28508"},
 {
 "persName":
 "Ludwig Nerz",
 "ref":
 "pmb21858"}],
 "listBibl":
  [
 {
 "title":
 "Die Schmetterlingsschlacht. Komödie in 4 Akten",
 "ref":
 "pmb30397"}
 ,  {
 "title":
 "Die Ehre",
 "ref":
 "pmb30255"}
 ,  {
 "title":
 "Sodom’s Ende",
 "ref":
 "pmb31327"}
 ,  {
 "title":
 "Heimat",
 "ref":
 "pmb31329"}
 ,  {
 "title":
 "Burgtheater (»Die Schmetterlingsschlacht«. Komödie in vier Akten von Hermann Sudermann. Zum ersten Mal aufgeführt am 6. October 1894)",
 "ref":
 "pmb31909"}
 ,  {
 "title":
 "Die Zeit. Wiener Wochenschrift",
 "ref":
 "pmb36340"}
 ,  {
 "title":
 "Comödianten",
 "ref":
 "pmb31527"}
 ,  {
 "title":
 "Liebelei. Schauspiel in drei Akten",
 "ref":
 "pmb29917"}
 ],
 "listPlace":
  [
 {
 "placeName":
 "I., Innere Stadt",
 "ref":
 "pmb51"}
 ,  {
 "placeName":
 "Neapel",
 "ref":
 "pmb595"}
 ,  {
 "placeName":
 "Wien",
 "ref":
 "pmb50"}
 ,  {
 "placeName":
 "Frankgasse",
 "ref":
 "pmb397"}
 ,  {
 "placeName":
 "Italien",
 "ref":
 "pmb40306"}
 ,  {
 "placeName":
 "Hôtel Hassler",
 "ref":
 "pmb623"}
 ,  {
 "placeName":
 "Sizilien",
 "ref":
 "pmb451"}
 ,  {
 "placeName":
 "Burgtheater",
 "ref":
 "pmb14"}
 ,  {
 "placeName":
 "Raimund-Theater",
 "ref":
 "pmb77"}
 ,  {
 "placeName":
 "Volkstheater",
 "ref":
 "pmb20"}
 ]
}
}, {
 "type":
 "schnitzler-briefe",
 "color":
 "#A63437",
 "filename":
 "L00388",
 "caption":
 "Briefe mit Autorinnen und Autoren",
 "idno":
 "https://schnitzler-briefe.acdh.oeaw.ac.at/L00388.html",
 "head":
 "Richard Beer-Hofmann an Arthur Schnitzler, 20. 10. 1894",
 "desc":
{"listPerson":
  [
{
 "persName":
 "Richard Beer-Hofmann",
 "ref":
 "pmb10863"},
 {
 "persName":
 "Hermann Bahr",
 "ref":
 "pmb10815"},
 {
 "persName":
 "Max Eugen Burckhard",
 "ref":
 "pmb11036"},
 {
 "persName":
 "Guy de Maupassant",
 "ref":
 "pmb12201"}],
 "listBibl":
  [
 {
 "title":
 "Der Abonnent",
 "ref":
 "pmb32211"}
 ,  {
 "title":
 "Die Zeit. Wiener Wochenschrift",
 "ref":
 "pmb36340"}
 ,  {
 "title":
 "Die Schmetterlingsschlacht. Komödie in 4 Akten",
 "ref":
 "pmb30397"}
 ,  {
 "title":
 "Dora",
 "ref":
 "pmb31989"}
 ],
 "listOrg":
  [
 {
 "orgName":
 "Die Zeit. Wiener Wochenschrift",
 "ref":
 "pmb29209"}
 ,  {
 "orgName":
 "Deutscher Schulverein",
 "ref":
 "pmb29763"}
 ],
 "listPlace":
  [
 {
 "placeName":
 "Baia",
 "ref":
 "pmb962"}
 ,  {
 "placeName":
 "Wien",
 "ref":
 "pmb50"}
 ,  {
 "placeName":
 "Neapel",
 "ref":
 "pmb595"}
 ,  {
 "placeName":
 "Capri",
 "ref":
 "pmb919"}
 ,  {
 "placeName":
 "Sorrent",
 "ref":
 "pmb629"}
 ,  {
 "placeName":
 "Venedig",
 "ref":
 "pmb462"}
 ,  {
 "placeName":
 "Grand Hotel Bauer-Grünwald",
 "ref":
 "pmb310"}
 ,  {
 "placeName":
 "Pallanza",
 "ref":
 "pmb44205"}
 ,  {
 "placeName":
 "Prag",
 "ref":
 "pmb652"}
 ]
}
}, {
 "type":
 "schnitzler-orte",
 "color":
 "#045344",
 "filename":
 "entity/50/",
 "caption":
 "Aufenthaltsorte",
 "idno":
 "https://pmb.acdh.oeaw.ac.at/entity/50/",
 "head":
 "Wien"
}, {
 "type":
 "schnitzler-bahr",
 "color":
 "#F9BD63",
 "filename":
 "L041512",
 "caption":
 "Schnitzler/Bahr",
 "idno":
 "https://schnitzler-bahr.acdh.oeaw.ac.at/L041512.html",
 "head":
 "Beer-Hofmann an Schnitzler, 20. 10. 1894",
 "desc":
{"listPerson":
  [
{
 "persName":
 "Richard Beer-Hofmann",
 "ref":
 "pmb10863"},
 {
 "persName":
 "Hermann Bahr",
 "ref":
 "pmb10815"},
 {
 "persName":
 "Max Eugen Burckhard",
 "ref":
 "pmb11036"},
 {
 "persName":
 "Guy de Maupassant",
 "ref":
 "pmb12201"}],
 "listBibl":
  [
 {
 "title":
 "Der Abonnent",
 "ref":
 "pmb32211"}
 ,  {
 "title":
 "Die Schmetterlingsschlacht",
 "ref":
 "pmb30397"}
 ,  {
 "title":
 "Dora",
 "ref":
 "pmb31989"}
 ],
 "listPlace":
  [
 {
 "placeName":
 "Baia",
 "ref":
 "pmb962"}
 ,  {
 "placeName":
 "Wien",
 "ref":
 "pmb50"}
 ,  {
 "placeName":
 "Neapel",
 "ref":
 "pmb595"}
 ,  {
 "placeName":
 "Capri",
 "ref":
 "pmb919"}
 ,  {
 "placeName":
 "Sorrent",
 "ref":
 "pmb629"}
 ,  {
 "placeName":
 "Venedig",
 "ref":
 "pmb462"}
 ,  {
 "placeName":
 "Grand Hotel Bauer-Grünwald",
 "ref":
 "pmb310"}
 ,  {
 "placeName":
 "Pallanza",
 "ref":
 "pmb44205"}
 ,  {
 "placeName":
 "Prag",
 "ref":
 "pmb652"}
 ],
 "listOrg":
  [
 {
 "orgName":
 "Die Zeit. Wiener Wochenschrift",
 "ref":
 "pmb29209"}
 ,  {
 "orgName":
 "Deutscher Schulverein",
 "ref":
 "pmb29763"}
 ]
}
}, {
 "type":
 "schnitzler-bahr",
 "color":
 "#F9BD63",
 "filename":
 "L041379",
 "caption":
 "Schnitzler/Bahr",
 "idno":
 "https://schnitzler-bahr.acdh.oeaw.ac.at/L041379.html",
 "head":
 "Schnitzler an Beer-Hofmann, 20. 10. 1894",
 "desc":
{"listPerson":
  [
{
 "persName":
 "Richard Beer-Hofmann",
 "ref":
 "pmb10863"},
 {
 "persName":
 "Hermann Sudermann",
 "ref":
 "pmb12899"},
 {
 "persName":
 "Hermann Bahr",
 "ref":
 "pmb10815"},
 {
 "persName":
 "?? [Schreibkraft für Arthur Schnitzler]",
 "ref":
 "pmb27711"},
 {
 "persName":
 "Hugo von Hofmannsthal",
 "ref":
 "pmb11740"},
 {
 "persName":
 "Felix Salten",
 "ref":
 "pmb2167"},
 {
 "persName":
 "Max Eugen Burckhard",
 "ref":
 "pmb11036"},
 {
 "persName":
 "Edmund Heding",
 "ref":
 "pmb28508"},
 {
 "persName":
 "Ludwig Nerz",
 "ref":
 "pmb21858"}],
 "listBibl":
  [
 {
 "title":
 "Die Schmetterlingsschlacht",
 "ref":
 "pmb30397"}
 ,  {
 "title":
 "Die Ehre",
 "ref":
 "pmb30255"}
 ,  {
 "title":
 "Sodom’s Ende",
 "ref":
 "pmb31327"}
 ,  {
 "title":
 "Heimat",
 "ref":
 "pmb31329"}
 ,  {
 "title":
 "Burgtheater (»Die Schmetterlingsschlacht«. Komödie in vier Akten von Hermann Sudermann. Zum ersten Mal aufgeführt am 6. October 1894)",
 "ref":
 "pmb31909"}
 ,  {
 "title":
 "Comödianten",
 "ref":
 "pmb31527"}
 ,  {
 "title":
 "Liebelei. Schauspiel in drei Akten",
 "ref":
 "pmb29917"}
 ],
 "listPlace":
  [
 {
 "placeName":
 "Wien",
 "ref":
 "pmb50"}
 ,  {
 "placeName":
 "Neapel",
 "ref":
 "pmb595"}
 ,  {
 "placeName":
 "I., Innere Stadt",
 "ref":
 "pmb51"}
 ,  {
 "placeName":
 "Frankgasse",
 "ref":
 "pmb397"}
 ,  {
 "placeName":
 "Italien",
 "ref":
 "pmb40306"}
 ,  {
 "placeName":
 "Hôtel Hassler",
 "ref":
 "pmb623"}
 ,  {
 "placeName":
 "Sizilien",
 "ref":
 "pmb451"}
 ,  {
 "placeName":
 "Burgtheater",
 "ref":
 "pmb14"}
 ,  {
 "placeName":
 "Raimund-Theater",
 "ref":
 "pmb77"}
 ,  {
 "placeName":
 "Volkstheater",
 "ref":
 "pmb20"}
 ]
}
}, {
 "type":
 "pmb",
 "color":
 "#9B5F98",
 "filename":
 "entity/42170/",
 "caption":
 "PMB",
 "idno":
 "https://pmb.acdh.oeaw.ac.at/entity/42170/",
 "head":
 "Premiere von Die Komödianten, 20.10.1894",
 "desc":
{"listBibl":
  [
 {
 "title":
 "Comödianten",
 "ref":
 "pmb31527"}
 ,  {
 "title":
 "Theater (»Komödianten« von Edouard Pailleron. Zum ersten Male im Deutschen Volkstheater am 20. October. »Es war einmal« von Holger Drachmann. Zum ersten Male im Raimundtheater am 27. October)",
 "ref":
 "pmb32824"}
 ],
 "listPerson":
  [
{
 "persName":
 "Adele Sandrock",
 "ref":
 "pmb12618"}],
 "listPlace":
  [
 {
 "placeName":
 "Volkstheater",
 "ref":
 "pmb20"}
 ]
}
}] 