[{
 "type":
 "schnitzler-tagebuch",
 "color":
 "#037a33",
 "filename":
 "entry__1894-04-02",
 "caption":
 "Tagebuch",
 "idno":
 "https://schnitzler-tagebuch.acdh.oeaw.ac.at/entry__1894-04-02.html",
 "head":
 "Tagebuch, 2. April 1894",
 "desc":
{"listPerson":
  [
{
 "persName":
 "Theodor Baumgarten",
 "ref":
 "person_13491"},
 {
 "persName":
 "Marie Glümer",
 "ref":
 "person_15485"},
 {
 "persName":
 "Paul Goldmann",
 "ref":
 "person_15529"},
 {
 "persName":
 "Robert Nhil",
 "ref":
 "person_18438"},
 {
 "persName":
 "Felix Salten",
 "ref":
 "person_19542"},
 {
 "persName":
 "Adele Sandrock",
 "ref":
 "person_19564"}],
 "listBibl":
  [
 {
 "title":
 "Die Brillanten-Königin",
 "ref":
 "pmb30439"}
 ]
}
}, {
 "type":
 "schnitzler-briefe",
 "color":
 "#A63437",
 "filename":
 "L00309",
 "caption":
 "Briefe mit Autorinnen und Autoren",
 "idno":
 "https://schnitzler-briefe.acdh.oeaw.ac.at/L00309.html",
 "head":
 "Arthur Schnitzler an Richard Beer-Hofmann, [2. 4. 1894?]",
 "desc":
{"listPerson":
  [
{
 "persName":
 "Richard Beer-Hofmann",
 "ref":
 "pmb10863"},
 {
 "persName":
 "Hermann Bahr",
 "ref":
 "pmb10815"}],
 "listOrg":
  [
 {
 "orgName":
 "Vorwärts",
 "ref":
 "pmb29783"}
 ],
 "listPlace":
  [
 {
 "placeName":
 "Wien",
 "ref":
 "pmb50"}
 ,  {
 "placeName":
 "Untere Augartenstraße",
 "ref":
 "pmb630"}
 ]
}
}, {
 "type":
 "schnitzler-briefe",
 "color":
 "#A63437",
 "filename":
 "L03029",
 "caption":
 "Briefe mit Autorinnen und Autoren",
 "idno":
 "https://schnitzler-briefe.acdh.oeaw.ac.at/L03029.html",
 "head":
 "Arthur Schnitzler an Felix Salten, [2. 4. 1894?]",
 "desc":
{"listPerson":
  [
{
 "persName":
 "Felix Salten",
 "ref":
 "pmb2167"}],
 "listPlace":
  [
 {
 "placeName":
 "Wien",
 "ref":
 "pmb50"}
 ]
}
}, {
 "type":
 "schnitzler-briefe",
 "color":
 "#A63437",
 "filename":
 "L00310",
 "caption":
 "Briefe mit Autorinnen und Autoren",
 "idno":
 "https://schnitzler-briefe.acdh.oeaw.ac.at/L00310.html",
 "head":
 "Hermann Bahr an Arthur Schnitzler, 2. 4. 1894",
 "desc":
{"listPerson":
  [
{
 "persName":
 "Hermann Bahr",
 "ref":
 "pmb10815"},
 {
 "persName":
 "Heinrich Schnitzler",
 "ref":
 "pmb12692"},
 {
 "persName":
 "Sándor Wolf",
 "ref":
 "pmb4342"},
 {
 "persName":
 "Frieda Löwy",
 "ref":
 "pmb28549"}],
 "listPlace":
  [
 {
 "placeName":
 "Wolf-Museum",
 "ref":
 "pmb569"}
 ,  {
 "placeName":
 "Eisenstadt",
 "ref":
 "pmb49163"}
 ,  {
 "placeName":
 "Israel",
 "ref":
 "pmb45508"}
 ,  {
 "placeName":
 "Luzern",
 "ref":
 "pmb967"}
 ,  {
 "placeName":
 "Wien",
 "ref":
 "pmb50"}
 ]
}
}, {
 "type":
 "schnitzler-orte",
 "color":
 "#045344",
 "filename":
 "entity/50/",
 "caption":
 "Aufenthaltsorte",
 "idno":
 "https://pmb.acdh.oeaw.ac.at/entity/50/",
 "head":
 "Wien"
}, {
 "type":
 "schnitzler-bahr",
 "color":
 "#F9BD63",
 "filename":
 "L041164",
 "caption":
 "Schnitzler/Bahr",
 "idno":
 "https://schnitzler-bahr.acdh.oeaw.ac.at/L041164.html",
 "head":
 "Bahr an Schnitzler, 2. 4. 1894",
 "desc":
{"listPerson":
  [
{
 "persName":
 "Hermann Bahr",
 "ref":
 "pmb10815"},
 {
 "persName":
 "Heinrich Schnitzler",
 "ref":
 "pmb12692"},
 {
 "persName":
 "Sándor Wolf",
 "ref":
 "pmb4342"},
 {
 "persName":
 "Frieda Löwy",
 "ref":
 "pmb28549"}],
 "listPlace":
  [
 {
 "placeName":
 "Wien",
 "ref":
 "pmb50"}
 ,  {
 "placeName":
 "Wolf-Museum",
 "ref":
 "pmb569"}
 ,  {
 "placeName":
 "Israel",
 "ref":
 "pmb45508"}
 ,  {
 "placeName":
 "Luzern",
 "ref":
 "pmb967"}
 ]
}
}, {
 "type":
 "schnitzler-bahr",
 "color":
 "#F9BD63",
 "filename":
 "L041502",
 "caption":
 "Schnitzler/Bahr",
 "idno":
 "https://schnitzler-bahr.acdh.oeaw.ac.at/L041502.html",
 "head":
 "Schnitzler an Beer-Hofmann, [2. 4. 1894?]",
 "desc":
{"listPerson":
  [
{
 "persName":
 "Richard Beer-Hofmann",
 "ref":
 "pmb10863"},
 {
 "persName":
 "Hermann Bahr",
 "ref":
 "pmb10815"}],
 "listPlace":
  [
 {
 "placeName":
 "Wien",
 "ref":
 "pmb50"}
 ,  {
 "placeName":
 "Untere Augartenstraße",
 "ref":
 "pmb630"}
 ],
 "listOrg":
  [
 {
 "orgName":
 "Vorwärts",
 "ref":
 "pmb29783"}
 ]
}
}] 