[{
 "type":
 "schnitzler-tagebuch",
 "color":
 "#037a33",
 "filename":
 "entry__1895-09-15",
 "caption":
 "Tagebuch",
 "idno":
 "https://schnitzler-tagebuch.acdh.oeaw.ac.at/entry__1895-09-15.html",
 "head":
 "Tagebuch, 15. September 1895",
 "desc":
{"listPerson":
  [
{
 "persName":
 "Hippolyte Taine",
 "ref":
 "person_20622"}],
 "listBibl":
  [
 {
 "title":
 "West-östlicher Divan",
 "ref":
 "pmb33937"}
 ,  {
 "title":
 "Hamburgische Dramaturgie",
 "ref":
 "pmb53335"}
 ]
}
}, {
 "type":
 "schnitzler-briefe",
 "color":
 "#A63437",
 "filename":
 "L00483",
 "caption":
 "Briefe mit Autorinnen und Autoren",
 "idno":
 "https://schnitzler-briefe.acdh.oeaw.ac.at/L00483.html",
 "head":
 "Arthur Schnitzler an Richard Beer-Hofmann, 15. 9. 1895",
 "desc":
{"listPerson":
  [
{
 "persName":
 "Richard Beer-Hofmann",
 "ref":
 "pmb10863"},
 {
 "persName":
 "Hermann Bahr",
 "ref":
 "pmb10815"},
 {
 "persName":
 "Adele Sandrock",
 "ref":
 "pmb12618"},
 {
 "persName":
 "Olga von Golovin",
 "ref":
 "pmb17222"},
 {
 "persName":
 "Max Eugen Burckhard",
 "ref":
 "pmb11036"},
 {
 "persName":
 "Josef von Bezecný",
 "ref":
 "pmb14179"},
 {
 "persName":
 "Jakob Julius David",
 "ref":
 "pmb2416"},
 {
 "persName":
 "Ludwig Speidel",
 "ref":
 "pmb12816"},
 {
 "persName":
 "Leo Ebermann",
 "ref":
 "pmb2157"},
 {
 "persName":
 "Ludwig Anzengruber",
 "ref":
 "pmb10772"},
 {
 "persName":
 "Heinrich Laube",
 "ref":
 "pmb2702"},
 {
 "persName":
 "Hugo August von Hofmannsthal",
 "ref":
 "pmb11737"},
 {
 "persName":
 "Anna von Hofmannsthal",
 "ref":
 "pmb18404"},
 {
 "persName":
 "Hugo von Hofmannsthal",
 "ref":
 "pmb11740"},
 {
 "persName":
 "Felix Salten",
 "ref":
 "pmb2167"},
 {
 "persName":
 "Gustav Schwarzkopf",
 "ref":
 "pmb12740"},
 {
 "persName":
 "Alfred Gold",
 "ref":
 "pmb11469"},
 {
 "persName":
 "Rosa Bahr",
 "ref":
 "pmb13682"},
 {
 "persName":
 "Lou Brion",
 "ref":
 "pmb2881"},
 {
 "persName":
 "Paul Horn",
 "ref":
 "pmb18523"}],
 "listBibl":
  [
 {
 "title":
 "Liebelei. Schauspiel in drei Akten",
 "ref":
 "pmb29917"}
 ,  {
 "title":
 "Ein Regentag. Charakterbild",
 "ref":
 "pmb31905"}
 ,  {
 "title":
 "Anatol",
 "ref":
 "pmb29935"}
 ,  {
 "title":
 "Alte Wiener",
 "ref":
 "pmb31531"}
 ,  {
 "title":
 "Böse Zungen",
 "ref":
 "pmb31533"}
 ,  {
 "title":
 "Der Tod Georgs",
 "ref":
 "pmb31535"}
 ],
 "listPlace":
  [
 {
 "placeName":
 "IX., Alsergrund",
 "ref":
 "pmb59"}
 ,  {
 "placeName":
 "Schönberg im Stubaital",
 "ref":
 "pmb759"}
 ,  {
 "placeName":
 "Wien",
 "ref":
 "pmb50"}
 ,  {
 "placeName":
 "Tirol",
 "ref":
 "pmb423"}
 ,  {
 "placeName":
 "Riva del Garda",
 "ref":
 "pmb465"}
 ,  {
 "placeName":
 "Venedig",
 "ref":
 "pmb462"}
 ,  {
 "placeName":
 "Burgtheater",
 "ref":
 "pmb14"}
 ,  {
 "placeName":
 "Russland",
 "ref":
 "pmb34438"}
 ,  {
 "placeName":
 "Volkstheater",
 "ref":
 "pmb20"}
 ,  {
 "placeName":
 "Tegetthoff-Denkmal",
 "ref":
 "pmb549"}
 ,  {
 "placeName":
 "Hodonín",
 "ref":
 "pmb49823"}
 ,  {
 "placeName":
 "Bruck an der Mur",
 "ref":
 "pmb840"}
 ]
}
}, {
 "type":
 "schnitzler-briefe",
 "color":
 "#A63437",
 "filename":
 "L00484",
 "caption":
 "Briefe mit Autorinnen und Autoren",
 "idno":
 "https://schnitzler-briefe.acdh.oeaw.ac.at/L00484.html",
 "head":
 "Max Burckhard an Arthur Schnitzler, 15. 9. 1895",
 "desc":
{"listPerson":
  [
{
 "persName":
 "Max Eugen Burckhard",
 "ref":
 "pmb11036"},
 {
 "persName":
 "Adolf von Sonnenthal",
 "ref":
 "pmb12809"},
 {
 "persName":
 "Fanny Walbeck",
 "ref":
 "pmb13031"},
 {
 "persName":
 "Anna Bauer",
 "ref":
 "pmb29160"},
 {
 "persName":
 "Giuseppe Giacosa",
 "ref":
 "pmb11431"}],
 "listBibl":
  [
 {
 "title":
 "Liebelei. Schauspiel in drei Akten",
 "ref":
 "pmb29917"}
 ,  {
 "title":
 "Rechte der Seele. Schauspiel in einem Act",
 "ref":
 "pmb31711"}
 ],
 "listOrg":
  [
 {
 "orgName":
 "Burgtheater",
 "ref":
 "pmb36247"}
 ],
 "listPlace":
  [
 {
 "placeName":
 "Wien",
 "ref":
 "pmb50"}
 ,  {
 "placeName":
 "Sprottau",
 "ref":
 "pmb1004"}
 ]
}
}, {
 "type":
 "schnitzler-orte",
 "color":
 "#045344",
 "filename":
 "entity/50/",
 "caption":
 "Aufenthaltsorte",
 "idno":
 "https://pmb.acdh.oeaw.ac.at/entity/50/",
 "head":
 "Wien"
}, {
 "type":
 "schnitzler-bahr",
 "color":
 "#F9BD63",
 "filename":
 "L041381",
 "caption":
 "Schnitzler/Bahr",
 "idno":
 "https://schnitzler-bahr.acdh.oeaw.ac.at/L041381.html",
 "head":
 "Schnitzler an Beer-Hofmann, 15. 9. 1895",
 "desc":
{"listPerson":
  [
{
 "persName":
 "Richard Beer-Hofmann",
 "ref":
 "pmb10863"},
 {
 "persName":
 "Adele Sandrock",
 "ref":
 "pmb12618"},
 {
 "persName":
 "Olga von Golovin",
 "ref":
 "pmb17222"},
 {
 "persName":
 "Max Eugen Burckhard",
 "ref":
 "pmb11036"},
 {
 "persName":
 "Hermann Bahr",
 "ref":
 "pmb10815"},
 {
 "persName":
 "Josef von Bezecný",
 "ref":
 "pmb14179"},
 {
 "persName":
 "Jakob Julius David",
 "ref":
 "pmb2416"},
 {
 "persName":
 "Ludwig Speidel",
 "ref":
 "pmb12816"},
 {
 "persName":
 "Leo Ebermann",
 "ref":
 "pmb2157"},
 {
 "persName":
 "Ludwig Anzengruber",
 "ref":
 "pmb10772"},
 {
 "persName":
 "Heinrich Laube",
 "ref":
 "pmb2702"},
 {
 "persName":
 "Hugo August von Hofmannsthal",
 "ref":
 "pmb11737"},
 {
 "persName":
 "Anna von Hofmannsthal",
 "ref":
 "pmb18404"},
 {
 "persName":
 "Hugo von Hofmannsthal",
 "ref":
 "pmb11740"},
 {
 "persName":
 "Felix Salten",
 "ref":
 "pmb2167"},
 {
 "persName":
 "Gustav Schwarzkopf",
 "ref":
 "pmb12740"},
 {
 "persName":
 "Alfred Gold",
 "ref":
 "pmb11469"},
 {
 "persName":
 "Rosa Bahr",
 "ref":
 "pmb13682"},
 {
 "persName":
 "Lou Brion",
 "ref":
 "pmb2881"},
 {
 "persName":
 "Paul Horn",
 "ref":
 "pmb18523"}],
 "listBibl":
  [
 {
 "title":
 "Liebelei. Schauspiel in drei Akten",
 "ref":
 "pmb29917"}
 ,  {
 "title":
 "Ein Regentag",
 "ref":
 "pmb31905"}
 ,  {
 "title":
 "Anatol",
 "ref":
 "pmb29935"}
 ,  {
 "title":
 "Alte Wiener",
 "ref":
 "pmb31531"}
 ,  {
 "title":
 "Böse Zungen",
 "ref":
 "pmb31533"}
 ,  {
 "title":
 "Der Tod Georgs",
 "ref":
 "pmb31535"}
 ],
 "listPlace":
  [
 {
 "placeName":
 "Wien",
 "ref":
 "pmb50"}
 ,  {
 "placeName":
 "Schönberg im Stubaital",
 "ref":
 "pmb759"}
 ,  {
 "placeName":
 "IX., Alsergrund",
 "ref":
 "pmb59"}
 ,  {
 "placeName":
 "Tirol",
 "ref":
 "pmb423"}
 ,  {
 "placeName":
 "Riva del Garda",
 "ref":
 "pmb465"}
 ,  {
 "placeName":
 "Venedig",
 "ref":
 "pmb462"}
 ,  {
 "placeName":
 "Burgtheater",
 "ref":
 "pmb14"}
 ,  {
 "placeName":
 "Russland",
 "ref":
 "pmb34438"}
 ,  {
 "placeName":
 "Tegetthoff-Denkmal",
 "ref":
 "pmb549"}
 ,  {
 "placeName":
 "Hodonín",
 "ref":
 "pmb49823"}
 ,  {
 "placeName":
 "Bruck an der Mur",
 "ref":
 "pmb840"}
 ]
}
}] 