[{
 "type":
 "schnitzler-tagebuch",
 "color":
 "#037a33",
 "filename":
 "entry__1895-09-19",
 "caption":
 "Tagebuch",
 "idno":
 "https://schnitzler-tagebuch.acdh.oeaw.ac.at/entry__1895-09-19.html",
 "head":
 "Tagebuch, 19. September 1895",
 "desc":
{"listPerson":
  [
{
 "persName":
 "Felix Salten",
 "ref":
 "person_19542"},
 {
 "persName":
 "Adele Sandrock",
 "ref":
 "person_19564"},
 {
 "persName":
 "Louise Schnitzler",
 "ref":
 "person_19831"},
 {
 "persName":
 "Marie Reinhard",
 "ref":
 "person_19150"},
 {
 "persName":
 "Erna Grunert",
 "ref":
 "person_15719"}],
 "listBibl":
  [
 {
 "title":
 "Schafhaxl",
 "ref":
 "pmb81171"}
 ]
}
}, {
 "type":
 "schnitzler-briefe",
 "color":
 "#A63437",
 "filename":
 "L00487",
 "caption":
 "Briefe mit Autorinnen und Autoren",
 "idno":
 "https://schnitzler-briefe.acdh.oeaw.ac.at/L00487.html",
 "head":
 "Arthur Schnitzler an Richard Beer-Hofmann, 19. 9. 1895",
 "desc":
{"listPerson":
  [
{
 "persName":
 "Richard Beer-Hofmann",
 "ref":
 "pmb10863"}],
 "listBibl":
  [
 {
 "title":
 "Liebelei. Schauspiel in drei Akten",
 "ref":
 "pmb29917"}
 ],
 "listPlace":
  [
 {
 "placeName":
 "IX., Alsergrund",
 "ref":
 "pmb59"}
 ,  {
 "placeName":
 "Riva del Garda",
 "ref":
 "pmb465"}
 ,  {
 "placeName":
 "Wien",
 "ref":
 "pmb50"}
 ,  {
 "placeName":
 "Schönberg im Stubaital",
 "ref":
 "pmb759"}
 ]
}
}, {
 "type":
 "schnitzler-briefe",
 "color":
 "#A63437",
 "filename":
 "L00488",
 "caption":
 "Briefe mit Autorinnen und Autoren",
 "idno":
 "https://schnitzler-briefe.acdh.oeaw.ac.at/L00488.html",
 "head":
 "Friedrich M. Fels an Arthur Schnitzler, 19. 9. 1895",
 "desc":
{"listPerson":
  [
{
 "persName":
 "Friedrich Michael Fels",
 "ref":
 "pmb2450"},
 {
 "persName":
 "?? [Vermieterin von F. M. Fels in Zürich]",
 "ref":
 "pmb42387"},
 {
 "persName":
 "Hugo Bettauer",
 "ref":
 "pmb6294"},
 {
 "persName":
 "John Henry Mackay",
 "ref":
 "pmb12152"},
 {
 "persName":
 "Max Pollandt",
 "ref":
 "pmb22759"},
 {
 "persName":
 "Jenny Neuhut",
 "ref":
 "pmb42362"},
 {
 "persName":
 "Felix Salten",
 "ref":
 "pmb2167"},
 {
 "persName":
 "Josefine Sorger",
 "ref":
 "pmb42356"},
 {
 "persName":
 "?? [Amerikanische Studentin in Zürich 1]",
 "ref":
 "pmb42390"},
 {
 "persName":
 "?? [Amerikanische Studentin in Zürich 2]",
 "ref":
 "pmb42393"},
 {
 "persName":
 "Richard Beer-Hofmann",
 "ref":
 "pmb10863"},
 {
 "persName":
 "Hugo von Hofmannsthal",
 "ref":
 "pmb11740"}],
 "listBibl":
  [
 {
 "title":
 "Neue Zürcher Zeitung",
 "ref":
 "pmb42406"}
 ,  {
 "title":
 "Bulgarische Volksdichtungen",
 "ref":
 "pmb43130"}
 ,  {
 "title":
 "Die kleine Komödie",
 "ref":
 "pmb31975"}
 ,  {
 "title":
 "Neue Deutsche Rundschau",
 "ref":
 "pmb36152"}
 ],
 "listPlace":
  [
 {
 "placeName":
 "Zürich",
 "ref":
 "pmb484"}
 ,  {
 "placeName":
 "Wien",
 "ref":
 "pmb50"}
 ,  {
 "placeName":
 "Bad Ischl",
 "ref":
 "pmb213"}
 ,  {
 "placeName":
 "Schweiz",
 "ref":
 "pmb43435"}
 ,  {
 "placeName":
 "Rämistrasse",
 "ref":
 "pmb42383"}
 ,  {
 "placeName":
 "Stadttheater",
 "ref":
 "pmb777"}
 ,  {
 "placeName":
 "Volkstheater (Zürich)",
 "ref":
 "pmb42359"}
 ,  {
 "placeName":
 "Café Griensteidl",
 "ref":
 "pmb34"}
 ]
}
}, {
 "type":
 "schnitzler-orte",
 "color":
 "#045344",
 "filename":
 "entity/50/",
 "caption":
 "Aufenthaltsorte",
 "idno":
 "https://pmb.acdh.oeaw.ac.at/entity/50/",
 "head":
 "Wien"
}] 