[{
 "type":
 "schnitzler-tagebuch",
 "color":
 "#037a33",
 "filename":
 "entry__1895-06-23",
 "caption":
 "Tagebuch",
 "idno":
 "https://schnitzler-tagebuch.acdh.oeaw.ac.at/entry__1895-06-23.html",
 "head":
 "Tagebuch, 23. Juni 1895",
 "desc":
{"listPerson":
  [
{
 "persName":
 "Marie Reinhard",
 "ref":
 "person_19150"}],
 "listPlace":
  [
 {
 "placeName":
 "Melk",
 "ref":
 "pmb91223"}
 ,  {
 "placeName":
 "Wachau",
 "ref":
 "pmb531"}
 ,  {
 "placeName":
 "Tulln",
 "ref":
 "pmb91959"}
 ,  {
 "placeName":
 "St. Andrä-Wördern",
 "ref":
 "pmb1246"}
 ,  {
 "placeName":
 "Greifenstein",
 "ref":
 "pmb90763"}
 ,  {
 "placeName":
 "Klosterneuburg",
 "ref":
 "pmb865"}
 ]
}
}, {
 "type":
 "schnitzler-briefe",
 "color":
 "#A63437",
 "filename":
 "L00457",
 "caption":
 "Briefe mit Autorinnen und Autoren",
 "idno":
 "https://schnitzler-briefe.acdh.oeaw.ac.at/L00457.html",
 "head":
 "Richard Beer-Hofmann an Arthur Schnitzler, 23. 6. 1895",
 "desc":
{"listPerson":
  [
{
 "persName":
 "Richard Beer-Hofmann",
 "ref":
 "pmb10863"},
 {
 "persName":
 "Max Eugen Burckhard",
 "ref":
 "pmb11036"},
 {
 "persName":
 "Hermann Bahr",
 "ref":
 "pmb10815"},
 {
 "persName":
 "Karl Lueger",
 "ref":
 "pmb3561"}],
 "listBibl":
  [
 {
 "title":
 "Später Ruhm",
 "ref":
 "pmb30073"}
 ],
 "listPlace":
  [
 {
 "placeName":
 "Schleb",
 "ref":
 "pmb990"}
 ,  {
 "placeName":
 "Wien",
 "ref":
 "pmb50"}
 ,  {
 "placeName":
 "Caslau",
 "ref":
 "pmb767"}
 ,  {
 "placeName":
 "Nový Bydžov",
 "ref":
 "pmb36519"}
 ,  {
 "placeName":
 "Benatek",
 "ref":
 "pmb39547"}
 ,  {
 "placeName":
 "Böhmen",
 "ref":
 "pmb628"}
 ,  {
 "placeName":
 "Bad Ischl",
 "ref":
 "pmb213"}
 ]
}
}, {
 "type":
 "schnitzler-briefe",
 "color":
 "#A63437",
 "filename":
 "L00458",
 "caption":
 "Briefe mit Autorinnen und Autoren",
 "idno":
 "https://schnitzler-briefe.acdh.oeaw.ac.at/L00458.html",
 "head":
 "Hugo von Hofmannsthal an Arthur Schnitzler, [23. 6. 1895]",
 "desc":
{"listPerson":
  [
{
 "persName":
 "Hugo von Hofmannsthal",
 "ref":
 "pmb11740"}],
 "listPlace":
  [
 {
 "placeName":
 "Wien",
 "ref":
 "pmb50"}
 ,  {
 "placeName":
 "Frankreich",
 "ref":
 "pmb166"}
 ]
}
}, {
 "type":
 "schnitzler-orte",
 "color":
 "#045344",
 "filename":
 "entity/50/",
 "caption":
 "Aufenthaltsorte",
 "idno":
 "https://pmb.acdh.oeaw.ac.at/entity/50/",
 "head":
 "Wien"
}, {
 "type":
 "schnitzler-orte",
 "color":
 "#045344",
 "filename":
 "entity/91223/",
 "caption":
 "Aufenthaltsorte",
 "idno":
 "https://pmb.acdh.oeaw.ac.at/entity/91223/",
 "head":
 "Melk"
}, {
 "type":
 "schnitzler-orte",
 "color":
 "#045344",
 "filename":
 "entity/531/",
 "caption":
 "Aufenthaltsorte",
 "idno":
 "https://pmb.acdh.oeaw.ac.at/entity/531/",
 "head":
 "Wachau"
}, {
 "type":
 "schnitzler-orte",
 "color":
 "#045344",
 "filename":
 "entity/91959/",
 "caption":
 "Aufenthaltsorte",
 "idno":
 "https://pmb.acdh.oeaw.ac.at/entity/91959/",
 "head":
 "Tulln"
}, {
 "type":
 "schnitzler-orte",
 "color":
 "#045344",
 "filename":
 "entity/865/",
 "caption":
 "Aufenthaltsorte",
 "idno":
 "https://pmb.acdh.oeaw.ac.at/entity/865/",
 "head":
 "Klosterneuburg"
}, {
 "type":
 "schnitzler-bahr",
 "color":
 "#F9BD63",
 "filename":
 "L041515",
 "caption":
 "Schnitzler/Bahr",
 "idno":
 "https://schnitzler-bahr.acdh.oeaw.ac.at/L041515.html",
 "head":
 "Beer-Hofmann an Schnitzler, 23. 6. 1895",
 "desc":
{"listPerson":
  [
{
 "persName":
 "Richard Beer-Hofmann",
 "ref":
 "pmb10863"},
 {
 "persName":
 "Max Eugen Burckhard",
 "ref":
 "pmb11036"},
 {
 "persName":
 "Hermann Bahr",
 "ref":
 "pmb10815"},
 {
 "persName":
 "Karl Lueger",
 "ref":
 "pmb3561"}],
 "listBibl":
  [
 {
 "title":
 "Später Ruhm",
 "ref":
 "pmb30073"}
 ],
 "listPlace":
  [
 {
 "placeName":
 "Schleb",
 "ref":
 "pmb990"}
 ,  {
 "placeName":
 "Wien",
 "ref":
 "pmb50"}
 ,  {
 "placeName":
 "Bad Ischl",
 "ref":
 "pmb213"}
 ]
}
}, {
 "type":
 "schnitzler-cmif",
 "subtype":
 "#j4f39377-ae1d-48c1-9afa-6e4618284c9a",
 "color":
 "#654321",
 "caption":
 "Gedruckte Briefwechsel",
 "head":
 "Theodor Herzl an Arthur Schnitzler, 23.6.1895",
 "source":
 "Theodor Herzl: Briefe. Anfang Mai 1895 – Anfang Dezember 1898. Bearbeitet von Barbara Schäfer in Zusammenarbeit mit Sofia Gelmann, Chaya Harel, Ines Rubin, Daisy Ticho. Berlin: Propyläen 1990. (Theodor Herzl: Briefe und Tagebücher. Hg. Alex Bein, Hermann Greive, Moshe Schaerf, Julius H. Schoeps, Johannes Wachten. Vierter Band)"
}] 