[{
 "type":
 "schnitzler-tagebuch",
 "color":
 "#037a33",
 "filename":
 "entry__1896-09-22",
 "caption":
 "Tagebuch",
 "idno":
 "https://schnitzler-tagebuch.acdh.oeaw.ac.at/entry__1896-09-22.html",
 "head":
 "Tagebuch, 22. September 1896",
 "desc":
{"listPerson":
  [
{
 "persName":
 "Richard Beer-Hofmann",
 "ref":
 "person_13551"},
 {
 "persName":
 "Leo Ebermann",
 "ref":
 "person_14597"},
 {
 "persName":
 "Marie Reinhard",
 "ref":
 "person_19150"},
 {
 "persName":
 "Paula Beer-Hofmann",
 "ref":
 "person_13550"}]
}
}, {
 "type":
 "schnitzler-briefe",
 "color":
 "#A63437",
 "filename":
 "L02785",
 "caption":
 "Briefe mit Autorinnen und Autoren",
 "idno":
 "https://schnitzler-briefe.acdh.oeaw.ac.at/L02785.html",
 "head":
 "Paul Goldmann an Arthur Schnitzler, 22. 9. [1896]",
 "desc":
{"listPerson":
  [
{
 "persName":
 "Paul Goldmann",
 "ref":
 "pmb11485"},
 {
 "persName":
 "Leopold Sonnemann",
 "ref":
 "pmb87771"},
 {
 "persName":
 "Alfred Dreyfus",
 "ref":
 "pmb4216"},
 {
 "persName":
 "Lucien Millevoye",
 "ref":
 "pmb21481"},
 {
 "persName":
 "Jean Thorel",
 "ref":
 "pmb3966"},
 {
 "persName":
 "Jean-Louis Forain",
 "ref":
 "pmb112447"},
 {
 "persName":
 "Leo Ebermann",
 "ref":
 "pmb2157"},
 {
 "persName":
 "Karl Hillebrand",
 "ref":
 "pmb96940"},
 {
 "persName":
 "Friedrich von Schiller",
 "ref":
 "pmb12654"},
 {
 "persName":
 "Johann Wolfgang von Goethe",
 "ref":
 "pmb11461"},
 {
 "persName":
 "Francis Vielé-Griffin",
 "ref":
 "pmb112464"},
 {
 "persName":
 "Josephine Clayton",
 "ref":
 "pmb112485"},
 {
 "persName":
 "Paul Bert",
 "ref":
 "pmb112477"}],
 "listBibl":
  [
 {
 "title":
 "Frankfurter Zeitung",
 "ref":
 "pmb36344"}
 ,  {
 "title":
 "Freiwild. Schauspiel in 3 Akten",
 "ref":
 "pmb29899"}
 ,  {
 "title":
 "Die Athenerin",
 "ref":
 "pmb30417"}
 ,  {
 "title":
 "Frankreich und die Franzosen in der zweiten Hälfte des XIX. Jahrhunderts: Eindrücke und Erfahrungen",
 "ref":
 "pmb112461"}
 ,  {
 "title":
 "Briefwechsel zwischen Schiller und Goethe",
 "ref":
 "pmb32408"}
 ,  {
 "title":
 "Amourette. Pièce en trois actes",
 "ref":
 "pmb92876"}
 ,  {
 "title":
 "Liebelei. Schauspiel in drei Akten",
 "ref":
 "pmb29917"}
 ],
 "listOrg":
  [
 {
 "orgName":
 "Frankfurter Zeitung",
 "ref":
 "pmb29442"}
 ],
 "listPlace":
  [
 {
 "placeName":
 "Paris",
 "ref":
 "pmb182"}
 ,  {
 "placeName":
 "Wien",
 "ref":
 "pmb50"}
 ,  {
 "placeName":
 "rue Feydeau",
 "ref":
 "pmb42671"}
 ,  {
 "placeName":
 "Berlin",
 "ref":
 "pmb168"}
 ,  {
 "placeName":
 "Deutsches Theater Berlin",
 "ref":
 "pmb3"}
 ,  {
 "placeName":
 "Burgtheater",
 "ref":
 "pmb14"}
 ,  {
 "placeName":
 "Frankreich",
 "ref":
 "pmb166"}
 ,  {
 "placeName":
 "Chateau De Noyelles",
 "ref":
 "pmb112470"}
 ,  {
 "placeName":
 "Indre-et-Loire",
 "ref":
 "pmb112474"}
 ,  {
 "placeName":
 "Auxerre",
 "ref":
 "pmb112478"}
 ,  {
 "placeName":
 "Yonne",
 "ref":
 "pmb112491"}
 ]
}
}, {
 "type":
 "schnitzler-orte",
 "color":
 "#045344",
 "filename":
 "entity/50/",
 "caption":
 "Aufenthaltsorte",
 "idno":
 "https://pmb.acdh.oeaw.ac.at/entity/50/",
 "head":
 "Wien"
}, {
 "type":
 "kalliope-verbund",
 "color":
 "#003574",
 "caption":
 "Kalliope Verbundkatalog",
 "idno":
 "http://kalliope-verbund.info/DE-2498-HS00032614",
 "head":
 "Breitenstein, Max an Schnitzler, Arthur [Briefe]",
 "text":
 "1 Bl.Dr.Vis.kte"
}] 