[{
 "type":
 "schnitzler-tagebuch",
 "color":
 "#037a33",
 "filename":
 "entry__1896-07-07",
 "caption":
 "Tagebuch",
 "idno":
 "https://schnitzler-tagebuch.acdh.oeaw.ac.at/entry__1896-07-07.html",
 "head":
 "Tagebuch, 7. Juli 1896",
 "desc":
{"listPlace":
  [
 {
 "placeName":
 "Hamburg",
 "ref":
 "pmb506"}
 ,  {
 "placeName":
 "Lübeck",
 "ref":
 "pmb884"}
 ]
}
}, {
 "type":
 "schnitzler-briefe",
 "color":
 "#A63437",
 "filename":
 "L00560",
 "caption":
 "Briefe mit Autorinnen und Autoren",
 "idno":
 "https://schnitzler-briefe.acdh.oeaw.ac.at/L00560.html",
 "head":
 "Arthur Schnitzler an Richard Beer-Hofmann, 7. 7. 1896",
 "desc":
{"listPerson":
  [
{
 "persName":
 "Richard Beer-Hofmann",
 "ref":
 "pmb10863"},
 {
 "persName":
 "Paula Beer-Hofmann",
 "ref":
 "pmb10860"}],
 "listPlace":
  [
 {
 "placeName":
 "Hotel zum Kronprinzen",
 "ref":
 "pmb43368"}
 ,  {
 "placeName":
 "Lübeck",
 "ref":
 "pmb884"}
 ,  {
 "placeName":
 "St. Gilgen",
 "ref":
 "pmb33"}
 ,  {
 "placeName":
 "Fürberg",
 "ref":
 "pmb40276"}
 ,  {
 "placeName":
 "Oberösterreich",
 "ref":
 "pmb519"}
 ,  {
 "placeName":
 "Europa",
 "ref":
 "pmb468"}
 ,  {
 "placeName":
 "Hamburg",
 "ref":
 "pmb506"}
 ,  {
 "placeName":
 "Trondheim",
 "ref":
 "pmb40290"}
 ]
}
}, {
 "type":
 "schnitzler-orte",
 "color":
 "#045344",
 "filename":
 "entity/506/",
 "caption":
 "Aufenthaltsorte",
 "idno":
 "https://pmb.acdh.oeaw.ac.at/entity/506/",
 "head":
 "Hamburg"
}, {
 "type":
 "schnitzler-orte",
 "color":
 "#045344",
 "filename":
 "entity/884/",
 "caption":
 "Aufenthaltsorte",
 "idno":
 "https://pmb.acdh.oeaw.ac.at/entity/884/",
 "head":
 "Lübeck"
}, {
 "type":
 "schnitzler-orte",
 "color":
 "#045344",
 "filename":
 "entity/43368/",
 "caption":
 "Aufenthaltsorte",
 "idno":
 "https://pmb.acdh.oeaw.ac.at/entity/43368/",
 "head":
 "Hotel zum Kronprinzen"
}, {
 "type":
 "schnitzler-bahr",
 "color":
 "#F9BD63",
 "filename":
 "L041382",
 "caption":
 "Schnitzler/Bahr",
 "idno":
 "https://schnitzler-bahr.acdh.oeaw.ac.at/L041382.html",
 "head":
 "Schnitzler an Marie Reinhard, 7. 7. [1896]",
 "desc":
{"listPerson":
  [
{
 "persName":
 "Marie Reinhard",
 "ref":
 "pmb2378"},
 {
 "persName":
 "Hermann Bahr",
 "ref":
 "pmb10815"}],
 "listPlace":
  [
 {
 "placeName":
 "Lübeck",
 "ref":
 "pmb884"}
 ]
}
}, {
 "type":
 "schnitzler-cmif",
 "subtype":
 "#hbas_0a380dfe-61d4-4b9e-8641-01eba8e50777",
 "color":
 "#654321",
 "caption":
 "Gedruckte Briefwechsel",
 "head":
 "Arthur Schnitzler an Marie Reinhard, 7.7.1896",
 "source":
 "Hermann Bahr, Arthur Schnitzler. Briefwechsel, Aufzeichnungen, Dokumente 1891–1931. Herausgegeben von Kurt Ifkovits, Martin Anton Müller. Göttingen: Wallstein Verlag 2018"
}, {
 "type":
 "schnitzler-cmif",
 "subtype":
 "#j7685005-64da-4e31-99b6-b4641aa1628c",
 "color":
 "#654321",
 "caption":
 "Gedruckte Briefwechsel",
 "head":
 "Arthur Schnitzler an Marie Reinhard, 7. 7. 1896",
 "source":
 "Arthur Schnitzler: Briefe 1875–1912. Hrsg. v. Therese Nickl u. Heinrich Schnitzler. Frankfurt am Main: S. Fischer 1981."
}, {
 "type":
 "schnitzler-cmif",
 "subtype":
 "#j7685005-64da-4e31-99b6-b4641aa1628c",
 "color":
 "#654321",
 "caption":
 "Gedruckte Briefwechsel",
 "head":
 "Arthur Schnitzler an Marie Reinhard, 7. 7. 1896",
 "source":
 "Arthur Schnitzler: Briefe 1875–1912. Hrsg. v. Therese Nickl u. Heinrich Schnitzler. Frankfurt am Main: S. Fischer 1981."
}, {
 "type":
 "kalliope-verbund",
 "color":
 "#003574",
 "caption":
 "Kalliope Verbundkatalog",
 "idno":
 "http://kalliope-verbund.info/DE-2498-HS00043089",
 "head":
 "Schefer, Christian an Schnitzler, Arthur [Briefe]",
 "text":
 "2 Bl."
}] 