[{
 "type":
 "schnitzler-tagebuch",
 "color":
 "#037a33",
 "filename":
 "entry__1896-05-17",
 "caption":
 "Tagebuch",
 "idno":
 "https://schnitzler-tagebuch.acdh.oeaw.ac.at/entry__1896-05-17.html",
 "head":
 "Tagebuch, 17. Mai 1896",
 "desc":
{"listPerson":
  [
{
 "persName":
 "Ida Falk",
 "ref":
 "person_14878"},
 {
 "persName":
 "Luigi Krauss",
 "ref":
 "person_17118"},
 {
 "persName":
 "August Wärndorfer",
 "ref":
 "person_21012"},
 {
 "persName":
 "Marie Reinhard",
 "ref":
 "person_19150"},
 {
 "persName":
 "Reichezer",
 "ref":
 "person_19129"}],
 "listPlace":
  [
 {
 "placeName":
 "Brühl",
 "ref":
 "pmb44413"}
 ,  {
 "placeName":
 "Heiligenkreuz",
 "ref":
 "pmb90845"}
 ,  {
 "placeName":
 "Alland",
 "ref":
 "pmb90217"}
 ,  {
 "placeName":
 "Neuhaus",
 "ref":
 "pmb47414"}
 ,  {
 "placeName":
 "Leobersdorf",
 "ref":
 "pmb91135"}
 ,  {
 "placeName":
 "Günselsdorf",
 "ref":
 "pmb90803"}
 ]
}
}, {
 "type":
 "schnitzler-briefe",
 "color":
 "#A63437",
 "filename":
 "L00545",
 "caption":
 "Briefe mit Autorinnen und Autoren",
 "idno":
 "https://schnitzler-briefe.acdh.oeaw.ac.at/L00545.html",
 "head":
 "Hugo von Hofmannsthal an Arthur Schnitzler, 17. 5. [1896]",
 "desc":
{"listPerson":
  [
{
 "persName":
 "Hugo von Hofmannsthal",
 "ref":
 "pmb11740"},
 {
 "persName":
 "Hermann Bahr",
 "ref":
 "pmb10815"},
 {
 "persName":
 "Anna von Hofmannsthal",
 "ref":
 "pmb18404"},
 {
 "persName":
 "Paul Goldmann",
 "ref":
 "pmb11485"},
 {
 "persName":
 "Friedrich Nietzsche",
 "ref":
 "pmb12358"},
 {
 "persName":
 "Jean Paul",
 "ref":
 "pmb4332"},
 {
 "persName":
 "Platon",
 "ref":
 "pmb4336"},
 {
 "persName":
 "Pindaros",
 "ref":
 "pmb4337"},
 {
 "persName":
 "Johann Wolfgang von Goethe",
 "ref":
 "pmb11461"},
 {
 "persName":
 "Christine Schönberger",
 "ref":
 "pmb24686"}],
 "listBibl":
  [
 {
 "title":
 "Freiwild. Schauspiel in 3 Akten",
 "ref":
 "pmb29899"}
 ,  {
 "title":
 "An der schönen blauen Donau",
 "ref":
 "pmb35860"}
 ],
 "listPlace":
  [
 {
 "placeName":
 "Tlumatsch",
 "ref":
 "pmb636"}
 ,  {
 "placeName":
 "Wien",
 "ref":
 "pmb50"}
 ,  {
 "placeName":
 "Galizien",
 "ref":
 "pmb644"}
 ]
}
}, {
 "type":
 "schnitzler-briefe",
 "color":
 "#A63437",
 "filename":
 "L02774",
 "caption":
 "Briefe mit Autorinnen und Autoren",
 "idno":
 "https://schnitzler-briefe.acdh.oeaw.ac.at/L02774.html",
 "head":
 "Paul Goldmann an Arthur Schnitzler, 17. 5. [1896]",
 "desc":
{"listPerson":
  [
{
 "persName":
 "Paul Goldmann",
 "ref":
 "pmb11485"},
 {
 "persName":
 "Leopold Sonnemann",
 "ref":
 "pmb87771"},
 {
 "persName":
 "Jean Thorel",
 "ref":
 "pmb3966"},
 {
 "persName":
 "Albert Langen",
 "ref":
 "pmb3379"},
 {
 "persName":
 "Maximilian Harden",
 "ref":
 "pmb11581"},
 {
 "persName":
 "Alfred Kerr",
 "ref":
 "pmb11910"},
 {
 "persName":
 "Samuel Fischer",
 "ref":
 "pmb11324"},
 {
 "persName":
 "Peter Altenberg",
 "ref":
 "pmb2147"},
 {
 "persName":
 "Hermann Bahr",
 "ref":
 "pmb10815"},
 {
 "persName":
 "Hugo von Hofmannsthal",
 "ref":
 "pmb11740"},
 {
 "persName":
 "Henri Albert",
 "ref":
 "pmb2801"},
 {
 "persName":
 "Lou Andreas-Salomé",
 "ref":
 "pmb10762"},
 {
 "persName":
 "Pierre Lalo",
 "ref":
 "pmb8429"},
 {
 "persName":
 "Friedrich Nietzsche",
 "ref":
 "pmb12358"},
 {
 "persName":
 "Pierre Louÿs",
 "ref":
 "pmb8719"},
 {
 "persName":
 "Theodor Zasche",
 "ref":
 "pmb4785"}],
 "listBibl":
  [
 {
 "title":
 "Frankfurter Zeitung",
 "ref":
 "pmb36344"}
 ,  {
 "title":
 "Mourir. Roman",
 "ref":
 "pmb40662"}
 ,  {
 "title":
 "Liebelei. Schauspiel in drei Akten",
 "ref":
 "pmb29917"}
 ,  {
 "title":
 "Simplicissimus",
 "ref":
 "pmb50245"}
 ,  {
 "title":
 "Die überspannte Person",
 "ref":
 "pmb30391"}
 ,  {
 "title":
 "Amourette. Pièce en trois actes. Adaptée de Arthur Schnitzler",
 "ref":
 "pmb92876"}
 ,  {
 "title":
 "Neue Deutsche Rundschau",
 "ref":
 "pmb36152"}
 ,  {
 "title":
 "Arthur Schnitzler",
 "ref":
 "pmb93777"}
 ,  {
 "title":
 "Ein neuer Dichter",
 "ref":
 "pmb93781"}
 ,  {
 "title":
 "Die Zeit. Wiener Wochenschrift",
 "ref":
 "pmb36340"}
 ,  {
 "title":
 "Wie ich es sehe",
 "ref":
 "pmb30965"}
 ,  {
 "title":
 "Freiwild. Schauspiel in 3 Akten",
 "ref":
 "pmb29899"}
 ,  {
 "title":
 "Tagebuch",
 "ref":
 "pmb33243"}
 ,  {
 "title":
 "L’Aube",
 "ref":
 "pmb93788"}
 ,  {
 "title":
 "Friedrich Nietzsche in seinen Werken",
 "ref":
 "pmb78577"}
 ,  {
 "title":
 "Aphrodite. Mœurs antiques",
 "ref":
 "pmb79394"}
 ,  {
 "title":
 "Figaro. Humoristisches Wochenblatt",
 "ref":
 "pmb93791"}
 ,  {
 "title":
 "Unter Wiener Grisetten",
 "ref":
 "pmb93793"}
 ],
 "listOrg":
  [
 {
 "orgName":
 "Frankfurter Zeitung",
 "ref":
 "pmb29442"}
 ,  {
 "orgName":
 "Simplicissimus",
 "ref":
 "pmb29714"}
 ,  {
 "orgName":
 "Albert Langen",
 "ref":
 "pmb29654"}
 ,  {
 "orgName":
 "Neue Rundschau, Neue Deutsche Rundschau, Freie Bühne",
 "ref":
 "pmb29212"}
 ,  {
 "orgName":
 "S. Fischer Verlag",
 "ref":
 "pmb29639"}
 ,  {
 "orgName":
 "L’Aube",
 "ref":
 "pmb93786"}
 ],
 "listPlace":
  [
 {
 "placeName":
 "Paris",
 "ref":
 "pmb182"}
 ,  {
 "placeName":
 "Wien",
 "ref":
 "pmb50"}
 ,  {
 "placeName":
 "rue Feydeau",
 "ref":
 "pmb42671"}
 ,  {
 "placeName":
 "Hamburg",
 "ref":
 "pmb506"}
 ,  {
 "placeName":
 "Dänemark",
 "ref":
 "pmb43570"}
 ,  {
 "placeName":
 "Schweden",
 "ref":
 "pmb44335"}
 ,  {
 "placeName":
 "Norwegen",
 "ref":
 "pmb64465"}
 ,  {
 "placeName":
 "Schweiz",
 "ref":
 "pmb43435"}
 ,  {
 "placeName":
 "Florenz",
 "ref":
 "pmb263"}
 ,  {
 "placeName":
 "Köln",
 "ref":
 "pmb145"}
 ,  {
 "placeName":
 "Sankt Petersburg",
 "ref":
 "pmb433"}
 ,  {
 "placeName":
 "Café Griensteidl",
 "ref":
 "pmb34"}
 ]
}
}, {
 "type":
 "schnitzler-orte",
 "color":
 "#045344",
 "filename":
 "entity/50/",
 "caption":
 "Aufenthaltsorte",
 "idno":
 "https://pmb.acdh.oeaw.ac.at/entity/50/",
 "head":
 "Wien"
}, {
 "type":
 "schnitzler-orte",
 "color":
 "#045344",
 "filename":
 "entity/90845/",
 "caption":
 "Aufenthaltsorte",
 "idno":
 "https://pmb.acdh.oeaw.ac.at/entity/90845/",
 "head":
 "Heiligenkreuz"
}, {
 "type":
 "schnitzler-orte",
 "color":
 "#045344",
 "filename":
 "entity/90217/",
 "caption":
 "Aufenthaltsorte",
 "idno":
 "https://pmb.acdh.oeaw.ac.at/entity/90217/",
 "head":
 "Alland"
}, {
 "type":
 "schnitzler-orte",
 "color":
 "#045344",
 "filename":
 "entity/47414/",
 "caption":
 "Aufenthaltsorte",
 "idno":
 "https://pmb.acdh.oeaw.ac.at/entity/47414/",
 "head":
 "Neuhaus"
}, {
 "type":
 "schnitzler-orte",
 "color":
 "#045344",
 "filename":
 "entity/90803/",
 "caption":
 "Aufenthaltsorte",
 "idno":
 "https://pmb.acdh.oeaw.ac.at/entity/90803/",
 "head":
 "Günselsdorf"
}, {
 "type":
 "schnitzler-bahr",
 "color":
 "#F9BD63",
 "filename":
 "L041435",
 "caption":
 "Schnitzler/Bahr",
 "idno":
 "https://schnitzler-bahr.acdh.oeaw.ac.at/L041435.html",
 "head":
 "Hofmannsthal an Schnitzler, 17. 5. [1896]",
 "desc":
{"listPerson":
  [
{
 "persName":
 "Hugo von Hofmannsthal",
 "ref":
 "pmb11740"},
 {
 "persName":
 "Anna von Hofmannsthal",
 "ref":
 "pmb18404"},
 {
 "persName":
 "Paul Goldmann",
 "ref":
 "pmb11485"},
 {
 "persName":
 "Friedrich Nietzsche",
 "ref":
 "pmb12358"},
 {
 "persName":
 "Hermann Bahr",
 "ref":
 "pmb10815"},
 {
 "persName":
 "Jean Paul",
 "ref":
 "pmb4332"},
 {
 "persName":
 "Platon",
 "ref":
 "pmb4336"},
 {
 "persName":
 "Pindaros",
 "ref":
 "pmb4337"},
 {
 "persName":
 "Johann Wolfgang von Goethe",
 "ref":
 "pmb11461"},
 {
 "persName":
 "Christine Schönberger",
 "ref":
 "pmb24686"}],
 "listBibl":
  [
 {
 "title":
 "Freiwild. Schauspiel in 3 Akten",
 "ref":
 "pmb29899"}
 ],
 "listPlace":
  [
 {
 "placeName":
 "Tlumatsch",
 "ref":
 "pmb636"}
 ,  {
 "placeName":
 "Wien",
 "ref":
 "pmb50"}
 ,  {
 "placeName":
 "Galizien",
 "ref":
 "pmb644"}
 ]
}
}, {
 "type":
 "schnitzler-cmif",
 "subtype":
 "#g21edf0a-7af3-4163-813b-7d55aaaf2eba",
 "color":
 "#654321",
 "caption":
 "Gedruckte Briefwechsel",
 "head":
 "Adele Sandrock an Arthur Schnitzler, 17.5.1896",
 "source":
 "Renate Wagner (Hg.): Dilly. Geschichte einer Liebe in Briefen, Bildern und Dokumenten. Wien/München: Amalthea 1975."
}] 