[{
 "type":
 "schnitzler-tagebuch",
 "color":
 "#037a33",
 "filename":
 "entry__1896-10-17",
 "caption":
 "Tagebuch",
 "idno":
 "https://schnitzler-tagebuch.acdh.oeaw.ac.at/entry__1896-10-17.html",
 "head":
 "Tagebuch, 17. Oktober 1896",
 "desc":
{"listPerson":
  [
{
 "persName":
 "Richard Beer-Hofmann",
 "ref":
 "person_13551"},
 {
 "persName":
 "Otto Brahm",
 "ref":
 "person_13913"},
 {
 "persName":
 "Ida Falk",
 "ref":
 "person_14878"},
 {
 "persName":
 "Georg Hirschfeld",
 "ref":
 "person_16222"},
 {
 "persName":
 "Gustav Schwarzkopf",
 "ref":
 "person_19986"},
 {
 "persName":
 "Marie Reinhard",
 "ref":
 "person_19150"},
 {
 "persName":
 "Paula Beer-Hofmann",
 "ref":
 "person_13550"},
 {
 "persName":
 "Hugo von Hofmannsthal",
 "ref":
 "person_16293"}],
 "listBibl":
  [
 {
 "title":
 "Die Mütter. Schauspiel in vier Acten",
 "ref":
 "pmb31737"}
 ]
}
}, {
 "type":
 "schnitzler-briefe",
 "color":
 "#A63437",
 "filename":
 "L00606",
 "caption":
 "Briefe mit Autorinnen und Autoren",
 "idno":
 "https://schnitzler-briefe.acdh.oeaw.ac.at/L00606.html",
 "head":
 "Arthur Schnitzler an Richard Beer-Hofmann, 17. 10. 1896",
 "desc":
{"listPerson":
  [
{
 "persName":
 "Richard Beer-Hofmann",
 "ref":
 "pmb10863"},
 {
 "persName":
 "Hugo von Hofmannsthal",
 "ref":
 "pmb11740"},
 {
 "persName":
 "Otto Brahm",
 "ref":
 "pmb10986"},
 {
 "persName":
 "Georg Hirschfeld",
 "ref":
 "pmb11701"}],
 "listBibl":
  [
 {
 "title":
 "Die Mütter. Schauspiel in vier Acten",
 "ref":
 "pmb31737"}
 ],
 "listPlace":
  [
 {
 "placeName":
 "IX., Alsergrund",
 "ref":
 "pmb59"}
 ,  {
 "placeName":
 "I., Innere Stadt",
 "ref":
 "pmb51"}
 ,  {
 "placeName":
 "Wien",
 "ref":
 "pmb50"}
 ,  {
 "placeName":
 "Wollzeile",
 "ref":
 "pmb338"}
 ,  {
 "placeName":
 "Café Imperial",
 "ref":
 "pmb43"}
 ,  {
 "placeName":
 "Riedhof",
 "ref":
 "pmb44"}
 ]
}
}, {
 "type":
 "schnitzler-briefe",
 "color":
 "#A63437",
 "filename":
 "L02787",
 "caption":
 "Briefe mit Autorinnen und Autoren",
 "idno":
 "https://schnitzler-briefe.acdh.oeaw.ac.at/L02787.html",
 "head":
 "Paul Goldmann an Arthur Schnitzler, 17. 10. [1896]",
 "desc":
{"listPerson":
  [
{
 "persName":
 "Paul Goldmann",
 "ref":
 "pmb11485"},
 {
 "persName":
 "Leopold Sonnemann",
 "ref":
 "pmb87771"},
 {
 "persName":
 "Jean Thorel",
 "ref":
 "pmb3966"},
 {
 "persName":
 "Nikolaus II. von Russland",
 "ref":
 "pmb2996"},
 {
 "persName":
 "Alix von Hessen-Darmstadt",
 "ref":
 "pmb112786"},
 {
 "persName":
 "Jean-Louis Forain",
 "ref":
 "pmb112447"},
 {
 "persName":
 "Leo Van-Jung",
 "ref":
 "pmb26392"},
 {
 "persName":
 "Henning von Brüsewitz",
 "ref":
 "pmb113878"},
 {
 "persName":
 "Theodor Siepmann",
 "ref":
 "pmb114034"},
 {
 "persName":
 "?? [Wirt im Café Tannhäuser]",
 "ref":
 "pmb114760"}],
 "listBibl":
  [
 {
 "title":
 "Frankfurter Zeitung",
 "ref":
 "pmb36344"}
 ,  {
 "title":
 "Amourette. Pièce en trois actes",
 "ref":
 "pmb92876"}
 ,  {
 "title":
 "Liebelei. Schauspiel in drei Akten",
 "ref":
 "pmb29917"}
 ,  {
 "title":
 "Tages-Rundschau [Offizier hat Bürger niedergestochen]",
 "ref":
 "pmb112509"}
 ],
 "listOrg":
  [
 {
 "orgName":
 "Frankfurter Zeitung",
 "ref":
 "pmb29442"}
 ,  {
 "orgName":
 "Société des Auteurs et Compositeurs Dramatiques",
 "ref":
 "pmb29397"}
 ,  {
 "orgName":
 "Theater in der Josefstadt",
 "ref":
 "pmb39689"}
 ],
 "listPlace":
  [
 {
 "placeName":
 "Paris",
 "ref":
 "pmb182"}
 ,  {
 "placeName":
 "Wien",
 "ref":
 "pmb50"}
 ,  {
 "placeName":
 "rue Feydeau",
 "ref":
 "pmb42671"}
 ,  {
 "placeName":
 "Berlin",
 "ref":
 "pmb168"}
 ,  {
 "placeName":
 "Russland",
 "ref":
 "pmb34438"}
 ,  {
 "placeName":
 "Frankreich",
 "ref":
 "pmb166"}
 ,  {
 "placeName":
 "Karlsruhe",
 "ref":
 "pmb871"}
 ,  {
 "placeName":
 "Café Tannhäuser",
 "ref":
 "pmb114249"}
 ,  {
 "placeName":
 "Karlstraße",
 "ref":
 "pmb113785"}
 ,  {
 "placeName":
 "Kaiserstraße",
 "ref":
 "pmb114155"}
 ]
}
}, {
 "type":
 "schnitzler-orte",
 "color":
 "#045344",
 "filename":
 "entity/50/",
 "caption":
 "Aufenthaltsorte",
 "idno":
 "https://pmb.acdh.oeaw.ac.at/entity/50/",
 "head":
 "Wien"
}, {
 "type":
 "pmb",
 "color":
 "#9B5F98",
 "filename":
 "entity/43387/",
 "caption":
 "PMB",
 "idno":
 "https://pmb.acdh.oeaw.ac.at/entity/43387/",
 "head":
 "Premiere von Die Mütter, 17.10.1896",
 "desc":
{"listBibl":
  [
 {
 "title":
 "Die Mütter. Schauspiel in vier Acten",
 "ref":
 "pmb31737"}
 ],
 "listPerson":
  [
{
 "persName":
 "Otto Brahm",
 "ref":
 "pmb10986"},
 {
 "persName":
 "Georg Hirschfeld",
 "ref":
 "pmb11701"},
 {
 "persName":
 "Hugo von Hofmannsthal",
 "ref":
 "pmb11740"},
 {
 "persName":
 "Richard Beer-Hofmann",
 "ref":
 "pmb10863"}],
 "listOrg":
  [
 {
 "orgName":
 "Volkstheater",
 "ref":
 "pmb36430"}
 ]
}
}] 