[{
 "type":
 "schnitzler-tagebuch",
 "color":
 "#037a33",
 "filename":
 "entry__1896-07-29",
 "caption":
 "Tagebuch",
 "idno":
 "https://schnitzler-tagebuch.acdh.oeaw.ac.at/entry__1896-07-29.html",
 "head":
 "Tagebuch, 29. Juli 1896",
 "desc":
{"listPerson":
  [
{
 "persName":
 "Marie Glümer",
 "ref":
 "person_15485"},
 {
 "persName":
 "Louise Schnitzler",
 "ref":
 "person_19831"},
 {
 "persName":
 "Marie Reinhard",
 "ref":
 "person_19150"},
 {
 "persName":
 "Johann Schnitzler",
 "ref":
 "person_19824"},
 {
 "persName":
 "Hugo von Hofmannsthal",
 "ref":
 "person_16293"}],
 "listPlace":
  [
 {
 "placeName":
 "Stockholm",
 "ref":
 "pmb1119"}
 ,  {
 "placeName":
 "Uppsala",
 "ref":
 "pmb91983"}
 ]
}
}, {
 "type":
 "schnitzler-briefe",
 "color":
 "#A63437",
 "filename":
 "L00571",
 "caption":
 "Briefe mit Autorinnen und Autoren",
 "idno":
 "https://schnitzler-briefe.acdh.oeaw.ac.at/L00571.html",
 "head":
 "Arthur Schnitzler an Richard Beer-Hofmann, 29. 7. 1896",
 "desc":
{"listPerson":
  [
{
 "persName":
 "Richard Beer-Hofmann",
 "ref":
 "pmb10863"},
 {
 "persName":
 "Paul Goldmann",
 "ref":
 "pmb11485"},
 {
 "persName":
 "Schnitzler",
 "ref":
 "pmb36675"},
 {
 "persName":
 "A. Schnitzler",
 "ref":
 "pmb36677"}],
 "listPlace":
  [
 {
 "placeName":
 "Stockholm",
 "ref":
 "pmb1119"}
 ,  {
 "placeName":
 "Kopenhagen",
 "ref":
 "pmb36300"}
 ,  {
 "placeName":
 "Hotel König von Dänemark",
 "ref":
 "pmb40903"}
 ,  {
 "placeName":
 "Göteborg",
 "ref":
 "pmb40700"}
 ,  {
 "placeName":
 "Grand Hotel Stockholm",
 "ref":
 "pmb40705"}
 ,  {
 "placeName":
 "Skodsborg",
 "ref":
 "pmb958"}
 ]
}
}, {
 "type":
 "schnitzler-briefe",
 "color":
 "#A63437",
 "filename":
 "L00572",
 "caption":
 "Briefe mit Autorinnen und Autoren",
 "idno":
 "https://schnitzler-briefe.acdh.oeaw.ac.at/L00572.html",
 "head":
 "Richard Beer-Hofmann an Arthur Schnitzler, 29. 7. 1896",
 "desc":
{"listPerson":
  [
{
 "persName":
 "Richard Beer-Hofmann",
 "ref":
 "pmb10863"},
 {
 "persName":
 "Paul Goldmann",
 "ref":
 "pmb11485"}],
 "listPlace":
  [
 {
 "placeName":
 "Kopenhagen",
 "ref":
 "pmb36300"}
 ,  {
 "placeName":
 "Stockholm",
 "ref":
 "pmb1119"}
 ,  {
 "placeName":
 "Hotel König von Dänemark",
 "ref":
 "pmb40903"}
 ]
}
}, {
 "type":
 "schnitzler-briefe",
 "color":
 "#A63437",
 "filename":
 "L00573",
 "caption":
 "Briefe mit Autorinnen und Autoren",
 "idno":
 "https://schnitzler-briefe.acdh.oeaw.ac.at/L00573.html",
 "head":
 "Richard Beer-Hofmann an Arthur Schnitzler, 29. 7. 1896",
 "desc":
{"listPerson":
  [
{
 "persName":
 "Richard Beer-Hofmann",
 "ref":
 "pmb10863"}],
 "listPlace":
  [
 {
 "placeName":
 "Kopenhagen",
 "ref":
 "pmb36300"}
 ,  {
 "placeName":
 "Stockholm",
 "ref":
 "pmb1119"}
 ]
}
}, {
 "type":
 "schnitzler-orte",
 "color":
 "#045344",
 "filename":
 "entity/40705/",
 "caption":
 "Aufenthaltsorte",
 "idno":
 "https://pmb.acdh.oeaw.ac.at/entity/40705/",
 "head":
 "Grand Hotel Stockholm"
}, {
 "type":
 "schnitzler-orte",
 "color":
 "#045344",
 "filename":
 "entity/1119/",
 "caption":
 "Aufenthaltsorte",
 "idno":
 "https://pmb.acdh.oeaw.ac.at/entity/1119/",
 "head":
 "Stockholm"
}, {
 "type":
 "schnitzler-orte",
 "color":
 "#045344",
 "filename":
 "entity/91983/",
 "caption":
 "Aufenthaltsorte",
 "idno":
 "https://pmb.acdh.oeaw.ac.at/entity/91983/",
 "head":
 "Uppsala"
}] 