[{
 "type":
 "schnitzler-tagebuch",
 "color":
 "#037a33",
 "filename":
 "entry__1896-05-25",
 "caption":
 "Tagebuch",
 "idno":
 "https://schnitzler-tagebuch.acdh.oeaw.ac.at/entry__1896-05-25.html",
 "head":
 "Tagebuch, 25. Mai 1896",
 "desc":
{"listPerson":
  [
{
 "persName":
 "Peter Altenberg",
 "ref":
 "person_13162"},
 {
 "persName":
 "Richard Beer-Hofmann",
 "ref":
 "person_13551"},
 {
 "persName":
 "Otto Brahm",
 "ref":
 "person_13913"},
 {
 "persName":
 "Max Messer",
 "ref":
 "person_18095"},
 {
 "persName":
 "Felix Salten",
 "ref":
 "person_19542"},
 {
 "persName":
 "Olga Waissnix",
 "ref":
 "person_21047"},
 {
 "persName":
 "Paul Wertheimer",
 "ref":
 "person_21264"},
 {
 "persName":
 "Anna no name provided",
 "ref":
 "person_13212"},
 {
 "persName":
 "Hermann Bahr",
 "ref":
 "person_13374"},
 {
 "persName":
 "Paula Beer-Hofmann",
 "ref":
 "person_13550"}],
 "listPlace":
  [
 {
 "placeName":
 "Baden bei Wien",
 "ref":
 "pmb662"}
 ,  {
 "placeName":
 "Heiligenkreuz",
 "ref":
 "pmb90845"}
 ,  {
 "placeName":
 "Brühl",
 "ref":
 "pmb44413"}
 ,  {
 "placeName":
 "Wien",
 "ref":
 "pmb50"}
 ]
}
}, {
 "type":
 "schnitzler-orte",
 "color":
 "#045344",
 "filename":
 "entity/50/",
 "caption":
 "Aufenthaltsorte",
 "idno":
 "https://pmb.acdh.oeaw.ac.at/entity/50/",
 "head":
 "Wien"
}, {
 "type":
 "schnitzler-bahr",
 "color":
 "#F9BD63",
 "filename":
 "D041162",
 "caption":
 "Schnitzler/Bahr",
 "idno":
 "https://schnitzler-bahr.acdh.oeaw.ac.at/D041162.html",
 "head":
 "Tagebuch von Schnitzler, 25. 5. 1896",
 "desc":
{"listPerson":
  [
{
 "persName":
 "Otto Brahm",
 "ref":
 "pmb10986"},
 {
 "persName":
 "Richard Beer-Hofmann",
 "ref":
 "pmb10863"},
 {
 "persName":
 "Paula Beer-Hofmann",
 "ref":
 "pmb10860"},
 {
 "persName":
 "Peter Altenberg",
 "ref":
 "pmb2147"},
 {
 "persName":
 "Olga Waissnix",
 "ref":
 "pmb2453"},
 {
 "persName":
 "Anna Boschek",
 "ref":
 "pmb27839"},
 {
 "persName":
 "Hermann Bahr",
 "ref":
 "pmb10815"},
 {
 "persName":
 "Max Messer",
 "ref":
 "pmb2885"},
 {
 "persName":
 "Felix Salten",
 "ref":
 "pmb2167"},
 {
 "persName":
 "Paul Wertheimer",
 "ref":
 "pmb2888"}],
 "listBibl":
  [
 {
 "title":
 "Wie ich es sehe",
 "ref":
 "pmb30965"}
 ],
 "listPlace":
  [
 {
 "placeName":
 "Baden bei Wien",
 "ref":
 "pmb662"}
 ,  {
 "placeName":
 "Heiligenkreuz",
 "ref":
 "pmb939"}
 ,  {
 "placeName":
 "Vorderbrühl",
 "ref":
 "pmb957"}
 ,  {
 "placeName":
 "Hinterbrühl",
 "ref":
 "pmb75"}
 ,  {
 "placeName":
 "Wien",
 "ref":
 "pmb50"}
 ,  {
 "placeName":
 "Café Stukart",
 "ref":
 "pmb421"}
 ]
}
}] 