[{
 "type":
 "schnitzler-briefe",
 "color":
 "#A63437",
 "filename":
 "L00578",
 "caption":
 "Briefe mit Autorinnen und Autoren",
 "idno":
 "https://schnitzler-briefe.acdh.oeaw.ac.at/L00578.html",
 "head":
 "Arthur Schnitzler an Georg Brandes, 7. 8. 1896",
 "desc":
{"listPerson":
  [
{
 "persName":
 "Georg Brandes",
 "ref":
 "pmb10992"},
 {
 "persName":
 "Richard Beer-Hofmann",
 "ref":
 "pmb10863"}],
 "listPlace":
  [
 {
 "placeName":
 "Skodsborg",
 "ref":
 "pmb958"}
 ,  {
 "placeName":
 "Badehotel",
 "ref":
 "pmb1091"}
 ]
}
}, {
 "type":
 "schnitzler-briefe",
 "color":
 "#A63437",
 "filename":
 "L00579",
 "caption":
 "Briefe mit Autorinnen und Autoren",
 "idno":
 "https://schnitzler-briefe.acdh.oeaw.ac.at/L00579.html",
 "head":
 "Arthur Schnitzler an Hugo von Hofmannsthal, 7. 8. 1896",
 "desc":
{"listPerson":
  [
{
 "persName":
 "Hugo von Hofmannsthal",
 "ref":
 "pmb11740"},
 {
 "persName":
 "Richard Beer-Hofmann",
 "ref":
 "pmb10863"},
 {
 "persName":
 "Paula Beer-Hofmann",
 "ref":
 "pmb10860"},
 {
 "persName":
 "Paul Goldmann",
 "ref":
 "pmb11485"},
 {
 "persName":
 "?? [Leuchtturmwärter]",
 "ref":
 "pmb41699"},
 {
 "persName":
 "?? [Frau des Leuchtturmwärters]",
 "ref":
 "pmb41702"},
 {
 "persName":
 "?? [Teenagertochter eines Leuchtturmwärters]",
 "ref":
 "pmb41701"},
 {
 "persName":
 "Henrik Ibsen",
 "ref":
 "pmb11798"},
 {
 "persName":
 "Peter Nansen",
 "ref":
 "pmb2357"}],
 "listBibl":
  [
 {
 "title":
 "Freiwild. Schauspiel in 3 Akten",
 "ref":
 "pmb29899"}
 ,  {
 "title":
 "Geschichte der beiden Liebespaare",
 "ref":
 "pmb34220"}
 ],
 "listPlace":
  [
 {
 "placeName":
 "Skodsborg",
 "ref":
 "pmb958"}
 ,  {
 "placeName":
 "Ven",
 "ref":
 "pmb36140"}
 ,  {
 "placeName":
 "Ostsee",
 "ref":
 "pmb44599"}
 ,  {
 "placeName":
 "Nordkap",
 "ref":
 "pmb41072"}
 ,  {
 "placeName":
 "Trondheim",
 "ref":
 "pmb40290"}
 ,  {
 "placeName":
 "Göteborg",
 "ref":
 "pmb40700"}
 ,  {
 "placeName":
 "Oslo",
 "ref":
 "pmb36296"}
 ,  {
 "placeName":
 "Kopenhagen",
 "ref":
 "pmb36300"}
 ,  {
 "placeName":
 "Badehotel",
 "ref":
 "pmb1091"}
 ,  {
 "placeName":
 "Berlin",
 "ref":
 "pmb168"}
 ,  {
 "placeName":
 "Wien",
 "ref":
 "pmb50"}
 ]
}
}, {
 "type":
 "schnitzler-briefe",
 "color":
 "#A63437",
 "filename":
 "L02590",
 "caption":
 "Briefe mit Autorinnen und Autoren",
 "idno":
 "https://schnitzler-briefe.acdh.oeaw.ac.at/L02590.html",
 "head":
 "Marie Herzfeld an Arthur Schnitzler, 7. 8. 1896",
 "desc":
{"listPerson":
  [
{
 "persName":
 "Marie Herzfeld",
 "ref":
 "pmb11666"},
 {
 "persName":
 "Georg Brandes",
 "ref":
 "pmb10992"},
 {
 "persName":
 "Friedrich Düsel",
 "ref":
 "pmb11212"},
 {
 "persName":
 "Betty Herzfeld",
 "ref":
 "pmb65362"},
 {
 "persName":
 "Louise Schnitzler",
 "ref":
 "pmb12701"}],
 "listBibl":
  [
 {
 "title":
 "Politiken",
 "ref":
 "pmb36357"}
 ,  {
 "title":
 "To Forestillinger af Henrik IV",
 "ref":
 "pmb33339"}
 ,  {
 "title":
 "Liebelei. Schauspiel in drei Akten",
 "ref":
 "pmb29917"}
 ,  {
 "title":
 "Anatol",
 "ref":
 "pmb29935"}
 ],
 "listPlace":
  [
 {
 "placeName":
 "Grundlsee",
 "ref":
 "pmb46000"}
 ,  {
 "placeName":
 "Wien",
 "ref":
 "pmb50"}
 ,  {
 "placeName":
 "Dänemark",
 "ref":
 "pmb43570"}
 ,  {
 "placeName":
 "Deutsches Theater Berlin",
 "ref":
 "pmb3"}
 ,  {
 "placeName":
 "Berlin",
 "ref":
 "pmb168"}
 ,  {
 "placeName":
 "Österreich",
 "ref":
 "pmb41240"}
 ,  {
 "placeName":
 "Kőszeg",
 "ref":
 "pmb35513"}
 ]
}
}, {
 "type":
 "schnitzler-orte",
 "color":
 "#045344",
 "filename":
 "entity/958/",
 "caption":
 "Aufenthaltsorte",
 "idno":
 "https://pmb.acdh.oeaw.ac.at/entity/958/",
 "head":
 "Skodsborg"
}, {
 "type":
 "schnitzler-orte",
 "color":
 "#045344",
 "filename":
 "entity/90917/",
 "caption":
 "Aufenthaltsorte",
 "idno":
 "https://pmb.acdh.oeaw.ac.at/entity/90917/",
 "head":
 "Hven"
}, {
 "type":
 "schnitzler-orte",
 "color":
 "#045344",
 "filename":
 "entity/1091/",
 "caption":
 "Aufenthaltsorte",
 "idno":
 "https://pmb.acdh.oeaw.ac.at/entity/1091/",
 "head":
 "Badehotel"
}, {
 "type":
 "schnitzler-cmif",
 "subtype":
 "#q0f31f7c-c385-4bdd-b199-e671f4a30389",
 "color":
 "#654321",
 "caption":
 "Gedruckte Briefwechsel",
 "head":
 "Arthur Schnitzler an Marie Reinhard, 7.8.1896",
 "source":
 "Therese Nickl: Arthur Schnitzler an Marie Reinhard (1896). In: Modern Austrian Literature, Jg. 10, 1977, H. 3/4, S. 22–68 (verfügbar auf: http://www.jstor.org/stable/24645882)"
}, {
 "type":
 "kalliope-verbund",
 "color":
 "#003574",
 "caption":
 "Kalliope Verbundkatalog",
 "idno":
 "http://kalliope-verbund.info/DE-2498-HS00034004",
 "head":
 "Fischer, ... an Schnitzler, Arthur [Briefe]",
 "text":
 "2 Br. 3 Bl."
}] 