[{
 "type":
 "schnitzler-tagebuch",
 "color":
 "#037a33",
 "filename":
 "entry__1897-07-08",
 "caption":
 "Tagebuch",
 "idno":
 "https://schnitzler-tagebuch.acdh.oeaw.ac.at/entry__1897-07-08.html",
 "head":
 "Tagebuch, 8. Juli 1897",
 "desc":
{"listPerson":
  [
{
 "persName":
 "Richard Beer-Hofmann",
 "ref":
 "person_13551"},
 {
 "persName":
 "Rosa Freudenthal",
 "ref":
 "person_15178"},
 {
 "persName":
 "Sasch",
 "ref":
 "person_19579"},
 {
 "persName":
 "Julius Schnitzler",
 "ref":
 "person_19827"}],
 "listBibl":
  [
 {
 "title":
 "Das Vermächtnis. Schauspiel in drei Akten",
 "ref":
 "pmb30219"}
 ],
 "listPlace":
  [
 {
 "placeName":
 "Ebensee",
 "ref":
 "pmb912"}
 ]
}
}, {
 "type":
 "schnitzler-briefe",
 "color":
 "#A63437",
 "filename":
 "L00694",
 "caption":
 "Briefe mit Autorinnen und Autoren",
 "idno":
 "https://schnitzler-briefe.acdh.oeaw.ac.at/L00694.html",
 "head":
 "Arthur Schnitzler an Hugo von Hofmannsthal, 8. 7. 1897",
 "desc":
{"listPerson":
  [
{
 "persName":
 "Hugo von Hofmannsthal",
 "ref":
 "pmb11740"},
 {
 "persName":
 "Wolfgang Amadeus Mozart",
 "ref":
 "pmb12303"},
 {
 "persName":
 "Richard Beer-Hofmann",
 "ref":
 "pmb10863"},
 {
 "persName":
 "Bernhard Strisower",
 "ref":
 "pmb25673"},
 {
 "persName":
 "Friederike Strisower",
 "ref":
 "pmb25676"},
 {
 "persName":
 "Rosa Freudenthal",
 "ref":
 "pmb16560"},
 {
 "persName":
 "Leo N. von Tolstoi",
 "ref":
 "pmb3739"},
 {
 "persName":
 "Georg Brandes",
 "ref":
 "pmb10992"}],
 "listBibl":
  [
 {
 "title":
 "Das Vermächtnis. Schauspiel in drei Akten",
 "ref":
 "pmb30219"}
 ,  {
 "title":
 "W. A. Mozart",
 "ref":
 "pmb34255"}
 ,  {
 "title":
 "Der Tod Georgs",
 "ref":
 "pmb31535"}
 ,  {
 "title":
 "Krieg und Frieden",
 "ref":
 "pmb34996"}
 ,  {
 "title":
 "William Shakespeare",
 "ref":
 "pmb32159"}
 ],
 "listPlace":
  [
 {
 "placeName":
 "Bad Ischl",
 "ref":
 "pmb213"}
 ,  {
 "placeName":
 "Bad Fusch",
 "ref":
 "pmb573"}
 ,  {
 "placeName":
 "Wien",
 "ref":
 "pmb50"}
 ,  {
 "placeName":
 "Salzburg",
 "ref":
 "pmb30"}
 ,  {
 "placeName":
 "Unterach am Attersee",
 "ref":
 "pmb877"}
 ]
}
}, {
 "type":
 "schnitzler-briefe",
 "color":
 "#A63437",
 "filename":
 "L00695",
 "caption":
 "Briefe mit Autorinnen und Autoren",
 "idno":
 "https://schnitzler-briefe.acdh.oeaw.ac.at/L00695.html",
 "head":
 "Hermann Bahr an Arthur Schnitzler, 8. 7. 1897",
 "desc":
{"listPerson":
  [
{
 "persName":
 "Hermann Bahr",
 "ref":
 "pmb10815"},
 {
 "persName":
 "Isidor Singer",
 "ref":
 "pmb12790"},
 {
 "persName":
 "Heinrich Kanner",
 "ref":
 "pmb11867"},
 {
 "persName":
 "Gilbert Otto Neumann-Hofer",
 "ref":
 "pmb12348"},
 {
 "persName":
 "Richard Beer-Hofmann",
 "ref":
 "pmb10863"}],
 "listOrg":
  [
 {
 "orgName":
 "Die Zeit. Wiener Wochenschrift",
 "ref":
 "pmb29209"}
 ,  {
 "orgName":
 "Lessing-Theater",
 "ref":
 "pmb35053"}
 ],
 "listPlace":
  [
 {
 "placeName":
 "Wien",
 "ref":
 "pmb50"}
 ,  {
 "placeName":
 "Günthergasse",
 "ref":
 "pmb296"}
 ,  {
 "placeName":
 "Lessing-Theater",
 "ref":
 "pmb18"}
 ,  {
 "placeName":
 "Bad Ischl",
 "ref":
 "pmb213"}
 ,  {
 "placeName":
 "Österreich",
 "ref":
 "pmb41240"}
 ]
}
}, {
 "type":
 "schnitzler-orte",
 "color":
 "#045344",
 "filename":
 "entity/213/",
 "caption":
 "Aufenthaltsorte",
 "idno":
 "https://pmb.acdh.oeaw.ac.at/entity/213/",
 "head":
 "Bad Ischl"
}, {
 "type":
 "schnitzler-orte",
 "color":
 "#045344",
 "filename":
 "entity/414/",
 "caption":
 "Aufenthaltsorte",
 "idno":
 "https://pmb.acdh.oeaw.ac.at/entity/414/",
 "head":
 "Hotel und Pension Rudolfshöhe (Leopold Petter)"
}, {
 "type":
 "schnitzler-bahr",
 "color":
 "#F9BD63",
 "filename":
 "L041211",
 "caption":
 "Schnitzler/Bahr",
 "idno":
 "https://schnitzler-bahr.acdh.oeaw.ac.at/L041211.html",
 "head":
 "Bahr an Schnitzler, 8. 7. 1897",
 "desc":
{"listPerson":
  [
{
 "persName":
 "Hermann Bahr",
 "ref":
 "pmb10815"},
 {
 "persName":
 "Isidor Singer",
 "ref":
 "pmb12790"},
 {
 "persName":
 "Heinrich Kanner",
 "ref":
 "pmb11867"},
 {
 "persName":
 "Gilbert Otto Neumann-Hofer",
 "ref":
 "pmb12348"},
 {
 "persName":
 "Richard Beer-Hofmann",
 "ref":
 "pmb10863"}],
 "listPlace":
  [
 {
 "placeName":
 "Wien",
 "ref":
 "pmb50"}
 ,  {
 "placeName":
 "Günthergasse",
 "ref":
 "pmb296"}
 ,  {
 "placeName":
 "Lessing-Theater",
 "ref":
 "pmb18"}
 ,  {
 "placeName":
 "Bad Ischl",
 "ref":
 "pmb213"}
 ,  {
 "placeName":
 "Österreich",
 "ref":
 "pmb41240"}
 ],
 "listOrg":
  [
 {
 "orgName":
 "Die Zeit. Wiener Wochenschrift",
 "ref":
 "pmb29209"}
 ]
}
}] 