[{
 "type":
 "schnitzler-tagebuch",
 "color":
 "#037a33",
 "filename":
 "entry__1897-07-20",
 "caption":
 "Tagebuch",
 "idno":
 "https://schnitzler-tagebuch.acdh.oeaw.ac.at/entry__1897-07-20.html",
 "head":
 "Tagebuch, 20. Juli 1897",
 "desc":
{"listPerson":
  [
{
 "persName":
 "Louis Loeb",
 "ref":
 "person_17610"},
 {
 "persName":
 "Clara Katharina Pollaczek",
 "ref":
 "person_18863"}],
 "listPlace":
  [
 {
 "placeName":
 "Bad Ischl",
 "ref":
 "pmb213"}
 ,  {
 "placeName":
 "Hallstatt",
 "ref":
 "pmb39671"}
 ,  {
 "placeName":
 "Budapest",
 "ref":
 "pmb43471"}
 ]
}
}, {
 "type":
 "schnitzler-briefe",
 "color":
 "#A63437",
 "filename":
 "L00707",
 "caption":
 "Briefe mit Autorinnen und Autoren",
 "idno":
 "https://schnitzler-briefe.acdh.oeaw.ac.at/L00707.html",
 "head":
 "Arthur Schnitzler an Richard Beer-Hofmann, 20. 7. 1897",
 "desc":
{"listPerson":
  [
{
 "persName":
 "Richard Beer-Hofmann",
 "ref":
 "pmb10863"},
 {
 "persName":
 "Louis Loeb",
 "ref":
 "pmb20548"},
 {
 "persName":
 "Regina Loeb",
 "ref":
 "pmb28299"},
 {
 "persName":
 "Hugo von Hofmannsthal",
 "ref":
 "pmb11740"},
 {
 "persName":
 "Alfred Cavar",
 "ref":
 "pmb14899"},
 {
 "persName":
 "Frieda Grossmüller",
 "ref":
 "pmb43197"},
 {
 "persName":
 "Alexander Rottmann",
 "ref":
 "pmb23683"},
 {
 "persName":
 "Georges Ohnet",
 "ref":
 "pmb12371"}],
 "listBibl":
  [
 {
 "title":
 "Freiwild. Schauspiel in 3 Akten",
 "ref":
 "pmb29899"}
 ,  {
 "title":
 "Man schreibt uns aus Gmunden",
 "ref":
 "pmb40006"}
 ,  {
 "title":
 "Fremden-Blatt",
 "ref":
 "pmb40003"}
 ,  {
 "title":
 "Der Hüttenbesitzer",
 "ref":
 "pmb31303"}
 ],
 "listOrg":
  [
 {
 "orgName":
 "Volkstheater",
 "ref":
 "pmb36430"}
 ],
 "listPlace":
  [
 {
 "placeName":
 "Bad Ischl",
 "ref":
 "pmb213"}
 ,  {
 "placeName":
 "Hallstatt",
 "ref":
 "pmb39671"}
 ,  {
 "placeName":
 "Fusch an der Großglocknerstraße",
 "ref":
 "pmb34194"}
 ,  {
 "placeName":
 "Gmunden",
 "ref":
 "pmb874"}
 ,  {
 "placeName":
 "Österreich",
 "ref":
 "pmb41240"}
 ,  {
 "placeName":
 "Wien",
 "ref":
 "pmb50"}
 ]
}
}, {
 "type":
 "schnitzler-briefe",
 "color":
 "#A63437",
 "filename":
 "L00708",
 "caption":
 "Briefe mit Autorinnen und Autoren",
 "idno":
 "https://schnitzler-briefe.acdh.oeaw.ac.at/L00708.html",
 "head":
 "Hugo von Hofmannsthal an Arthur Schnitzler, [20. 7. 1897]",
 "desc":
{"listPerson":
  [
{
 "persName":
 "Hugo von Hofmannsthal",
 "ref":
 "pmb11740"},
 {
 "persName":
 "Hermann Widerhofer",
 "ref":
 "pmb34159"},
 {
 "persName":
 "Leopold von Andrian-Werburg",
 "ref":
 "pmb10765"},
 {
 "persName":
 "Leopold Schrötter von Kristelli",
 "ref":
 "pmb45818"}],
 "listPlace":
  [
 {
 "placeName":
 "Bad Fusch",
 "ref":
 "pmb573"}
 ,  {
 "placeName":
 "Wien",
 "ref":
 "pmb50"}
 ,  {
 "placeName":
 "Bad Ischl",
 "ref":
 "pmb213"}
 ,  {
 "placeName":
 "Altaussee",
 "ref":
 "pmb34401"}
 ]
}
}, {
 "type":
 "schnitzler-orte",
 "color":
 "#045344",
 "filename":
 "entity/213/",
 "caption":
 "Aufenthaltsorte",
 "idno":
 "https://pmb.acdh.oeaw.ac.at/entity/213/",
 "head":
 "Bad Ischl"
}, {
 "type":
 "schnitzler-orte",
 "color":
 "#045344",
 "filename":
 "entity/414/",
 "caption":
 "Aufenthaltsorte",
 "idno":
 "https://pmb.acdh.oeaw.ac.at/entity/414/",
 "head":
 "Hotel und Pension Rudolfshöhe (Leopold Petter)"
}, {
 "type":
 "pollaczek",
 "color":
 "#1e81b0",
 "filename":
 "ckp015",
 "caption":
 "Pollazczek: Schnitzler und ich",
 "idno":
 "https://pollaczek.acdh.oeaw.ac.at/ckp015.html",
 "head":
 "Tagebuch von Arthur Schnitzler, 21. Februar – 29. November 1897"
}] 