[{
 "type":
 "schnitzler-tagebuch",
 "color":
 "#037a33",
 "filename":
 "entry__1897-04-26",
 "caption":
 "Tagebuch",
 "idno":
 "https://schnitzler-tagebuch.acdh.oeaw.ac.at/entry__1897-04-26.html",
 "head":
 "Tagebuch, 26. April 1897",
 "desc":
{"listBibl":
  [
 {
 "title":
 "Le papa de Francine",
 "ref":
 "pmb78355"}
 ]
}
}, {
 "type":
 "schnitzler-briefe",
 "color":
 "#A63437",
 "filename":
 "L00670",
 "caption":
 "Briefe mit Autorinnen und Autoren",
 "idno":
 "https://schnitzler-briefe.acdh.oeaw.ac.at/L00670.html",
 "head":
 "Arthur Schnitzler an Richard Beer-Hofmann, 26. 4. 1897",
 "desc":
{"listPerson":
  [
{
 "persName":
 "Richard Beer-Hofmann",
 "ref":
 "pmb10863"},
 {
 "persName":
 "Peter Altenberg",
 "ref":
 "pmb2147"},
 {
 "persName":
 "Napoleon Bonaparte",
 "ref":
 "pmb4769"},
 {
 "persName":
 "Paula Beer-Hofmann",
 "ref":
 "pmb10860"},
 {
 "persName":
 "Marie Reinhard",
 "ref":
 "pmb2378"},
 {
 "persName":
 "Max Graf",
 "ref":
 "pmb11512"},
 {
 "persName":
 "Paul Goldmann",
 "ref":
 "pmb11485"},
 {
 "persName":
 "Karl Kraus",
 "ref":
 "pmb11988"},
 {
 "persName":
 "Henri Léon Lavedan",
 "ref":
 "pmb2488"},
 {
 "persName":
 "Georges Courteline",
 "ref":
 "pmb4865"}],
 "listPlace":
  [
 {
 "placeName":
 "rue La Fayette",
 "ref":
 "pmb43395"}
 ,  {
 "placeName":
 "I., Innere Stadt",
 "ref":
 "pmb51"}
 ,  {
 "placeName":
 "Paris",
 "ref":
 "pmb182"}
 ,  {
 "placeName":
 "Wien",
 "ref":
 "pmb50"}
 ,  {
 "placeName":
 "Wollzeile",
 "ref":
 "pmb338"}
 ,  {
 "placeName":
 "Österreich",
 "ref":
 "pmb41240"}
 ,  {
 "placeName":
 "Louvre",
 "ref":
 "pmb39678"}
 ,  {
 "placeName":
 "Museum Guimet",
 "ref":
 "pmb40761"}
 ,  {
 "placeName":
 "Place de la Concorde",
 "ref":
 "pmb40746"}
 ,  {
 "placeName":
 "Jardin du Luxembourg",
 "ref":
 "pmb1257"}
 ,  {
 "placeName":
 "Frankreich",
 "ref":
 "pmb166"}
 ,  {
 "placeName":
 "La Roulotte",
 "ref":
 "pmb40757"}
 ,  {
 "placeName":
 "rue de Maubeuge",
 "ref":
 "pmb592"}
 ,  {
 "placeName":
 "Frankfurt am Main",
 "ref":
 "pmb146"}
 ]
}
}, {
 "type":
 "schnitzler-briefe",
 "color":
 "#A63437",
 "filename":
 "L00671",
 "caption":
 "Briefe mit Autorinnen und Autoren",
 "idno":
 "https://schnitzler-briefe.acdh.oeaw.ac.at/L00671.html",
 "head":
 "Arthur Schnitzler an Hugo von Hofmannsthal, 26. 4. 1897",
 "desc":
{"listPerson":
  [
{
 "persName":
 "Hugo von Hofmannsthal",
 "ref":
 "pmb11740"},
 {
 "persName":
 "Paul Goldmann",
 "ref":
 "pmb11485"},
 {
 "persName":
 "Marie Reinhard",
 "ref":
 "pmb2378"},
 {
 "persName":
 "Paul Ernest Hervieu",
 "ref":
 "pmb18201"},
 {
 "persName":
 "Maurice Donnay",
 "ref":
 "pmb11168"},
 {
 "persName":
 "Abel Hermant",
 "ref":
 "pmb11657"},
 {
 "persName":
 "Gustave Guiches",
 "ref":
 "pmb17522"},
 {
 "persName":
 "Ferdinand Raimund",
 "ref":
 "pmb12468"},
 {
 "persName":
 "Hugo August von Hofmannsthal",
 "ref":
 "pmb11737"},
 {
 "persName":
 "Anna von Hofmannsthal",
 "ref":
 "pmb18404"}],
 "listBibl":
  [
 {
 "title":
 "Männerrecht",
 "ref":
 "pmb39519"}
 ,  {
 "title":
 "La Douloureuse",
 "ref":
 "pmb32169"}
 ,  {
 "title":
 "La Carrière",
 "ref":
 "pmb32173"}
 ,  {
 "title":
 "Snob",
 "ref":
 "pmb32171"}
 ,  {
 "title":
 "Der Alpenkönig und der Menschenfeind",
 "ref":
 "pmb32444"}
 ],
 "listPlace":
  [
 {
 "placeName":
 "Paris",
 "ref":
 "pmb182"}
 ,  {
 "placeName":
 "Wien",
 "ref":
 "pmb50"}
 ,  {
 "placeName":
 "rue de Maubeuge",
 "ref":
 "pmb592"}
 ]
}
}, {
 "type":
 "schnitzler-briefe",
 "color":
 "#A63437",
 "filename":
 "L02963",
 "caption":
 "Briefe mit Autorinnen und Autoren",
 "idno":
 "https://schnitzler-briefe.acdh.oeaw.ac.at/L02963.html",
 "head":
 "Arthur Schnitzler an Felix Salten, 26. 4. 1897",
 "desc":
{"listPerson":
  [
{
 "persName":
 "Felix Salten",
 "ref":
 "pmb2167"}],
 "listPlace":
  [
 {
 "placeName":
 "Wien",
 "ref":
 "pmb50"}
 ]
}
}, {
 "type":
 "schnitzler-orte",
 "color":
 "#045344",
 "filename":
 "entity/182/",
 "caption":
 "Aufenthaltsorte",
 "idno":
 "https://pmb.acdh.oeaw.ac.at/entity/182/",
 "head":
 "Paris"
}, {
 "type":
 "schnitzler-orte",
 "color":
 "#045344",
 "filename":
 "entity/592/",
 "caption":
 "Aufenthaltsorte",
 "idno":
 "https://pmb.acdh.oeaw.ac.at/entity/592/",
 "head":
 "rue de Maubeuge"
}, {
 "type":
 "schnitzler-cmif",
 "subtype":
 "#j7685005-64da-4e31-99b6-b4641aa1628c",
 "color":
 "#654321",
 "caption":
 "Gedruckte Briefwechsel",
 "head":
 "Arthur Schnitzler an Felix Salten, 26. 4. 1897",
 "source":
 "Arthur Schnitzler: Briefe 1875–1912. Hrsg. v. Therese Nickl u. Heinrich Schnitzler. Frankfurt am Main: S. Fischer 1981."
}] 