[{
 "type":
 "schnitzler-tagebuch",
 "color":
 "#037a33",
 "filename":
 "entry__1897-11-19",
 "caption":
 "Tagebuch",
 "idno":
 "https://schnitzler-tagebuch.acdh.oeaw.ac.at/entry__1897-11-19.html",
 "head":
 "Tagebuch, 19. November 1897",
 "desc":
{"listPerson":
  [
{
 "persName":
 "Marie Glümer",
 "ref":
 "person_15485"},
 {
 "persName":
 "Gilbert Otto Neumann-Hofer",
 "ref":
 "person_18426"},
 {
 "persName":
 "Felix Salten",
 "ref":
 "person_19542"},
 {
 "persName":
 "Marie Reinhard",
 "ref":
 "person_19150"},
 {
 "persName":
 "Hermann Bahr",
 "ref":
 "person_13374"}],
 "listBibl":
  [
 {
 "title":
 "Le dindon (Ehemänner!!)",
 "ref":
 "pmb77931"}
 ],
 "listPlace":
  [
 {
 "placeName":
 "Augarten",
 "ref":
 "pmb124"}
 ,  {
 "placeName":
 "VIII., Josefstadt",
 "ref":
 "pmb58"}
 ]
}
}, {
 "type":
 "schnitzler-briefe",
 "color":
 "#A63437",
 "filename":
 "L00744",
 "caption":
 "Briefe mit Autorinnen und Autoren",
 "idno":
 "https://schnitzler-briefe.acdh.oeaw.ac.at/L00744.html",
 "head":
 "Max Burckhard an Arthur Schnitzler, [19. 11.? 1897]",
 "desc":
{"listPerson":
  [
{
 "persName":
 "Max Eugen Burckhard",
 "ref":
 "pmb11036"}],
 "listBibl":
  [
 {
 "title":
 "’s Katherl. Volksstück in fünf Aufzügen",
 "ref":
 "pmb30478"}
 ,  {
 "title":
 "Die Bürgermeisterwahl. Ländliche Comödie in vier Acten",
 "ref":
 "pmb33450"}
 ],
 "listPlace":
  [
 {
 "placeName":
 "Wien",
 "ref":
 "pmb50"}
 ,  {
 "placeName":
 "Frankgasse",
 "ref":
 "pmb397"}
 ,  {
 "placeName":
 "Volkstheater",
 "ref":
 "pmb20"}
 ]
}
}, {
 "type":
 "schnitzler-briefe",
 "color":
 "#A63437",
 "filename":
 "L02831",
 "caption":
 "Briefe mit Autorinnen und Autoren",
 "idno":
 "https://schnitzler-briefe.acdh.oeaw.ac.at/L02831.html",
 "head":
 "Paul Goldmann an Arthur Schnitzler, 19. 11. [1897]",
 "desc":
{"listPerson":
  [
{
 "persName":
 "Paul Goldmann",
 "ref":
 "pmb11485"},
 {
 "persName":
 "Leopold Sonnemann",
 "ref":
 "pmb87771"},
 {
 "persName":
 "Alfred Dreyfus",
 "ref":
 "pmb4216"},
 {
 "persName":
 "Charlotte Bondy",
 "ref":
 "pmb14384"},
 {
 "persName":
 "Vít Šalomoun Bondy",
 "ref":
 "pmb14392"},
 {
 "persName":
 "Alice Ziegler",
 "ref":
 "pmb118324"},
 {
 "persName":
 "Olga Waissnix",
 "ref":
 "pmb2453"}],
 "listBibl":
  [
 {
 "title":
 "Die Toten schweigen",
 "ref":
 "pmb29833"}
 ,  {
 "title":
 "Weihnachts-Einkäufe",
 "ref":
 "pmb30163"}
 ,  {
 "title":
 "Freiwild. Schauspiel in 3 Akten",
 "ref":
 "pmb29899"}
 ],
 "listOrg":
  [
 {
 "orgName":
 "Frankfurter Zeitung",
 "ref":
 "pmb29442"}
 ],
 "listPlace":
  [
 {
 "placeName":
 "Paris",
 "ref":
 "pmb182"}
 ,  {
 "placeName":
 "Wien",
 "ref":
 "pmb50"}
 ,  {
 "placeName":
 "rue de la Bourse",
 "ref":
 "pmb43397"}
 ,  {
 "placeName":
 "Frankreich",
 "ref":
 "pmb166"}
 ,  {
 "placeName":
 "Prag",
 "ref":
 "pmb652"}
 ,  {
 "placeName":
 "Bad Ischl",
 "ref":
 "pmb213"}
 ,  {
 "placeName":
 "Mariannengasse",
 "ref":
 "pmb311"}
 ]
}
}, {
 "type":
 "schnitzler-orte",
 "color":
 "#045344",
 "filename":
 "entity/50/",
 "caption":
 "Aufenthaltsorte",
 "idno":
 "https://pmb.acdh.oeaw.ac.at/entity/50/",
 "head":
 "Wien"
}, {
 "type":
 "schnitzler-bahr",
 "color":
 "#F9BD63",
 "filename":
 "D041175",
 "caption":
 "Schnitzler/Bahr",
 "idno":
 "https://schnitzler-bahr.acdh.oeaw.ac.at/D041175.html",
 "head":
 "Tagebuch von Schnitzler, 19. 11. 1897",
 "desc":
{"listPerson":
  [
{
 "persName":
 "Marie Reinhard",
 "ref":
 "pmb2378"},
 {
 "persName":
 "Gilbert Otto Neumann-Hofer",
 "ref":
 "pmb12348"},
 {
 "persName":
 "Hermann Bahr",
 "ref":
 "pmb10815"},
 {
 "persName":
 "Marie Glümer",
 "ref":
 "pmb14953"},
 {
 "persName":
 "Auguste Chlum",
 "ref":
 "pmb14948"},
 {
 "persName":
 "Felix Salten",
 "ref":
 "pmb2167"}],
 "listBibl":
  [
 {
 "title":
 "Ehemänner",
 "ref":
 "pmb30476"}
 ],
 "listPlace":
  [
 {
 "placeName":
 "Augarten",
 "ref":
 "pmb124"}
 ,  {
 "placeName":
 "Theater in der Josefstadt",
 "ref":
 "pmb40"}
 ]
}
}] 