[{
 "type":
 "schnitzler-tagebuch",
 "color":
 "#037a33",
 "filename":
 "entry__1897-05-12",
 "caption":
 "Tagebuch",
 "idno":
 "https://schnitzler-tagebuch.acdh.oeaw.ac.at/entry__1897-05-12.html",
 "head":
 "Tagebuch, 12. Mai 1897",
 "desc":
{"listPerson":
  [
{
 "persName":
 "Ludwig Beer",
 "ref":
 "person_13543"},
 {
 "persName":
 "Paul Goldmann",
 "ref":
 "person_15529"},
 {
 "persName":
 "Marie Reinhard",
 "ref":
 "person_19150"}],
 "listPlace":
  [
 {
 "placeName":
 "Champs-Élysées",
 "ref":
 "pmb90464"}
 ]
}
}, {
 "type":
 "schnitzler-briefe",
 "color":
 "#A63437",
 "filename":
 "L00675",
 "caption":
 "Briefe mit Autorinnen und Autoren",
 "idno":
 "https://schnitzler-briefe.acdh.oeaw.ac.at/L00675.html",
 "head":
 "Richard Beer-Hofmann an Arthur Schnitzler, 12. 5. 1897",
 "desc":
{"listPerson":
  [
{
 "persName":
 "Richard Beer-Hofmann",
 "ref":
 "pmb10863"},
 {
 "persName":
 "Markus Hajek",
 "ref":
 "pmb2284"},
 {
 "persName":
 "Paula Beer-Hofmann",
 "ref":
 "pmb10860"},
 {
 "persName":
 "Alois Hofmann",
 "ref":
 "pmb34949"},
 {
 "persName":
 "Paul Goldmann",
 "ref":
 "pmb11485"},
 {
 "persName":
 "Louise Schnitzler",
 "ref":
 "pmb12701"}],
 "listPlace":
  [
 {
 "placeName":
 "Bad Ischl",
 "ref":
 "pmb213"}
 ,  {
 "placeName":
 "Wien",
 "ref":
 "pmb50"}
 ,  {
 "placeName":
 "Eglmoosgasse",
 "ref":
 "pmb766"}
 ,  {
 "placeName":
 "Paris",
 "ref":
 "pmb182"}
 ]
}
}, {
 "type":
 "schnitzler-briefe",
 "color":
 "#A63437",
 "filename":
 "L00676",
 "caption":
 "Briefe mit Autorinnen und Autoren",
 "idno":
 "https://schnitzler-briefe.acdh.oeaw.ac.at/L00676.html",
 "head":
 "Oscar Blumenthal an Arthur Schnitzler, 12. 5. 1897",
 "desc":
{"listPerson":
  [
{
 "persName":
 "Oskar Blumenthal",
 "ref":
 "pmb14328"},
 {
 "persName":
 "Adolf Klein",
 "ref":
 "pmb35523"},
 {
 "persName":
 "Willy Rohland",
 "ref":
 "pmb35529"},
 {
 "persName":
 "Alfred Halm",
 "ref":
 "pmb2385"},
 {
 "persName":
 "Hermann Vallentin",
 "ref":
 "pmb10325"},
 {
 "persName":
 "Paula Carlsen",
 "ref":
 "pmb35533"},
 {
 "persName":
 "Meta Illing",
 "ref":
 "pmb35540"},
 {
 "persName":
 "Mathieu Pfeil",
 "ref":
 "pmb35551"},
 {
 "persName":
 "Albert Ullrich",
 "ref":
 "pmb35567"},
 {
 "persName":
 "Louise Dumont",
 "ref":
 "pmb11195"},
 {
 "persName":
 "Jenny Groß",
 "ref":
 "pmb35581"},
 {
 "persName":
 "Meta Jaeger",
 "ref":
 "pmb35594"},
 {
 "persName":
 "Marie Elsinger",
 "ref":
 "pmb2938"},
 {
 "persName":
 "Paula Wirth",
 "ref":
 "pmb35603"},
 {
 "persName":
 "Sofie Pagay",
 "ref":
 "pmb35608"},
 {
 "persName":
 "Franz Guthery",
 "ref":
 "pmb35611"},
 {
 "persName":
 "Franz Julius Schönfeld",
 "ref":
 "pmb35615"},
 {
 "persName":
 "Emanuel Stockhausen",
 "ref":
 "pmb35619"},
 {
 "persName":
 "Carl Waldow",
 "ref":
 "pmb35635"},
 {
 "persName":
 "Georg Engels",
 "ref":
 "pmb35639"}],
 "listOrg":
  [
 {
 "orgName":
 "Lessing-Theater",
 "ref":
 "pmb35053"}
 ,  {
 "orgName":
 "Deutsches Theater München",
 "ref":
 "pmb35546"}
 ,  {
 "orgName":
 "Irving Place Theatre",
 "ref":
 "pmb35555"}
 ,  {
 "orgName":
 "Hoftheater Meiningen",
 "ref":
 "pmb35563"}
 ],
 "listPlace":
  [
 {
 "placeName":
 "Lauffen",
 "ref":
 "pmb35658"}
 ,  {
 "placeName":
 "Wien",
 "ref":
 "pmb50"}
 ,  {
 "placeName":
 "Berlin",
 "ref":
 "pmb168"}
 ,  {
 "placeName":
 "Schauspielhaus",
 "ref":
 "pmb784"}
 ,  {
 "placeName":
 "Theater des Westens",
 "ref":
 "pmb692"}
 ,  {
 "placeName":
 "Neues Theater",
 "ref":
 "pmb720"}
 ,  {
 "placeName":
 "München",
 "ref":
 "pmb45258"}
 ,  {
 "placeName":
 "New York City",
 "ref":
 "pmb44053"}
 ,  {
 "placeName":
 "Meiningen",
 "ref":
 "pmb35576"}
 ]
}
}, {
 "type":
 "schnitzler-orte",
 "color":
 "#045344",
 "filename":
 "entity/182/",
 "caption":
 "Aufenthaltsorte",
 "idno":
 "https://pmb.acdh.oeaw.ac.at/entity/182/",
 "head":
 "Paris"
}, {
 "type":
 "schnitzler-orte",
 "color":
 "#045344",
 "filename":
 "entity/592/",
 "caption":
 "Aufenthaltsorte",
 "idno":
 "https://pmb.acdh.oeaw.ac.at/entity/592/",
 "head":
 "rue de Maubeuge"
}] 