[{
 "type":
 "schnitzler-tagebuch",
 "color":
 "#037a33",
 "filename":
 "entry__1897-04-22",
 "caption":
 "Tagebuch",
 "idno":
 "https://schnitzler-tagebuch.acdh.oeaw.ac.at/entry__1897-04-22.html",
 "head":
 "Tagebuch, 22. April 1897",
 "desc":
{"listPerson":
  [
{
 "persName":
 "Maurice Donnay",
 "ref":
 "person_14487"},
 {
 "persName":
 "Réjane",
 "ref":
 "person_19178"},
 {
 "persName":
 "Napoleon Bonaparte",
 "ref":
 "person_18356"}],
 "listBibl":
  [
 {
 "title":
 "La Douloureuse",
 "ref":
 "pmb32169"}
 ]
}
}, {
 "type":
 "schnitzler-briefe",
 "color":
 "#A63437",
 "filename":
 "L00668",
 "caption":
 "Briefe mit Autorinnen und Autoren",
 "idno":
 "https://schnitzler-briefe.acdh.oeaw.ac.at/L00668.html",
 "head":
 "Arthur Schnitzler an Hermann Bahr, 22. 4. 1897",
 "desc":
{"listPerson":
  [
{
 "persName":
 "Hermann Bahr",
 "ref":
 "pmb10815"},
 {
 "persName":
 "Elsa Plessner",
 "ref":
 "pmb2128"}],
 "listBibl":
  [
 {
 "title":
 "Warten",
 "ref":
 "pmb32316"}
 ,  {
 "title":
 "Magazin für die Literatur des Auslandes",
 "ref":
 "pmb40968"}
 ],
 "listPlace":
  [
 {
 "placeName":
 "Paris",
 "ref":
 "pmb182"}
 ,  {
 "placeName":
 "Wien",
 "ref":
 "pmb50"}
 ]
}
}, {
 "type":
 "schnitzler-briefe",
 "color":
 "#A63437",
 "filename":
 "L02809",
 "caption":
 "Briefe mit Autorinnen und Autoren",
 "idno":
 "https://schnitzler-briefe.acdh.oeaw.ac.at/L02809.html",
 "head":
 "Paul Goldmann an Arthur Schnitzler, 22. 4. 1897",
 "desc":
{"listPerson":
  [
{
 "persName":
 "Paul Goldmann",
 "ref":
 "pmb11485"},
 {
 "persName":
 "Wilhelm Gömöri",
 "ref":
 "pmb118462"},
 {
 "persName":
 "Marie Reinhard",
 "ref":
 "pmb2378"},
 {
 "persName":
 "Henrik Ibsen",
 "ref":
 "pmb11798"},
 {
 "persName":
 "Fedor Mamroth",
 "ref":
 "pmb4986"},
 {
 "persName":
 "Hermann Bahr",
 "ref":
 "pmb10815"},
 {
 "persName":
 "?? [Partnerin? von Paul Goldmann 1897]",
 "ref":
 "pmb118457"},
 {
 "persName":
 "Fanny",
 "ref":
 "pmb16092"},
 {
 "persName":
 "Madeleine",
 "ref":
 "pmb20825"},
 {
 "persName":
 "Pierre Augustin Caron de Beaumarchais",
 "ref":
 "pmb10857"},
 {
 "persName":
 "André Hallays",
 "ref":
 "pmb88124"}],
 "listBibl":
  [
 {
 "title":
 "John Gabriel Borkman",
 "ref":
 "pmb31489"}
 ,  {
 "title":
 "Theater. Ein Wiener Roman",
 "ref":
 "pmb31999"}
 ,  {
 "title":
 "Tagebuch",
 "ref":
 "pmb33243"}
 ,  {
 "title":
 "Beaumarchais",
 "ref":
 "pmb118459"}
 ],
 "listOrg":
  [
 {
 "orgName":
 "Frankfurter Zeitung",
 "ref":
 "pmb29442"}
 ,  {
 "orgName":
 "Librairie Hachette",
 "ref":
 "pmb141468"}
 ],
 "listPlace":
  [
 {
 "placeName":
 "Frankfurt am Main",
 "ref":
 "pmb146"}
 ,  {
 "placeName":
 "Paris",
 "ref":
 "pmb182"}
 ,  {
 "placeName":
 "Hotel Deutscher Kaiser",
 "ref":
 "pmb118464"}
 ,  {
 "placeName":
 "Frankfurt (Main) Hauptbahnhof",
 "ref":
 "pmb118470"}
 ,  {
 "placeName":
 "Köln",
 "ref":
 "pmb145"}
 ,  {
 "placeName":
 "Türkei",
 "ref":
 "pmb773"}
 ,  {
 "placeName":
 "Griechenland",
 "ref":
 "pmb44293"}
 ,  {
 "placeName":
 "Kreta",
 "ref":
 "pmb118407"}
 ,  {
 "placeName":
 "La Scala",
 "ref":
 "pmb118451"}
 ]
}
}, {
 "type":
 "schnitzler-orte",
 "color":
 "#045344",
 "filename":
 "entity/182/",
 "caption":
 "Aufenthaltsorte",
 "idno":
 "https://pmb.acdh.oeaw.ac.at/entity/182/",
 "head":
 "Paris"
}, {
 "type":
 "schnitzler-orte",
 "color":
 "#045344",
 "filename":
 "entity/592/",
 "caption":
 "Aufenthaltsorte",
 "idno":
 "https://pmb.acdh.oeaw.ac.at/entity/592/",
 "head":
 "rue de Maubeuge"
}, {
 "type":
 "schnitzler-bahr",
 "color":
 "#F9BD63",
 "filename":
 "L041678",
 "caption":
 "Schnitzler/Bahr",
 "idno":
 "https://schnitzler-bahr.acdh.oeaw.ac.at/L041678.html",
 "head":
 "Elsa Plessner an Schnitzler, [22. 4. 1897]",
 "desc":
{"listPerson":
  [
{
 "persName":
 "Elsa Plessner",
 "ref":
 "pmb2128"},
 {
 "persName":
 "Hermann Bahr",
 "ref":
 "pmb10815"}],
 "listBibl":
  [
 {
 "title":
 "Warten",
 "ref":
 "pmb32316"}
 ],
 "listPlace":
  [
 {
 "placeName":
 "Wien",
 "ref":
 "pmb50"}
 ,  {
 "placeName":
 "Paris",
 "ref":
 "pmb182"}
 ,  {
 "placeName":
 "Florianigasse",
 "ref":
 "pmb818"}
 ],
 "listOrg":
  [
 {
 "orgName":
 "Die Zeit. Wiener Wochenschrift",
 "ref":
 "pmb29209"}
 ]
}
}, {
 "type":
 "schnitzler-bahr",
 "color":
 "#F9BD63",
 "filename":
 "L041013",
 "caption":
 "Schnitzler/Bahr",
 "idno":
 "https://schnitzler-bahr.acdh.oeaw.ac.at/L041013.html",
 "head":
 "Schnitzler an Bahr, 22. 4. 1897",
 "desc":
{"listPerson":
  [
{
 "persName":
 "Hermann Bahr",
 "ref":
 "pmb10815"},
 {
 "persName":
 "Elsa Plessner",
 "ref":
 "pmb2128"}],
 "listBibl":
  [
 {
 "title":
 "Warten",
 "ref":
 "pmb32316"}
 ],
 "listPlace":
  [
 {
 "placeName":
 "Paris",
 "ref":
 "pmb182"}
 ,  {
 "placeName":
 "Wien",
 "ref":
 "pmb50"}
 ]
}
}, {
 "type":
 "schnitzler-cmif",
 "subtype":
 "#hbas_0a380dfe-61d4-4b9e-8641-01eba8e50777",
 "color":
 "#654321",
 "caption":
 "Gedruckte Briefwechsel",
 "head":
 "Elsa Plessner an Arthur Schnitzler, 22.4.1897",
 "source":
 "Hermann Bahr, Arthur Schnitzler. Briefwechsel, Aufzeichnungen, Dokumente 1891–1931. Herausgegeben von Kurt Ifkovits, Martin Anton Müller. Göttingen: Wallstein Verlag 2018"
}] 