[{
 "type":
 "schnitzler-tagebuch",
 "color":
 "#037a33",
 "filename":
 "entry__1897-02-09",
 "caption":
 "Tagebuch",
 "idno":
 "https://schnitzler-tagebuch.acdh.oeaw.ac.at/entry__1897-02-09.html",
 "head":
 "Tagebuch, 9. Februar 1897",
 "desc":
{"listPerson":
  [
{
 "persName":
 "Arnold Rosé",
 "ref":
 "person_19351"},
 {
 "persName":
 "Marie Reinhard",
 "ref":
 "person_19150"}]
}
}, {
 "type":
 "schnitzler-briefe",
 "color":
 "#A63437",
 "filename":
 "L00644",
 "caption":
 "Briefe mit Autorinnen und Autoren",
 "idno":
 "https://schnitzler-briefe.acdh.oeaw.ac.at/L00644.html",
 "head":
 "Hugo von Hofmannsthal an Arthur Schnitzler, 9. 2. 1897",
 "desc":
{"listPerson":
  [
{
 "persName":
 "Hugo von Hofmannsthal",
 "ref":
 "pmb11740"},
 {
 "persName":
 "Hermine von Schaffgotsch",
 "ref":
 "pmb24033"}],
 "listBibl":
  [
 {
 "title":
 "Was die Braut geträumt hat. Ein Gelegenheitsgedicht",
 "ref":
 "pmb34359"}
 ],
 "listPlace":
  [
 {
 "placeName":
 "III., Landstraße",
 "ref":
 "pmb53"}
 ,  {
 "placeName":
 "IX., Alsergrund",
 "ref":
 "pmb59"}
 ,  {
 "placeName":
 "Wien",
 "ref":
 "pmb50"}
 ,  {
 "placeName":
 "Frankgasse",
 "ref":
 "pmb397"}
 ]
}
}, {
 "type":
 "schnitzler-briefe",
 "color":
 "#A63437",
 "filename":
 "L00645",
 "caption":
 "Briefe mit Autorinnen und Autoren",
 "idno":
 "https://schnitzler-briefe.acdh.oeaw.ac.at/L00645.html",
 "head":
 "Arthur Schnitzler an Hugo von Hofmannsthal, [9. 2. 1897?]",
 "desc":
{"listPerson":
  [
{
 "persName":
 "Hugo von Hofmannsthal",
 "ref":
 "pmb11740"},
 {
 "persName":
 "Hermine von Schaffgotsch",
 "ref":
 "pmb24033"},
 {
 "persName":
 "August Wärndorfer",
 "ref":
 "pmb27380"},
 {
 "persName":
 "Adrienne Wärndorfer",
 "ref":
 "pmb27377"},
 {
 "persName":
 "Louis Loeb",
 "ref":
 "pmb20548"},
 {
 "persName":
 "Regina Loeb",
 "ref":
 "pmb28299"}],
 "listPlace":
  [
 {
 "placeName":
 "Wien",
 "ref":
 "pmb50"}
 ,  {
 "placeName":
 "Café Pucher",
 "ref":
 "pmb819"}
 ]
}
}, {
 "type":
 "schnitzler-briefe",
 "color":
 "#A63437",
 "filename":
 "L02802",
 "caption":
 "Briefe mit Autorinnen und Autoren",
 "idno":
 "https://schnitzler-briefe.acdh.oeaw.ac.at/L02802.html",
 "head":
 "Paul Goldmann an Arthur Schnitzler, 9. 2. [1897]",
 "desc":
{"listPerson":
  [
{
 "persName":
 "Paul Goldmann",
 "ref":
 "pmb11485"},
 {
 "persName":
 "Leopold Sonnemann",
 "ref":
 "pmb87771"},
 {
 "persName":
 "Marie Reinhard",
 "ref":
 "pmb2378"},
 {
 "persName":
 "?? [Totgeborener Sohn von Arthur Schnitzler und Marie Reinhard]",
 "ref":
 "pmb42794"},
 {
 "persName":
 "Jean Thorel",
 "ref":
 "pmb3966"},
 {
 "persName":
 "Jeanne Marni",
 "ref":
 "pmb5459"},
 {
 "persName":
 "Albert Carré",
 "ref":
 "pmb14876"},
 {
 "persName":
 "Théodore de Wyzewa",
 "ref":
 "pmb27373"}],
 "listBibl":
  [
 {
 "title":
 "Tagebuch",
 "ref":
 "pmb33243"}
 ,  {
 "title":
 "Mourir. Roman",
 "ref":
 "pmb40662"}
 ,  {
 "title":
 "Un vaudevilliste viennois",
 "ref":
 "pmb118330"}
 ,  {
 "title":
 "Le Temps",
 "ref":
 "pmb58327"}
 ,  {
 "title":
 "Amourette. Pièce en trois actes. Adaptée de Arthur Schnitzler",
 "ref":
 "pmb92876"}
 ],
 "listOrg":
  [
 {
 "orgName":
 "Frankfurter Zeitung",
 "ref":
 "pmb29442"}
 ,  {
 "orgName":
 "La Vie Parisienne",
 "ref":
 "pmb93197"}
 ],
 "listPlace":
  [
 {
 "placeName":
 "Paris",
 "ref":
 "pmb182"}
 ,  {
 "placeName":
 "Wien",
 "ref":
 "pmb50"}
 ,  {
 "placeName":
 "rue Feydeau",
 "ref":
 "pmb42671"}
 ,  {
 "placeName":
 "Mauer",
 "ref":
 "pmb7728"}
 ,  {
 "placeName":
 "London",
 "ref":
 "pmb224"}
 ,  {
 "placeName":
 "Bad Ischl",
 "ref":
 "pmb213"}
 ,  {
 "placeName":
 "Australien",
 "ref":
 "pmb604"}
 ,  {
 "placeName":
 "Rue Jouffroy d'Abbans",
 "ref":
 "pmb118400"}
 ,  {
 "placeName":
 "Rue de Milan",
 "ref":
 "pmb93477"}
 ]
}
}, {
 "type":
 "schnitzler-orte",
 "color":
 "#045344",
 "filename":
 "entity/50/",
 "caption":
 "Aufenthaltsorte",
 "idno":
 "https://pmb.acdh.oeaw.ac.at/entity/50/",
 "head":
 "Wien"
}, {
 "type":
 "schnitzler-cmif",
 "subtype":
 "#w6429315-92be-4f82-b2f1-926125f9bfa5",
 "color":
 "#654321",
 "caption":
 "Gedruckte Briefwechsel",
 "head":
 "Eugen Deimel an Arthur Schnitzler, 9.2.1897",
 "source":
 "Heinz P. Adamek (Hg.): In die Neue Welt... Arthur Schnitzler - Eugen Deimel. Briefwechsel. Holzhausen Verlag: Wien 2003"
}] 