[{
 "type":
 "schnitzler-tagebuch",
 "color":
 "#037a33",
 "filename":
 "entry__1898-06-05",
 "caption":
 "Tagebuch",
 "idno":
 "https://schnitzler-tagebuch.acdh.oeaw.ac.at/entry__1898-06-05.html",
 "head":
 "Tagebuch, 5. Juni 1898",
 "desc":
{"listPerson":
  [
{
 "persName":
 "Leopold Kramer",
 "ref":
 "person_17087"}],
 "listPlace":
  [
 {
 "placeName":
 "Semmering",
 "ref":
 "pmb91735"}
 ,  {
 "placeName":
 "Mürzzuschlag",
 "ref":
 "pmb55088"}
 ,  {
 "placeName":
 "Mürzsteg",
 "ref":
 "pmb91316"}
 ,  {
 "placeName":
 "Krieglach",
 "ref":
 "pmb36189"}
 ]
}
}, {
 "type":
 "schnitzler-briefe",
 "color":
 "#A63437",
 "filename":
 "L00803",
 "caption":
 "Briefe mit Autorinnen und Autoren",
 "idno":
 "https://schnitzler-briefe.acdh.oeaw.ac.at/L00803.html",
 "head":
 "Arthur Schnitzler, Leopold Kramer an Richard Beer-Hofmann, 5. 6. 1898",
 "desc":
{"listPerson":
  [
{
 "persName":
 "Leopold Kramer",
 "ref":
 "pmb11981"},
 {
 "persName":
 "Richard Beer-Hofmann",
 "ref":
 "pmb10863"},
 {
 "persName":
 "Peter Rosegger",
 "ref":
 "pmb12551"}],
 "listPlace":
  [
 {
 "placeName":
 "Steindorf am Ossiacher See",
 "ref":
 "pmb34860"}
 ,  {
 "placeName":
 "Krieglach",
 "ref":
 "pmb36189"}
 ,  {
 "placeName":
 "Ossiacher See",
 "ref":
 "pmb40374"}
 ,  {
 "placeName":
 "Kärnten",
 "ref":
 "pmb651"}
 ,  {
 "placeName":
 "Ossiach",
 "ref":
 "pmb40376"}
 ]
}
}, {
 "type":
 "schnitzler-orte",
 "color":
 "#045344",
 "filename":
 "entity/50/",
 "caption":
 "Aufenthaltsorte",
 "idno":
 "https://pmb.acdh.oeaw.ac.at/entity/50/",
 "head":
 "Wien"
}, {
 "type":
 "schnitzler-orte",
 "color":
 "#045344",
 "filename":
 "entity/91735/",
 "caption":
 "Aufenthaltsorte",
 "idno":
 "https://pmb.acdh.oeaw.ac.at/entity/91735/",
 "head":
 "Semmering"
}, {
 "type":
 "schnitzler-orte",
 "color":
 "#045344",
 "filename":
 "entity/55088/",
 "caption":
 "Aufenthaltsorte",
 "idno":
 "https://pmb.acdh.oeaw.ac.at/entity/55088/",
 "head":
 "Mürzzuschlag"
}, {
 "type":
 "schnitzler-orte",
 "color":
 "#045344",
 "filename":
 "entity/36189/",
 "caption":
 "Aufenthaltsorte",
 "idno":
 "https://pmb.acdh.oeaw.ac.at/entity/36189/",
 "head":
 "Krieglach"
}] 