[{
 "type":
 "schnitzler-tagebuch",
 "color":
 "#037a33",
 "filename":
 "entry__1898-04-04",
 "caption":
 "Tagebuch",
 "idno":
 "https://schnitzler-tagebuch.acdh.oeaw.ac.at/entry__1898-04-04.html",
 "head":
 "Tagebuch, 4. April 1898",
 "desc":
{"listPerson":
  [
{
 "persName":
 "Marie Reinhard",
 "ref":
 "person_19150"}]
}
}, {
 "type":
 "schnitzler-briefe",
 "color":
 "#A63437",
 "filename":
 "L02847",
 "caption":
 "Briefe mit Autorinnen und Autoren",
 "idno":
 "https://schnitzler-briefe.acdh.oeaw.ac.at/L02847.html",
 "head":
 "Paul Goldmann an Arthur Schnitzler, 4. 4. 1898",
 "desc":
{"listPerson":
  [
{
 "persName":
 "Paul Goldmann",
 "ref":
 "pmb11485"},
 {
 "persName":
 "Marie Reinhard",
 "ref":
 "pmb2378"}],
 "listOrg":
  [
 {
 "orgName":
 "Frankfurter Zeitung",
 "ref":
 "pmb29442"}
 ],
 "listPlace":
  [
 {
 "placeName":
 "Genua",
 "ref":
 "pmb994"}
 ,  {
 "placeName":
 "Wien",
 "ref":
 "pmb50"}
 ,  {
 "placeName":
 "Frankfurt am Main",
 "ref":
 "pmb146"}
 ,  {
 "placeName":
 "Hong Kong",
 "ref":
 "pmb44086"}
 ,  {
 "placeName":
 "Perlfluss",
 "ref":
 "pmb118806"}
 ,  {
 "placeName":
 "Guangzhou",
 "ref":
 "pmb118797"}
 ,  {
 "placeName":
 "Shanghai",
 "ref":
 "pmb37885"}
 ,  {
 "placeName":
 "Jangtsekiang",
 "ref":
 "pmb118808"}
 ,  {
 "placeName":
 "Wuhan",
 "ref":
 "pmb118810"}
 ,  {
 "placeName":
 "Kiautschou",
 "ref":
 "pmb118812"}
 ,  {
 "placeName":
 "Tianjin",
 "ref":
 "pmb118682"}
 ,  {
 "placeName":
 "Peking",
 "ref":
 "pmb118369"}
 ,  {
 "placeName":
 "Incheon",
 "ref":
 "pmb118814"}
 ,  {
 "placeName":
 "Südkorea",
 "ref":
 "pmb91056"}
 ,  {
 "placeName":
 "Seoul",
 "ref":
 "pmb118816"}
 ,  {
 "placeName":
 "Japan",
 "ref":
 "pmb318"}
 ,  {
 "placeName":
 "Deutsches Postamt in Shanghai",
 "ref":
 "pmb141888"}
 ,  {
 "placeName":
 "Berlin",
 "ref":
 "pmb168"}
 ,  {
 "placeName":
 "Paris",
 "ref":
 "pmb182"}
 ,  {
 "placeName":
 "Italien",
 "ref":
 "pmb40306"}
 ,  {
 "placeName":
 "Frankreich",
 "ref":
 "pmb166"}
 ,  {
 "placeName":
 "Deutschland",
 "ref":
 "pmb151"}
 ]
}
}, {
 "type":
 "schnitzler-orte",
 "color":
 "#045344",
 "filename":
 "entity/50/",
 "caption":
 "Aufenthaltsorte",
 "idno":
 "https://pmb.acdh.oeaw.ac.at/entity/50/",
 "head":
 "Wien"
}] 