[{
 "type":
 "schnitzler-tagebuch",
 "color":
 "#037a33",
 "filename":
 "entry__1898-06-17",
 "caption":
 "Tagebuch",
 "idno":
 "https://schnitzler-tagebuch.acdh.oeaw.ac.at/entry__1898-06-17.html",
 "head":
 "Tagebuch, 17. Juni 1898",
 "desc":
{"listPerson":
  [
{
 "persName":
 "Paul Schlenther",
 "ref":
 "person_19724"},
 {
 "persName":
 "Marie Reinhard",
 "ref":
 "person_19150"}],
 "listBibl":
  [
 {
 "title":
 "Paracelsus. Versspiel in einem Akt",
 "ref":
 "pmb30403"}
 ,  {
 "title":
 "Die Neuvermählten",
 "ref":
 "pmb78085"}
 ]
}
}, {
 "type":
 "schnitzler-briefe",
 "color":
 "#A63437",
 "filename":
 "L00806",
 "caption":
 "Briefe mit Autorinnen und Autoren",
 "idno":
 "https://schnitzler-briefe.acdh.oeaw.ac.at/L00806.html",
 "head":
 "Arthur Schnitzler an Richard Beer-Hofmann, 17. 6. 1898",
 "desc":
{"listPerson":
  [
{
 "persName":
 "Richard Beer-Hofmann",
 "ref":
 "pmb10863"},
 {
 "persName":
 "Hugo von Hofmannsthal",
 "ref":
 "pmb11740"},
 {
 "persName":
 "Marie Reinhard",
 "ref":
 "pmb2378"},
 {
 "persName":
 "Caroline Burger",
 "ref":
 "pmb14707"},
 {
 "persName":
 "Rudolf Burger",
 "ref":
 "pmb14711"},
 {
 "persName":
 "Carl Reinhard",
 "ref":
 "pmb23209"},
 {
 "persName":
 "Therese Reinhard",
 "ref":
 "pmb23215"},
 {
 "persName":
 "Louise Schnitzler",
 "ref":
 "pmb12701"},
 {
 "persName":
 "Paul Goldmann",
 "ref":
 "pmb11485"},
 {
 "persName":
 "Gustav Schwarzkopf",
 "ref":
 "pmb12740"},
 {
 "persName":
 "Leo Van-Jung",
 "ref":
 "pmb26392"},
 {
 "persName":
 "Paula Beer-Hofmann",
 "ref":
 "pmb10860"},
 {
 "persName":
 "Mirjam Beer-Hofmann",
 "ref":
 "pmb2668"}],
 "listBibl":
  [
 {
 "title":
 "Schlaflied für Mirjam",
 "ref":
 "pmb39783"}
 ],
 "listPlace":
  [
 {
 "placeName":
 "Wien",
 "ref":
 "pmb50"}
 ,  {
 "placeName":
 "Steindorf am Ossiacher See",
 "ref":
 "pmb34860"}
 ,  {
 "placeName":
 "Brühl",
 "ref":
 "pmb44413"}
 ,  {
 "placeName":
 "Wiener Neustadt",
 "ref":
 "pmb587"}
 ,  {
 "placeName":
 "Graz",
 "ref":
 "pmb860"}
 ,  {
 "placeName":
 "Tegernsee",
 "ref":
 "pmb39752"}
 ,  {
 "placeName":
 "Vierwaldstättersee",
 "ref":
 "pmb39755"}
 ,  {
 "placeName":
 "Ampezzo",
 "ref":
 "pmb39757"}
 ,  {
 "placeName":
 "Venedig",
 "ref":
 "pmb462"}
 ]
}
}, {
 "type":
 "schnitzler-orte",
 "color":
 "#045344",
 "filename":
 "entity/50/",
 "caption":
 "Aufenthaltsorte",
 "idno":
 "https://pmb.acdh.oeaw.ac.at/entity/50/",
 "head":
 "Wien"
}] 