[{
 "type":
 "schnitzler-tagebuch",
 "color":
 "#037a33",
 "filename":
 "entry__1898-07-18",
 "caption":
 "Tagebuch",
 "idno":
 "https://schnitzler-tagebuch.acdh.oeaw.ac.at/entry__1898-07-18.html",
 "head":
 "Tagebuch, 18. Juli 1898",
 "desc":
{"listPerson":
  [
{
 "persName":
 "Hugo August von Hofmannsthal",
 "ref":
 "person_16294"}],
 "listPlace":
  [
 {
 "placeName":
 "Schladming",
 "ref":
 "pmb91681"}
 ,  {
 "placeName":
 "Bischofshofen",
 "ref":
 "pmb41003"}
 ,  {
 "placeName":
 "St. Johann im Pongau",
 "ref":
 "pmb996"}
 ,  {
 "placeName":
 "Bruck an der Mur",
 "ref":
 "pmb840"}
 ,  {
 "placeName":
 "Fusch an der Großglocknerstraße",
 "ref":
 "pmb34194"}
 ]
}
}, {
 "type":
 "schnitzler-briefe",
 "color":
 "#A63437",
 "filename":
 "L00822",
 "caption":
 "Briefe mit Autorinnen und Autoren",
 "idno":
 "https://schnitzler-briefe.acdh.oeaw.ac.at/L00822.html",
 "head":
 "Arthur Schnitzler an Richard Beer-Hofmann, 18. 7. 1898",
 "desc":
{"listPerson":
  [
{
 "persName":
 "Richard Beer-Hofmann",
 "ref":
 "pmb10863"}],
 "listPlace":
  [
 {
 "placeName":
 "Steindorf am Ossiacher See",
 "ref":
 "pmb34860"}
 ,  {
 "placeName":
 "St. Johann im Pongau",
 "ref":
 "pmb996"}
 ,  {
 "placeName":
 "Ossiacher See",
 "ref":
 "pmb40374"}
 ,  {
 "placeName":
 "Kärnten",
 "ref":
 "pmb651"}
 ,  {
 "placeName":
 "Liechtensteinklamm",
 "ref":
 "pmb35499"}
 ,  {
 "placeName":
 "Salzburg",
 "ref":
 "pmb30"}
 ,  {
 "placeName":
 "Villa Dr. Wassing",
 "ref":
 "pmb34014"}
 ]
}
}, {
 "type":
 "schnitzler-briefe",
 "color":
 "#A63437",
 "filename":
 "L00823",
 "caption":
 "Briefe mit Autorinnen und Autoren",
 "idno":
 "https://schnitzler-briefe.acdh.oeaw.ac.at/L00823.html",
 "head":
 "Arthur Schnitzler an Hugo von Hofmannsthal, 18. 7. 1898",
 "desc":
{"listPerson":
  [
{
 "persName":
 "Hugo von Hofmannsthal",
 "ref":
 "pmb11740"},
 {
 "persName":
 "Hugo August von Hofmannsthal",
 "ref":
 "pmb11737"},
 {
 "persName":
 "Anna von Hofmannsthal",
 "ref":
 "pmb18404"},
 {
 "persName":
 "Richard Beer-Hofmann",
 "ref":
 "pmb10863"}],
 "listPlace":
  [
 {
 "placeName":
 "Tschortkiw",
 "ref":
 "pmb45274"}
 ,  {
 "placeName":
 "St. Johann im Pongau",
 "ref":
 "pmb996"}
 ,  {
 "placeName":
 "Galizien",
 "ref":
 "pmb644"}
 ,  {
 "placeName":
 "Liechtensteinklamm",
 "ref":
 "pmb35499"}
 ,  {
 "placeName":
 "Steinach",
 "ref":
 "pmb35493"}
 ,  {
 "placeName":
 "Schladming",
 "ref":
 "pmb35496"}
 ,  {
 "placeName":
 "Bad Fusch",
 "ref":
 "pmb573"}
 ]
}
}, {
 "type":
 "schnitzler-orte",
 "color":
 "#045344",
 "filename":
 "entity/91681/",
 "caption":
 "Aufenthaltsorte",
 "idno":
 "https://pmb.acdh.oeaw.ac.at/entity/91681/",
 "head":
 "Schladming"
}, {
 "type":
 "schnitzler-orte",
 "color":
 "#045344",
 "filename":
 "entity/41003/",
 "caption":
 "Aufenthaltsorte",
 "idno":
 "https://pmb.acdh.oeaw.ac.at/entity/41003/",
 "head":
 "Bischofshofen"
}, {
 "type":
 "schnitzler-orte",
 "color":
 "#045344",
 "filename":
 "entity/996/",
 "caption":
 "Aufenthaltsorte",
 "idno":
 "https://pmb.acdh.oeaw.ac.at/entity/996/",
 "head":
 "St. Johann im Pongau"
}, {
 "type":
 "schnitzler-orte",
 "color":
 "#045344",
 "filename":
 "entity/840/",
 "caption":
 "Aufenthaltsorte",
 "idno":
 "https://pmb.acdh.oeaw.ac.at/entity/840/",
 "head":
 "Bruck an der Mur"
}, {
 "type":
 "schnitzler-orte",
 "color":
 "#045344",
 "filename":
 "entity/34194/",
 "caption":
 "Aufenthaltsorte",
 "idno":
 "https://pmb.acdh.oeaw.ac.at/entity/34194/",
 "head":
 "Fusch an der Großglocknerstraße"
}, {
 "type":
 "schnitzler-cmif",
 "subtype":
 "#z7240971-fbf6-453b-9f97-eb6aaa8f59ae",
 "color":
 "#654321",
 "caption":
 "Gedruckte Briefwechsel",
 "head":
 "Peter Nansen an Arthur Schnitzler, 18.7.1898",
 "source":
 "Peter Nansen - Arthur Schnitzler: Ein Briefwechsel zweier Geistsverwandter. Hg. Karin Bang. In: Småskrifter fra CØNK, Nr. 9, 2005, S. 1-60."
}, {
 "type":
 "schnitzler-cmif",
 "subtype":
 "#ya489e21-54d5-40de-a56d-f4548e894428",
 "color":
 "#654321",
 "caption":
 "Gedruckte Briefwechsel",
 "head":
 "Otto Brahm an Arthur Schnitzler, 18.7.1898",
 "source":
 "Der Briefwechsel Arthur Schnitzler – Otto Brahm. Vollständige Ausgabe. Hg., eingel. und erl. von Oskar Seidlin. Tübingen: Niemeyer, 1975."
}, {
 "type":
 "kalliope-verbund",
 "color":
 "#003574",
 "caption":
 "Kalliope Verbundkatalog",
 "idno":
 "http://kalliope-verbund.info/DE-2498-HS00063042",
 "head":
 "Nansen, Peter an Schnitzler, Arthur [Briefe]",
 "text":
 "1 Bl.Kopie. Mit Negativkopie",
 "desc":
{"listPerson":
  [
{
 "persName":
 "Peter (1861-1918) Nansen",
 "ref":
 "http://d-nb.info/gnd/116882670"}]
}
}, {
 "type":
 "kalliope-verbund",
 "color":
 "#003574",
 "caption":
 "Kalliope Verbundkatalog",
 "idno":
 "http://kalliope-verbund.info/DE-2498-HS00076856",
 "head":
 "Nansen, Peter an Schnitzler, Arthur [Briefe]",
 "text":
 "2 Blatt",
 "desc":
{"listPerson":
  [
{
 "persName":
 "Peter (1861-1918) Nansen",
 "ref":
 "http://d-nb.info/gnd/116882670"}]
}
}] 