[{
 "type":
 "schnitzler-tagebuch",
 "color":
 "#037a33",
 "filename":
 "entry__1898-08-14",
 "caption":
 "Tagebuch",
 "idno":
 "https://schnitzler-tagebuch.acdh.oeaw.ac.at/entry__1898-08-14.html",
 "head":
 "Tagebuch, 14. August 1898",
 "desc":
{"listPlace":
  [
 {
 "placeName":
 "Neuch창tel",
 "ref":
 "pmb34057"}
 ,  {
 "placeName":
 "Yverdon-les-Bains",
 "ref":
 "pmb92117"}
 ,  {
 "placeName":
 "Lausanne",
 "ref":
 "pmb50004"}
 ,  {
 "placeName":
 "Genfer See",
 "ref":
 "pmb512"}
 ,  {
 "placeName":
 "Villeneuve",
 "ref":
 "pmb92015"}
 ,  {
 "placeName":
 "Veytaux, ch창teau de Chillon",
 "ref":
 "pmb90472"}
 ,  {
 "placeName":
 "Territet",
 "ref":
 "pmb52051"}
 ,  {
 "placeName":
 "Glion",
 "ref":
 "pmb40483"}
 ]
}
}, {
 "type":
 "schnitzler-orte",
 "color":
 "#045344",
 "filename":
 "entity/34057/",
 "caption":
 "Aufenthaltsorte",
 "idno":
 "https://pmb.acdh.oeaw.ac.at/entity/34057/",
 "head":
 "Neuch창tel"
}, {
 "type":
 "schnitzler-orte",
 "color":
 "#045344",
 "filename":
 "entity/92117/",
 "caption":
 "Aufenthaltsorte",
 "idno":
 "https://pmb.acdh.oeaw.ac.at/entity/92117/",
 "head":
 "Yverdon-les-Bains"
}, {
 "type":
 "schnitzler-orte",
 "color":
 "#045344",
 "filename":
 "entity/50004/",
 "caption":
 "Aufenthaltsorte",
 "idno":
 "https://pmb.acdh.oeaw.ac.at/entity/50004/",
 "head":
 "Lausanne"
}, {
 "type":
 "schnitzler-orte",
 "color":
 "#045344",
 "filename":
 "entity/90472/",
 "caption":
 "Aufenthaltsorte",
 "idno":
 "https://pmb.acdh.oeaw.ac.at/entity/90472/",
 "head":
 "Veytaux, ch창teau de Chillon"
}, {
 "type":
 "schnitzler-orte",
 "color":
 "#045344",
 "filename":
 "entity/52051/",
 "caption":
 "Aufenthaltsorte",
 "idno":
 "https://pmb.acdh.oeaw.ac.at/entity/52051/",
 "head":
 "Territet"
}, {
 "type":
 "schnitzler-orte",
 "color":
 "#045344",
 "filename":
 "entity/40483/",
 "caption":
 "Aufenthaltsorte",
 "idno":
 "https://pmb.acdh.oeaw.ac.at/entity/40483/",
 "head":
 "Glion"
}] 