[{
 "type":
 "schnitzler-tagebuch",
 "color":
 "#037a33",
 "filename":
 "entry__1898-08-05",
 "caption":
 "Tagebuch",
 "idno":
 "https://schnitzler-tagebuch.acdh.oeaw.ac.at/entry__1898-08-05.html",
 "head":
 "Tagebuch, 5. August 1898",
 "desc":
{"listPerson":
  [
{
 "persName":
 "Marie Reinhard",
 "ref":
 "person_19150"}],
 "listPlace":
  [
 {
 "placeName":
 "Egern",
 "ref":
 "pmb54930"}
 ]
}
}, {
 "type":
 "schnitzler-briefe",
 "color":
 "#A63437",
 "filename":
 "L00830",
 "caption":
 "Briefe mit Autorinnen und Autoren",
 "idno":
 "https://schnitzler-briefe.acdh.oeaw.ac.at/L00830.html",
 "head":
 "Arthur Schnitzler an Hugo von Hofmannsthal, 5. 8. 1898",
 "desc":
{"listPerson":
  [
{
 "persName":
 "Hugo von Hofmannsthal",
 "ref":
 "pmb11740"},
 {
 "persName":
 "Richard Beer-Hofmann",
 "ref":
 "pmb10863"},
 {
 "persName":
 "Gustav Schwarzkopf",
 "ref":
 "pmb12740"}],
 "listBibl":
  [
 {
 "title":
 "Der Tod Georgs",
 "ref":
 "pmb31535"}
 ],
 "listPlace":
  [
 {
 "placeName":
 "Tegernsee",
 "ref":
 "pmb39752"}
 ,  {
 "placeName":
 "Hinterbrühl",
 "ref":
 "pmb75"}
 ,  {
 "placeName":
 "Basel",
 "ref":
 "pmb854"}
 ,  {
 "placeName":
 "Biel",
 "ref":
 "pmb36477"}
 ,  {
 "placeName":
 "Genfer See",
 "ref":
 "pmb512"}
 ,  {
 "placeName":
 "Italien",
 "ref":
 "pmb40306"}
 ,  {
 "placeName":
 "München",
 "ref":
 "pmb45258"}
 ,  {
 "placeName":
 "Innsbruck",
 "ref":
 "pmb867"}
 ,  {
 "placeName":
 "Wien",
 "ref":
 "pmb50"}
 ,  {
 "placeName":
 "Salzburg",
 "ref":
 "pmb30"}
 ]
}
}, {
 "type":
 "schnitzler-briefe",
 "color":
 "#A63437",
 "filename":
 "L02855",
 "caption":
 "Briefe mit Autorinnen und Autoren",
 "idno":
 "https://schnitzler-briefe.acdh.oeaw.ac.at/L02855.html",
 "head":
 "Paul Goldmann an Arthur Schnitzler, 5. 8. 1898",
 "desc":
{"listPerson":
  [
{
 "persName":
 "Paul Goldmann",
 "ref":
 "pmb11485"}],
 "listOrg":
  [
 {
 "orgName":
 "Graphische Gesellschaft (Berlin)",
 "ref":
 "pmb141916"}
 ],
 "listPlace":
  [
 {
 "placeName":
 "Qingdao",
 "ref":
 "pmb118680"}
 ,  {
 "placeName":
 "Wien",
 "ref":
 "pmb50"}
 ,  {
 "placeName":
 "Frankgasse",
 "ref":
 "pmb397"}
 ,  {
 "placeName":
 "Artillerielager Tsingtau",
 "ref":
 "pmb141914"}
 ,  {
 "placeName":
 "Kiautschou",
 "ref":
 "pmb118812"}
 ,  {
 "placeName":
 "China",
 "ref":
 "pmb1108"}
 ,  {
 "placeName":
 "Berlin",
 "ref":
 "pmb168"}
 ]
}
}, {
 "type":
 "schnitzler-orte",
 "color":
 "#045344",
 "filename":
 "entity/39752/",
 "caption":
 "Aufenthaltsorte",
 "idno":
 "https://pmb.acdh.oeaw.ac.at/entity/39752/",
 "head":
 "Tegernsee"
}, {
 "type":
 "schnitzler-orte",
 "color":
 "#045344",
 "filename":
 "entity/54930/",
 "caption":
 "Aufenthaltsorte",
 "idno":
 "https://pmb.acdh.oeaw.ac.at/entity/54930/",
 "head":
 "Egern"
}, {
 "type":
 "schnitzler-orte",
 "color":
 "#045344",
 "filename":
 "entity/34048/",
 "caption":
 "Aufenthaltsorte",
 "idno":
 "https://pmb.acdh.oeaw.ac.at/entity/34048/",
 "head":
 "Hotel Post"
}] 