[{
 "type":
 "schnitzler-tagebuch",
 "color":
 "#037a33",
 "filename":
 "entry__1898-05-16",
 "caption":
 "Tagebuch",
 "idno":
 "https://schnitzler-tagebuch.acdh.oeaw.ac.at/entry__1898-05-16.html",
 "head":
 "Tagebuch, 16. Mai 1898",
 "desc":
{"listPerson":
  [
{
 "persName":
 "Marie Reinhard",
 "ref":
 "person_19150"}],
 "listBibl":
  [
 {
 "title":
 "Mädchentraum. Spiel in 3 Acten",
 "ref":
 "pmb42891"}
 ]
}
}, {
 "type":
 "schnitzler-briefe",
 "color":
 "#A63437",
 "filename":
 "L00795",
 "caption":
 "Briefe mit Autorinnen und Autoren",
 "idno":
 "https://schnitzler-briefe.acdh.oeaw.ac.at/L00795.html",
 "head":
 "Arthur Schnitzler an Richard Beer-Hofmann, 16. 5. 1898",
 "desc":
{"listPerson":
  [
{
 "persName":
 "Richard Beer-Hofmann",
 "ref":
 "pmb10863"}],
 "listBibl":
  [
 {
 "title":
 "Mädchentraum. Spiel in 3 Acten",
 "ref":
 "pmb42891"}
 ],
 "listPlace":
  [
 {
 "placeName":
 "IX., Alsergrund",
 "ref":
 "pmb59"}
 ,  {
 "placeName":
 "I., Innere Stadt",
 "ref":
 "pmb51"}
 ,  {
 "placeName":
 "Wien",
 "ref":
 "pmb50"}
 ,  {
 "placeName":
 "Wollzeile",
 "ref":
 "pmb338"}
 ,  {
 "placeName":
 "Burgtheater",
 "ref":
 "pmb14"}
 ]
}
}, {
 "type":
 "schnitzler-briefe",
 "color":
 "#A63437",
 "filename":
 "L02845",
 "caption":
 "Briefe mit Autorinnen und Autoren",
 "idno":
 "https://schnitzler-briefe.acdh.oeaw.ac.at/L02845.html",
 "head":
 "Paul Goldmann an Arthur Schnitzler, 16. 5. 1898",
 "desc":
{"listPerson":
  [
{
 "persName":
 "Paul Goldmann",
 "ref":
 "pmb11485"},
 {
 "persName":
 "Louis Philipp Friedmann",
 "ref":
 "pmb16658"},
 {
 "persName":
 "Rose Friedmann",
 "ref":
 "pmb16670"},
 {
 "persName":
 "Arthur Rosthorn",
 "ref":
 "pmb102825"},
 {
 "persName":
 "?? [Chinesischer Fotograf]",
 "ref":
 "pmb141891"},
 {
 "persName":
 "Marie Reinhard",
 "ref":
 "pmb2378"},
 {
 "persName":
 "Hugo von Hofmannsthal",
 "ref":
 "pmb11740"},
 {
 "persName":
 "Richard Beer-Hofmann",
 "ref":
 "pmb10863"},
 {
 "persName":
 "Leo Van-Jung",
 "ref":
 "pmb26392"},
 {
 "persName":
 "Alice Ziegler",
 "ref":
 "pmb118324"}],
 "listBibl":
  [
 {
 "title":
 "Paul Goldmann",
 "ref":
 "pmb141893"}
 ,  {
 "title":
 "Tagebuch",
 "ref":
 "pmb33243"}
 ],
 "listPlace":
  [
 {
 "placeName":
 "Hong Kong",
 "ref":
 "pmb44086"}
 ,  {
 "placeName":
 "Wien",
 "ref":
 "pmb50"}
 ,  {
 "placeName":
 "Hongkong Hotel",
 "ref":
 "pmb118802"}
 ,  {
 "placeName":
 "Shanghai",
 "ref":
 "pmb37885"}
 ,  {
 "placeName":
 "China",
 "ref":
 "pmb1108"}
 ,  {
 "placeName":
 "Peking",
 "ref":
 "pmb118369"}
 ,  {
 "placeName":
 "Guangzhou",
 "ref":
 "pmb118797"}
 ,  {
 "placeName":
 "Deutschland",
 "ref":
 "pmb151"}
 ,  {
 "placeName":
 "Europa",
 "ref":
 "pmb468"}
 ,  {
 "placeName":
 "Deutsches Postamt in Shanghai",
 "ref":
 "pmb141888"}
 ,  {
 "placeName":
 "Graz",
 "ref":
 "pmb860"}
 ,  {
 "placeName":
 "Bad Gastein",
 "ref":
 "pmb521"}
 ,  {
 "placeName":
 "Salzburg",
 "ref":
 "pmb30"}
 ,  {
 "placeName":
 "München",
 "ref":
 "pmb45258"}
 ,  {
 "placeName":
 "Tegernsee",
 "ref":
 "pmb39752"}
 ,  {
 "placeName":
 "Schweiz",
 "ref":
 "pmb43435"}
 ,  {
 "placeName":
 "Italien",
 "ref":
 "pmb40306"}
 ,  {
 "placeName":
 "Prag",
 "ref":
 "pmb652"}
 ]
}
}, {
 "type":
 "schnitzler-orte",
 "color":
 "#045344",
 "filename":
 "entity/50/",
 "caption":
 "Aufenthaltsorte",
 "idno":
 "https://pmb.acdh.oeaw.ac.at/entity/50/",
 "head":
 "Wien"
}, {
 "type":
 "pmb",
 "color":
 "#9B5F98",
 "filename":
 "entity/42893/",
 "caption":
 "PMB",
 "idno":
 "https://pmb.acdh.oeaw.ac.at/entity/42893/",
 "head":
 "Uraufführung von Mädchentraum, 16.5.1898",
 "desc":
{"listBibl":
  [
 {
 "title":
 "Mädchentraum. Spiel in 3 Acten",
 "ref":
 "pmb42891"}
 ],
 "listPerson":
  [
{
 "persName":
 "Otto Tressler",
 "ref":
 "pmb12971"},
 {
 "persName":
 "Lou Brion",
 "ref":
 "pmb2881"},
 {
 "persName":
 "Lotte Medelsky",
 "ref":
 "pmb2252"}],
 "listPlace":
  [
 {
 "placeName":
 "Burgtheater",
 "ref":
 "pmb14"}
 ],
 "listOrg":
  [
 {
 "orgName":
 "Burgtheater",
 "ref":
 "pmb36247"}
 ]
}
}] 