[{
 "type":
 "schnitzler-tagebuch",
 "color":
 "#037a33",
 "filename":
 "entry__1898-04-21",
 "caption":
 "Tagebuch",
 "idno":
 "https://schnitzler-tagebuch.acdh.oeaw.ac.at/entry__1898-04-21.html",
 "head":
 "Tagebuch, 21. April 1898",
 "desc":
{"listPerson":
  [
{
 "persName":
 "Gertrude von Hofmannsthal",
 "ref":
 "person_16292"},
 {
 "persName":
 "Franziska Schlesinger",
 "ref":
 "person_19729"},
 {
 "persName":
 "Clemens von Franckenstein",
 "ref":
 "person_15115"},
 {
 "persName":
 "Hugo von Hofmannsthal",
 "ref":
 "person_16293"}],
 "listPlace":
  [
 {
 "placeName":
 "Mödling",
 "ref":
 "pmb968"}
 ,  {
 "placeName":
 "Sulz im Wienerwald",
 "ref":
 "pmb91857"}
 ,  {
 "placeName":
 "Breitenfurt bei Wien",
 "ref":
 "pmb1022"}
 ,  {
 "placeName":
 "Purkersdorf",
 "ref":
 "pmb91552"}
 ]
}
}, {
 "type":
 "schnitzler-briefe",
 "color":
 "#A63437",
 "filename":
 "L00793",
 "caption":
 "Briefe mit Autorinnen und Autoren",
 "idno":
 "https://schnitzler-briefe.acdh.oeaw.ac.at/L00793.html",
 "head":
 "Fritz Schlesinger, Gerty von Schlesinger, Arthur Schnitzler, Georg von Franckenstein an Hermann Bahr, 21. 4. 1898",
 "desc":
{"listPerson":
  [
{
 "persName":
 "Friedrich Schlesinger",
 "ref":
 "pmb5115"},
 {
 "persName":
 "Gertrude von Hofmannsthal",
 "ref":
 "pmb2292"},
 {
 "persName":
 "Georg von Franckenstein",
 "ref":
 "pmb11359"},
 {
 "persName":
 "Hermann Bahr",
 "ref":
 "pmb10815"},
 {
 "persName":
 "Hugo von Hofmannsthal",
 "ref":
 "pmb11740"},
 {
 "persName":
 "Franziska Schlesinger",
 "ref":
 "pmb24233"}],
 "listBibl":
  [
 {
 "title":
 "Tagebuch",
 "ref":
 "pmb33243"}
 ],
 "listPlace":
  [
 {
 "placeName":
 "Breitenfurt bei Wien",
 "ref":
 "pmb1022"}
 ,  {
 "placeName":
 "IX., Alsergrund",
 "ref":
 "pmb59"}
 ,  {
 "placeName":
 "Wien",
 "ref":
 "pmb50"}
 ,  {
 "placeName":
 "Porzellangasse",
 "ref":
 "pmb436"}
 ]
}
}, {
 "type":
 "schnitzler-briefe",
 "color":
 "#A63437",
 "filename":
 "L02846",
 "caption":
 "Briefe mit Autorinnen und Autoren",
 "idno":
 "https://schnitzler-briefe.acdh.oeaw.ac.at/L02846.html",
 "head":
 "Paul Goldmann an Arthur Schnitzler, 21. 4. [1898]",
 "desc":
{"listPerson":
  [
{
 "persName":
 "Paul Goldmann",
 "ref":
 "pmb11485"},
 {
 "persName":
 "Richard Beer-Hofmann",
 "ref":
 "pmb10863"},
 {
 "persName":
 "Marie Reinhard",
 "ref":
 "pmb2378"}],
 "listOrg":
  [
 {
 "orgName":
 "Preussen",
 "ref":
 "pmb118782"}
 ,  {
 "orgName":
 "Norddeutscher Lloyd",
 "ref":
 "pmb53340"}
 ],
 "listPlace":
  [
 {
 "placeName":
 "Indischer Ozean",
 "ref":
 "pmb118674"}
 ,  {
 "placeName":
 "Sri Lanka",
 "ref":
 "pmb44342"}
 ,  {
 "placeName":
 "Wien",
 "ref":
 "pmb50"}
 ,  {
 "placeName":
 "Bremen",
 "ref":
 "pmb891"}
 ,  {
 "placeName":
 "Rotes Meer",
 "ref":
 "pmb118805"}
 ,  {
 "placeName":
 "China",
 "ref":
 "pmb1108"}
 ,  {
 "placeName":
 "Deutsches Postamt in Shanghai",
 "ref":
 "pmb141888"}
 ,  {
 "placeName":
 "Bad Ischl",
 "ref":
 "pmb213"}
 ]
}
}, {
 "type":
 "schnitzler-orte",
 "color":
 "#045344",
 "filename":
 "entity/50/",
 "caption":
 "Aufenthaltsorte",
 "idno":
 "https://pmb.acdh.oeaw.ac.at/entity/50/",
 "head":
 "Wien"
}, {
 "type":
 "schnitzler-orte",
 "color":
 "#045344",
 "filename":
 "entity/968/",
 "caption":
 "Aufenthaltsorte",
 "idno":
 "https://pmb.acdh.oeaw.ac.at/entity/968/",
 "head":
 "Mödling"
}, {
 "type":
 "schnitzler-orte",
 "color":
 "#045344",
 "filename":
 "entity/91857/",
 "caption":
 "Aufenthaltsorte",
 "idno":
 "https://pmb.acdh.oeaw.ac.at/entity/91857/",
 "head":
 "Sulz im Wienerwald"
}, {
 "type":
 "schnitzler-orte",
 "color":
 "#045344",
 "filename":
 "entity/1022/",
 "caption":
 "Aufenthaltsorte",
 "idno":
 "https://pmb.acdh.oeaw.ac.at/entity/1022/",
 "head":
 "Breitenfurt bei Wien"
}, {
 "type":
 "schnitzler-orte",
 "color":
 "#045344",
 "filename":
 "entity/91552/",
 "caption":
 "Aufenthaltsorte",
 "idno":
 "https://pmb.acdh.oeaw.ac.at/entity/91552/",
 "head":
 "Purkersdorf"
}, {
 "type":
 "schnitzler-bahr",
 "color":
 "#F9BD63",
 "filename":
 "L041697",
 "caption":
 "Schnitzler/Bahr",
 "idno":
 "https://schnitzler-bahr.acdh.oeaw.ac.at/L041697.html",
 "head":
 "Fritz Schlesinger u. a. an Bahr, 21. 4. 1898",
 "desc":
{"listPerson":
  [
{
 "persName":
 "Friedrich Schlesinger",
 "ref":
 "pmb5115"},
 {
 "persName":
 "Gertrude von Hofmannsthal",
 "ref":
 "pmb2292"},
 {
 "persName":
 "Georg von Franckenstein",
 "ref":
 "pmb11359"},
 {
 "persName":
 "Hermann Bahr",
 "ref":
 "pmb10815"},
 {
 "persName":
 "Hugo von Hofmannsthal",
 "ref":
 "pmb11740"}],
 "listPlace":
  [
 {
 "placeName":
 "Breitenfurt bei Wien",
 "ref":
 "pmb1022"}
 ,  {
 "placeName":
 "Wien",
 "ref":
 "pmb50"}
 ,  {
 "placeName":
 "IX., Alsergrund",
 "ref":
 "pmb59"}
 ,  {
 "placeName":
 "Porzellangasse",
 "ref":
 "pmb436"}
 ]
}
}, {
 "type":
 "schnitzler-cmif",
 "subtype":
 "#w6429315-92be-4f82-b2f1-926125f9bfa5",
 "color":
 "#654321",
 "caption":
 "Gedruckte Briefwechsel",
 "head":
 "Eugen Deimel an Arthur Schnitzler, 21.4.1898",
 "source":
 "Heinz P. Adamek (Hg.): In die Neue Welt... Arthur Schnitzler - Eugen Deimel. Briefwechsel. Holzhausen Verlag: Wien 2003"
}] 