[{
 "type":
 "schnitzler-tagebuch",
 "color":
 "#037a33",
 "filename":
 "entry__1898-12-10",
 "caption":
 "Tagebuch",
 "idno":
 "https://schnitzler-tagebuch.acdh.oeaw.ac.at/entry__1898-12-10.html",
 "head":
 "Tagebuch, 10. Dezember 1898",
 "desc":
{"listPerson":
  [
{
 "persName":
 "Russ",
 "ref":
 "person_19476"},
 {
 "persName":
 "Marie Reinhard",
 "ref":
 "person_19150"},
 {
 "persName":
 "Hermann Bahr",
 "ref":
 "person_13374"}],
 "listBibl":
  [
 {
 "title":
 "Der Star",
 "ref":
 "pmb30127"}
 ],
 "listPlace":
  [
 {
 "placeName":
 "Deutsches Volkstheater",
 "ref":
 "pmb92202"}
 ]
}
}, {
 "type":
 "schnitzler-briefe",
 "color":
 "#A63437",
 "filename":
 "L00866",
 "caption":
 "Briefe mit Autorinnen und Autoren",
 "idno":
 "https://schnitzler-briefe.acdh.oeaw.ac.at/L00866.html",
 "head":
 "Arthur Schnitzler an Hermann Bahr, 10. 12. 1898",
 "desc":
{"listPerson":
  [
{
 "persName":
 "Hermann Bahr",
 "ref":
 "pmb10815"}],
 "listBibl":
  [
 {
 "title":
 "Der Star",
 "ref":
 "pmb30127"}
 ],
 "listPlace":
  [
 {
 "placeName":
 "I., Innere Stadt",
 "ref":
 "pmb51"}
 ,  {
 "placeName":
 "IX., Alsergrund",
 "ref":
 "pmb59"}
 ,  {
 "placeName":
 "Wien",
 "ref":
 "pmb50"}
 ,  {
 "placeName":
 "Porzellangasse",
 "ref":
 "pmb436"}
 ]
}
}, {
 "type":
 "schnitzler-orte",
 "color":
 "#045344",
 "filename":
 "entity/50/",
 "caption":
 "Aufenthaltsorte",
 "idno":
 "https://pmb.acdh.oeaw.ac.at/entity/50/",
 "head":
 "Wien"
}, {
 "type":
 "schnitzler-bahr",
 "color":
 "#F9BD63",
 "filename":
 "L041024",
 "caption":
 "Schnitzler/Bahr",
 "idno":
 "https://schnitzler-bahr.acdh.oeaw.ac.at/L041024.html",
 "head":
 "Schnitzler an Bahr, 10. 12. 1898",
 "desc":
{"listPerson":
  [
{
 "persName":
 "Hermann Bahr",
 "ref":
 "pmb10815"}],
 "listBibl":
  [
 {
 "title":
 "Der Star",
 "ref":
 "pmb30127"}
 ],
 "listPlace":
  [
 {
 "placeName":
 "Wien",
 "ref":
 "pmb50"}
 ,  {
 "placeName":
 "Porzellangasse",
 "ref":
 "pmb436"}
 ]
}
}, {
 "type":
 "schnitzler-bahr",
 "color":
 "#F9BD63",
 "filename":
 "D041183",
 "caption":
 "Schnitzler/Bahr",
 "idno":
 "https://schnitzler-bahr.acdh.oeaw.ac.at/D041183.html",
 "head":
 "Tagebuch von Schnitzler, 10. 12. 1898",
 "desc":
{"listPerson":
  [
{
 "persName":
 "Marie Reinhard",
 "ref":
 "pmb2378"},
 {
 "persName":
 "Russ",
 "ref":
 "pmb23752"},
 {
 "persName":
 "Hermann Bahr",
 "ref":
 "pmb10815"}],
 "listBibl":
  [
 {
 "title":
 "Der Star",
 "ref":
 "pmb30127"}
 ],
 "listPlace":
  [
 {
 "placeName":
 "Volkstheater",
 "ref":
 "pmb20"}
 ]
}
}, {
 "type":
 "pmb",
 "color":
 "#9B5F98",
 "filename":
 "entity/35312/",
 "caption":
 "PMB",
 "idno":
 "https://pmb.acdh.oeaw.ac.at/entity/35312/",
 "head":
 "Uraufführung von Der Star, 10.12.1898",
 "desc":
{"listBibl":
  [
 {
 "title":
 "Der Star. Ein Wiener Stück in vier Akten",
 "ref":
 "pmb30127"}
 ],
 "listPlace":
  [
 {
 "placeName":
 "Volkstheater",
 "ref":
 "pmb20"}
 ],
 "listOrg":
  [
 {
 "orgName":
 "Volkstheater",
 "ref":
 "pmb36430"}
 ]
}
}] 