[{
 "type":
 "schnitzler-tagebuch",
 "color":
 "#037a33",
 "filename":
 "entry__1898-09-10",
 "caption":
 "Tagebuch",
 "idno":
 "https://schnitzler-tagebuch.acdh.oeaw.ac.at/entry__1898-09-10.html",
 "head":
 "Tagebuch, 10. September 1898",
 "desc":
{"listPerson":
  [
{
 "persName":
 "Elisabeth",
 "ref":
 "person_14719"},
 {
 "persName":
 "Franz Reinhard",
 "ref":
 "person_19148"},
 {
 "persName":
 "Marie Reinhard",
 "ref":
 "person_19150"},
 {
 "persName":
 "Edmund Kapper",
 "ref":
 "person_16707"}],
 "listBibl":
  [
 {
 "title":
 "Faust. Eine Tragödie",
 "ref":
 "pmb30247"}
 ],
 "listPlace":
  [
 {
 "placeName":
 "Prater",
 "ref":
 "pmb91530"}
 ,  {
 "placeName":
 "Genf",
 "ref":
 "pmb562"}
 ]
}
}, {
 "type":
 "schnitzler-briefe",
 "color":
 "#A63437",
 "filename":
 "L02857",
 "caption":
 "Briefe mit Autorinnen und Autoren",
 "idno":
 "https://schnitzler-briefe.acdh.oeaw.ac.at/L02857.html",
 "head":
 "Paul Goldmann an Arthur Schnitzler, 10. 9. 1898",
 "desc":
{"listPerson":
  [
{
 "persName":
 "Paul Goldmann",
 "ref":
 "pmb11485"},
 {
 "persName":
 "Marie Reinhard",
 "ref":
 "pmb2378"},
 {
 "persName":
 "Caroline Burger",
 "ref":
 "pmb14707"}],
 "listOrg":
  [
 {
 "orgName":
 "Deutsche Post in China",
 "ref":
 "pmb118800"}
 ],
 "listPlace":
  [
 {
 "placeName":
 "Tianjin",
 "ref":
 "pmb118682"}
 ,  {
 "placeName":
 "Wien",
 "ref":
 "pmb50"}
 ,  {
 "placeName":
 "Österreich",
 "ref":
 "pmb41240"}
 ,  {
 "placeName":
 "Frankgasse",
 "ref":
 "pmb397"}
 ,  {
 "placeName":
 "Bad Tölz",
 "ref":
 "pmb424"}
 ,  {
 "placeName":
 "Tegernsee",
 "ref":
 "pmb39752"}
 ]
}
}, {
 "type":
 "schnitzler-orte",
 "color":
 "#045344",
 "filename":
 "entity/50/",
 "caption":
 "Aufenthaltsorte",
 "idno":
 "https://pmb.acdh.oeaw.ac.at/entity/50/",
 "head":
 "Wien"
}, {
 "type":
 "schnitzler-cmif",
 "subtype":
 "#ya489e21-54d5-40de-a56d-f4548e894428",
 "color":
 "#654321",
 "caption":
 "Gedruckte Briefwechsel",
 "head":
 "Otto Brahm an Arthur Schnitzler, 10.9.1898",
 "source":
 "Der Briefwechsel Arthur Schnitzler – Otto Brahm. Vollständige Ausgabe. Hg., eingel. und erl. von Oskar Seidlin. Tübingen: Niemeyer, 1975."
}, {
 "type":
 "kalliope-verbund",
 "color":
 "#003574",
 "caption":
 "Kalliope Verbundkatalog",
 "idno":
 "http://kalliope-verbund.info/DE-2498-HS00074498",
 "head":
 "Schnitzler, Arthur: Theaterzettel zu Goethes 'Faust' [Dokumente] (Titel von Bearbeiter/in)",
 "text":
 "1 Bl.Dr."
}] 