[{
 "type":
 "schnitzler-tagebuch",
 "color":
 "#037a33",
 "filename":
 "entry__1899-09-18",
 "caption":
 "Tagebuch",
 "idno":
 "https://schnitzler-tagebuch.acdh.oeaw.ac.at/entry__1899-09-18.html",
 "head":
 "Tagebuch, 18. September 1899",
 "desc":
{"listPerson":
  [
{
 "persName":
 "Marie Elsinger",
 "ref":
 "person_14734"}],
 "listBibl":
  [
 {
 "title":
 "Der Schleier der Beatrice. Schauspiel in fünf Akten",
 "ref":
 "pmb29857"}
 ],
 "listPlace":
  [
 {
 "placeName":
 "Nürnberg",
 "ref":
 "pmb44172"}
 ]
}
}, {
 "type":
 "schnitzler-briefe",
 "color":
 "#A63437",
 "filename":
 "L00976",
 "caption":
 "Briefe mit Autorinnen und Autoren",
 "idno":
 "https://schnitzler-briefe.acdh.oeaw.ac.at/L00976.html",
 "head":
 "Arthur Schnitzler an Richard Beer-Hofmann, 18. 9. 1899",
 "desc":
{"listPerson":
  [
{
 "persName":
 "Richard Beer-Hofmann",
 "ref":
 "pmb10863"}],
 "listPlace":
  [
 {
 "placeName":
 "Nürnberg",
 "ref":
 "pmb44172"}
 ,  {
 "placeName":
 "Vahrn",
 "ref":
 "pmb946"}
 ,  {
 "placeName":
 "Brixen",
 "ref":
 "pmb43040"}
 ,  {
 "placeName":
 "Tirol",
 "ref":
 "pmb423"}
 ,  {
 "placeName":
 "Fleischbrücke",
 "ref":
 "pmb43118"}
 ]
}
}, {
 "type":
 "schnitzler-briefe",
 "color":
 "#A63437",
 "filename":
 "L02682",
 "caption":
 "Briefe mit Autorinnen und Autoren",
 "idno":
 "https://schnitzler-briefe.acdh.oeaw.ac.at/L02682.html",
 "head":
 "Paul Goldmann an Arthur Schnitzler, 18. 9. 1899",
 "desc":
{"listPerson":
  [
{
 "persName":
 "Paul Goldmann",
 "ref":
 "pmb11485"}],
 "listOrg":
  [
 {
 "orgName":
 "Telegraphenanstalt Nürnberg",
 "ref":
 "pmb88958"}
 ],
 "listPlace":
  [
 {
 "placeName":
 "Frankfurt am Main",
 "ref":
 "pmb146"}
 ,  {
 "placeName":
 "Nürnberg",
 "ref":
 "pmb44172"}
 ,  {
 "placeName":
 "Hotel Deutscher Kaiser",
 "ref":
 "pmb88963"}
 ,  {
 "placeName":
 "Florenz",
 "ref":
 "pmb263"}
 ]
}
}, {
 "type":
 "schnitzler-orte",
 "color":
 "#045344",
 "filename":
 "entity/44172/",
 "caption":
 "Aufenthaltsorte",
 "idno":
 "https://pmb.acdh.oeaw.ac.at/entity/44172/",
 "head":
 "Nürnberg"
}, {
 "type":
 "schnitzler-orte",
 "color":
 "#045344",
 "filename":
 "entity/88963/",
 "caption":
 "Aufenthaltsorte",
 "idno":
 "https://pmb.acdh.oeaw.ac.at/entity/88963/",
 "head":
 "Hotel Deutscher Kaiser"
}] 