[{
 "type":
 "schnitzler-tagebuch",
 "color":
 "#037a33",
 "filename":
 "entry__1899-07-20",
 "caption":
 "Tagebuch",
 "idno":
 "https://schnitzler-tagebuch.acdh.oeaw.ac.at/entry__1899-07-20.html",
 "head":
 "Tagebuch, 20. Juli 1899",
 "desc":
{"listPerson":
  [
{
 "persName":
 "Rudolf Burger",
 "ref":
 "person_14076"},
 {
 "persName":
 "Jakob Wassermann",
 "ref":
 "person_21107"}],
 "listPlace":
  [
 {
 "placeName":
 "Krumpendorf",
 "ref":
 "pmb91081"}
 ,  {
 "placeName":
 "Pörtschach",
 "ref":
 "pmb44278"}
 ]
}
}, {
 "type":
 "schnitzler-briefe",
 "color":
 "#A63437",
 "filename":
 "L00948",
 "caption":
 "Briefe mit Autorinnen und Autoren",
 "idno":
 "https://schnitzler-briefe.acdh.oeaw.ac.at/L00948.html",
 "head":
 "Arthur Schnitzler an Richard Beer-Hofmann, 20. 7. 1899",
 "desc":
{"listPerson":
  [
{
 "persName":
 "Richard Beer-Hofmann",
 "ref":
 "pmb10863"},
 {
 "persName":
 "Robert Hirschfeld",
 "ref":
 "pmb11707"},
 {
 "persName":
 "Jakob Wassermann",
 "ref":
 "pmb13055"},
 {
 "persName":
 "Marie Reinhard",
 "ref":
 "pmb2378"},
 {
 "persName":
 "Caroline Burger",
 "ref":
 "pmb14707"},
 {
 "persName":
 "Rudolf Burger",
 "ref":
 "pmb14711"}],
 "listPlace":
  [
 {
 "placeName":
 "Velden",
 "ref":
 "pmb909"}
 ,  {
 "placeName":
 "Seeboden",
 "ref":
 "pmb34824"}
 ,  {
 "placeName":
 "Villa Platzer",
 "ref":
 "pmb40788"}
 ,  {
 "placeName":
 "Millstätter See",
 "ref":
 "pmb39637"}
 ,  {
 "placeName":
 "Krumpendorf am Wörthersee",
 "ref":
 "pmb40940"}
 ,  {
 "placeName":
 "Hohe Tauern",
 "ref":
 "pmb40943"}
 ,  {
 "placeName":
 "Spittal an der Drau",
 "ref":
 "pmb41052"}
 ,  {
 "placeName":
 "Faakersee",
 "ref":
 "pmb605"}
 ]
}
}, {
 "type":
 "schnitzler-briefe",
 "color":
 "#A63437",
 "filename":
 "L00949",
 "caption":
 "Briefe mit Autorinnen und Autoren",
 "idno":
 "https://schnitzler-briefe.acdh.oeaw.ac.at/L00949.html",
 "head":
 "Hugo von Hofmannsthal an Arthur Schnitzler, 20. 7. [1899]",
 "desc":
{"listPerson":
  [
{
 "persName":
 "Hugo von Hofmannsthal",
 "ref":
 "pmb11740"},
 {
 "persName":
 "Richard Beer-Hofmann",
 "ref":
 "pmb10863"},
 {
 "persName":
 "Clemens von Franckenstein",
 "ref":
 "pmb3130"},
 {
 "persName":
 "Georg von Franckenstein",
 "ref":
 "pmb11359"},
 {
 "persName":
 "Felix Salten",
 "ref":
 "pmb2167"}],
 "listBibl":
  [
 {
 "title":
 "Das Bergwerk zu Falun",
 "ref":
 "pmb32432"}
 ],
 "listPlace":
  [
 {
 "placeName":
 "Marienbad",
 "ref":
 "pmb772"}
 ,  {
 "placeName":
 "Wien",
 "ref":
 "pmb50"}
 ,  {
 "placeName":
 "Altaussee",
 "ref":
 "pmb34401"}
 ,  {
 "placeName":
 "Seewirt",
 "ref":
 "pmb106"}
 ,  {
 "placeName":
 "Passau",
 "ref":
 "pmb5907"}
 ,  {
 "placeName":
 "Nürnberg",
 "ref":
 "pmb44172"}
 ,  {
 "placeName":
 "Rothenburg ob der Tauber",
 "ref":
 "pmb856"}
 ,  {
 "placeName":
 "München",
 "ref":
 "pmb45258"}
 ,  {
 "placeName":
 "Salzburg",
 "ref":
 "pmb30"}
 ]
}
}, {
 "type":
 "schnitzler-orte",
 "color":
 "#045344",
 "filename":
 "entity/909/",
 "caption":
 "Aufenthaltsorte",
 "idno":
 "https://pmb.acdh.oeaw.ac.at/entity/909/",
 "head":
 "Velden am Wörthersee"
}, {
 "type":
 "schnitzler-orte",
 "color":
 "#045344",
 "filename":
 "entity/605/",
 "caption":
 "Aufenthaltsorte",
 "idno":
 "https://pmb.acdh.oeaw.ac.at/entity/605/",
 "head":
 "Faakersee"
}, {
 "type":
 "schnitzler-orte",
 "color":
 "#045344",
 "filename":
 "entity/91081/",
 "caption":
 "Aufenthaltsorte",
 "idno":
 "https://pmb.acdh.oeaw.ac.at/entity/91081/",
 "head":
 "Krumpendorf"
}, {
 "type":
 "schnitzler-orte",
 "color":
 "#045344",
 "filename":
 "entity/44278/",
 "caption":
 "Aufenthaltsorte",
 "idno":
 "https://pmb.acdh.oeaw.ac.at/entity/44278/",
 "head":
 "Pörtschach"
}, {
 "type":
 "schnitzler-orte",
 "color":
 "#045344",
 "filename":
 "entity/36282/",
 "caption":
 "Aufenthaltsorte",
 "idno":
 "https://pmb.acdh.oeaw.ac.at/entity/36282/",
 "head":
 "Pension Pundschu"
}] 