[{
 "type":
 "schnitzler-tagebuch",
 "color":
 "#037a33",
 "filename":
 "entry__1899-08-06",
 "caption":
 "Tagebuch",
 "idno":
 "https://schnitzler-tagebuch.acdh.oeaw.ac.at/entry__1899-08-06.html",
 "head":
 "Tagebuch, 6. August 1899",
 "desc":
{"listPlace":
  [
 {
 "placeName":
 "Carbonin",
 "ref":
 "pmb44317"}
 ,  {
 "placeName":
 "Misurina",
 "ref":
 "pmb41013"}
 ,  {
 "placeName":
 "Passo Tre Croci",
 "ref":
 "pmb91932"}
 ,  {
 "placeName":
 "Cortina d'Ampezzo",
 "ref":
 "pmb34199"}
 ]
}
}, {
 "type":
 "schnitzler-briefe",
 "color":
 "#A63437",
 "filename":
 "L00957",
 "caption":
 "Briefe mit Autorinnen und Autoren",
 "idno":
 "https://schnitzler-briefe.acdh.oeaw.ac.at/L00957.html",
 "head":
 "Hugo von Hofmannsthal an Arthur Schnitzler, 6. 8. 1899",
 "desc":
{"listPerson":
  [
{
 "persName":
 "Hugo von Hofmannsthal",
 "ref":
 "pmb11740"},
 {
 "persName":
 "Clemens von Franckenstein",
 "ref":
 "pmb3130"},
 {
 "persName":
 "Jakob Wassermann",
 "ref":
 "pmb13055"},
 {
 "persName":
 "Richard Beer-Hofmann",
 "ref":
 "pmb10863"}],
 "listPlace":
  [
 {
 "placeName":
 "Altaussee",
 "ref":
 "pmb34401"}
 ,  {
 "placeName":
 "San Martino di Castrozza",
 "ref":
 "pmb44311"}
 ,  {
 "placeName":
 "Tirol",
 "ref":
 "pmb423"}
 ,  {
 "placeName":
 "Gasthaus Brunnthaler",
 "ref":
 "pmb40256"}
 ]
}
}, {
 "type":
 "schnitzler-orte",
 "color":
 "#045344",
 "filename":
 "entity/44317/",
 "caption":
 "Aufenthaltsorte",
 "idno":
 "https://pmb.acdh.oeaw.ac.at/entity/44317/",
 "head":
 "Carbonin"
}, {
 "type":
 "schnitzler-orte",
 "color":
 "#045344",
 "filename":
 "entity/41013/",
 "caption":
 "Aufenthaltsorte",
 "idno":
 "https://pmb.acdh.oeaw.ac.at/entity/41013/",
 "head":
 "Misurina"
}, {
 "type":
 "schnitzler-orte",
 "color":
 "#045344",
 "filename":
 "entity/91932/",
 "caption":
 "Aufenthaltsorte",
 "idno":
 "https://pmb.acdh.oeaw.ac.at/entity/91932/",
 "head":
 "Passo Tre Croci"
}, {
 "type":
 "schnitzler-orte",
 "color":
 "#045344",
 "filename":
 "entity/34199/",
 "caption":
 "Aufenthaltsorte",
 "idno":
 "https://pmb.acdh.oeaw.ac.at/entity/34199/",
 "head":
 "Cortina d'Ampezzo"
}] 