[{
 "type":
 "schnitzler-tagebuch",
 "color":
 "#037a33",
 "filename":
 "entry__1899-09-29",
 "caption":
 "Tagebuch",
 "idno":
 "https://schnitzler-tagebuch.acdh.oeaw.ac.at/entry__1899-09-29.html",
 "head":
 "Tagebuch, 29. September 1899"
}, {
 "type":
 "schnitzler-briefe",
 "color":
 "#A63437",
 "filename":
 "L00982",
 "caption":
 "Briefe mit Autorinnen und Autoren",
 "idno":
 "https://schnitzler-briefe.acdh.oeaw.ac.at/L00982.html",
 "head":
 "Arthur Schnitzler an Richard Beer-Hofmann, 29. 9. 1899",
 "desc":
{"listPerson":
  [
{
 "persName":
 "Richard Beer-Hofmann",
 "ref":
 "pmb10863"},
 {
 "persName":
 "Paul Goldmann",
 "ref":
 "pmb11485"},
 {
 "persName":
 "Hugo von Hofmannsthal",
 "ref":
 "pmb11740"},
 {
 "persName":
 "Paula Beer-Hofmann",
 "ref":
 "pmb10860"},
 {
 "persName":
 "Naëmah Beer-Hofmann",
 "ref":
 "pmb2534"},
 {
 "persName":
 "Mirjam Beer-Hofmann",
 "ref":
 "pmb2668"}],
 "listBibl":
  [
 {
 "title":
 "Der Graf von Charolais. Ein Trauerspiel",
 "ref":
 "pmb30233"}
 ,  {
 "title":
 "Der Schleier der Beatrice. Schauspiel in fünf Akten",
 "ref":
 "pmb29857"}
 ],
 "listPlace":
  [
 {
 "placeName":
 "Wiesbaden",
 "ref":
 "pmb883"}
 ,  {
 "placeName":
 "Sankt Michael",
 "ref":
 "pmb40832"}
 ,  {
 "placeName":
 "IX., Alsergrund",
 "ref":
 "pmb59"}
 ,  {
 "placeName":
 "Frankgasse",
 "ref":
 "pmb397"}
 ,  {
 "placeName":
 "Vahrn",
 "ref":
 "pmb946"}
 ,  {
 "placeName":
 "Frankfurt am Main",
 "ref":
 "pmb146"}
 ,  {
 "placeName":
 "Berlin",
 "ref":
 "pmb168"}
 ,  {
 "placeName":
 "Hotel Savoy",
 "ref":
 "pmb545"}
 ]
}
}, {
 "type":
 "schnitzler-briefe",
 "color":
 "#A63437",
 "filename":
 "L00983",
 "caption":
 "Briefe mit Autorinnen und Autoren",
 "idno":
 "https://schnitzler-briefe.acdh.oeaw.ac.at/L00983.html",
 "head":
 "Arthur Schnitzler an Hugo von Hofmannsthal, 29. 9. 1899",
 "desc":
{"listPerson":
  [
{
 "persName":
 "Hugo von Hofmannsthal",
 "ref":
 "pmb11740"},
 {
 "persName":
 "Marie Reinhard",
 "ref":
 "pmb2378"},
 {
 "persName":
 "Paul Goldmann",
 "ref":
 "pmb11485"}],
 "listBibl":
  [
 {
 "title":
 "Der Schleier der Beatrice. Schauspiel in fünf Akten",
 "ref":
 "pmb29857"}
 ],
 "listPlace":
  [
 {
 "placeName":
 "Wiesbaden",
 "ref":
 "pmb883"}
 ,  {
 "placeName":
 "Venedig",
 "ref":
 "pmb462"}
 ,  {
 "placeName":
 "Berlin",
 "ref":
 "pmb168"}
 ,  {
 "placeName":
 "Hotel Savoy",
 "ref":
 "pmb545"}
 ,  {
 "placeName":
 "München",
 "ref":
 "pmb45258"}
 ,  {
 "placeName":
 "Nürnberg",
 "ref":
 "pmb44172"}
 ,  {
 "placeName":
 "Frankfurt am Main",
 "ref":
 "pmb146"}
 ,  {
 "placeName":
 "Hôtel du Parc &amp; Bristol",
 "ref":
 "pmb43055"}
 ]
}
}, {
 "type":
 "schnitzler-briefe",
 "color":
 "#A63437",
 "filename":
 "L02888",
 "caption":
 "Briefe mit Autorinnen und Autoren",
 "idno":
 "https://schnitzler-briefe.acdh.oeaw.ac.at/L02888.html",
 "head":
 "Paul Goldmann an Arthur Schnitzler, 29. 9. [1899]",
 "desc":
{"listPerson":
  [
{
 "persName":
 "Paul Goldmann",
 "ref":
 "pmb11485"},
 {
 "persName":
 "G. Zanetta",
 "ref":
 "pmb135001"},
 {
 "persName":
 "Sandro Botticelli",
 "ref":
 "pmb14434"},
 {
 "persName":
 "Raffaello Sanzio da Urbino",
 "ref":
 "pmb3527"}],
 "listPlace":
  [
 {
 "placeName":
 "Florenz",
 "ref":
 "pmb263"}
 ,  {
 "placeName":
 "Wiesbaden",
 "ref":
 "pmb883"}
 ,  {
 "placeName":
 "Hôtel Pension Barbensi",
 "ref":
 "pmb134998"}
 ,  {
 "placeName":
 "Lungarno Guicciardini",
 "ref":
 "pmb134996"}
 ,  {
 "placeName":
 "Italien",
 "ref":
 "pmb40306"}
 ,  {
 "placeName":
 "Kathedrale von Florenz",
 "ref":
 "pmb140806"}
 ,  {
 "placeName":
 "Mailand",
 "ref":
 "pmb886"}
 ,  {
 "placeName":
 "Bologna",
 "ref":
 "pmb896"}
 ,  {
 "placeName":
 "Venedig",
 "ref":
 "pmb462"}
 ,  {
 "placeName":
 "Berlin",
 "ref":
 "pmb168"}
 ,  {
 "placeName":
 "Wien",
 "ref":
 "pmb50"}
 ,  {
 "placeName":
 "Frankfurt am Main",
 "ref":
 "pmb146"}
 ]
}
}, {
 "type":
 "schnitzler-orte",
 "color":
 "#045344",
 "filename":
 "entity/883/",
 "caption":
 "Aufenthaltsorte",
 "idno":
 "https://pmb.acdh.oeaw.ac.at/entity/883/",
 "head":
 "Wiesbaden"
}, {
 "type":
 "schnitzler-orte",
 "color":
 "#045344",
 "filename":
 "entity/43055/",
 "caption":
 "Aufenthaltsorte",
 "idno":
 "https://pmb.acdh.oeaw.ac.at/entity/43055/",
 "head":
 "Hôtel du Parc &amp; Bristol"
}, {
 "type":
 "schnitzler-cmif",
 "subtype":
 "#j7685005-64da-4e31-99b6-b4641aa1628c",
 "color":
 "#654321",
 "caption":
 "Gedruckte Briefwechsel",
 "head":
 "Arthur Schnitzler an Gustav Schwarzkopf, 29. 9. 1899",
 "source":
 "Arthur Schnitzler: Briefe 1875–1912. Hrsg. v. Therese Nickl u. Heinrich Schnitzler. Frankfurt am Main: S. Fischer 1981."
}] 