[{
 "type":
 "schnitzler-tagebuch",
 "color":
 "#037a33",
 "filename":
 "entry__1899-10-01",
 "caption":
 "Tagebuch",
 "idno":
 "https://schnitzler-tagebuch.acdh.oeaw.ac.at/entry__1899-10-01.html",
 "head":
 "Tagebuch, 1. Oktober 1899",
 "desc":
{"listPlace":
  [
 {
 "placeName":
 "Wiesbaden",
 "ref":
 "pmb883"}
 ]
}
}, {
 "type":
 "schnitzler-briefe",
 "color":
 "#A63437",
 "filename":
 "L00985",
 "caption":
 "Briefe mit Autorinnen und Autoren",
 "idno":
 "https://schnitzler-briefe.acdh.oeaw.ac.at/L00985.html",
 "head":
 "Richard Beer-Hofmann an Arthur Schnitzler, 1. 10. 1899",
 "desc":
{"listPerson":
  [
{
 "persName":
 "Richard Beer-Hofmann",
 "ref":
 "pmb10863"},
 {
 "persName":
 "Paula Beer-Hofmann",
 "ref":
 "pmb10860"},
 {
 "persName":
 "Mirjam Beer-Hofmann",
 "ref":
 "pmb2668"},
 {
 "persName":
 "Naëmah Beer-Hofmann",
 "ref":
 "pmb2534"}],
 "listBibl":
  [
 {
 "title":
 "Der Graf von Charolais. Ein Trauerspiel",
 "ref":
 "pmb30233"}
 ],
 "listPlace":
  [
 {
 "placeName":
 "Sankt Michael",
 "ref":
 "pmb40832"}
 ,  {
 "placeName":
 "Wiesbaden",
 "ref":
 "pmb883"}
 ,  {
 "placeName":
 "Eppan an der Weinstraße",
 "ref":
 "pmb36485"}
 ,  {
 "placeName":
 "Hôtel du Parc &amp; Bristol",
 "ref":
 "pmb43055"}
 ,  {
 "placeName":
 "Eppaner Hof",
 "ref":
 "pmb43052"}
 ]
}
}, {
 "type":
 "schnitzler-orte",
 "color":
 "#045344",
 "filename":
 "entity/883/",
 "caption":
 "Aufenthaltsorte",
 "idno":
 "https://pmb.acdh.oeaw.ac.at/entity/883/",
 "head":
 "Wiesbaden"
}, {
 "type":
 "schnitzler-orte",
 "color":
 "#045344",
 "filename":
 "entity/43055/",
 "caption":
 "Aufenthaltsorte",
 "idno":
 "https://pmb.acdh.oeaw.ac.at/entity/43055/",
 "head":
 "Hôtel du Parc &amp; Bristol"
}, {
 "type":
 "schnitzler-bahr",
 "color":
 "#F9BD63",
 "filename":
 "T030059",
 "caption":
 "Schnitzler/Bahr",
 "idno":
 "https://schnitzler-bahr.acdh.oeaw.ac.at/T030059.html",
 "head":
 "Von Schnitzler markierte Stelle in Bahr: Die Entdeckung der Provinz, 1. 10.
                     1899",
 "desc":
{"listPerson":
  [
{
 "persName":
 "Hermann Bahr",
 "ref":
 "pmb10815"},
 {
 "persName":
 "Hugo von Hofmannsthal",
 "ref":
 "pmb11740"}],
 "listBibl":
  [
 {
 "title":
 "Die Entdeckung der Provinz",
 "ref":
 "pmb31979"}
 ,  {
 "title":
 "Neues Wiener Tagblatt",
 "ref":
 "pmb41321"}
 ],
 "listPlace":
  [
 {
 "placeName":
 "Wien",
 "ref":
 "pmb50"}
 ,  {
 "placeName":
 "Österreich",
 "ref":
 "pmb41240"}
 ]
}
}] 