[{
 "type":
 "schnitzler-tagebuch",
 "color":
 "#037a33",
 "filename":
 "entry__1899-09-27",
 "caption":
 "Tagebuch",
 "idno":
 "https://schnitzler-tagebuch.acdh.oeaw.ac.at/entry__1899-09-27.html",
 "head":
 "Tagebuch, 27. September 1899",
 "desc":
{"listBibl":
  [
 {
 "title":
 "Der Weg ins Freie. Roman",
 "ref":
 "pmb29923"}
 ],
 "listPlace":
  [
 {
 "placeName":
 "Biebrich",
 "ref":
 "pmb64277"}
 ,  {
 "placeName":
 "Mainz",
 "ref":
 "pmb44119"}
 ]
}
}, {
 "type":
 "schnitzler-briefe",
 "color":
 "#A63437",
 "filename":
 "L00981",
 "caption":
 "Briefe mit Autorinnen und Autoren",
 "idno":
 "https://schnitzler-briefe.acdh.oeaw.ac.at/L00981.html",
 "head":
 "Hugo von Hofmannsthal, Richard Beer-Hofmann an Arthur Schnitzler, 27. 9. 1899",
 "desc":
{"listPerson":
  [
{
 "persName":
 "Hugo von Hofmannsthal",
 "ref":
 "pmb11740"},
 {
 "persName":
 "Richard Beer-Hofmann",
 "ref":
 "pmb10863"},
 {
 "persName":
 "Paul Goldmann",
 "ref":
 "pmb11485"}],
 "listBibl":
  [
 {
 "title":
 "Das Bergwerk zu Falun",
 "ref":
 "pmb32432"}
 ],
 "listPlace":
  [
 {
 "placeName":
 "Vahrn",
 "ref":
 "pmb946"}
 ,  {
 "placeName":
 "Wien",
 "ref":
 "pmb50"}
 ,  {
 "placeName":
 "Bad Ischl",
 "ref":
 "pmb213"}
 ,  {
 "placeName":
 "Sankt Michael",
 "ref":
 "pmb40832"}
 ,  {
 "placeName":
 "Venedig",
 "ref":
 "pmb462"}
 ,  {
 "placeName":
 "Grand Hotel Britannia",
 "ref":
 "pmb40837"}
 ,  {
 "placeName":
 "Florenz",
 "ref":
 "pmb263"}
 ]
}
}, {
 "type":
 "schnitzler-orte",
 "color":
 "#045344",
 "filename":
 "entity/883/",
 "caption":
 "Aufenthaltsorte",
 "idno":
 "https://pmb.acdh.oeaw.ac.at/entity/883/",
 "head":
 "Wiesbaden"
}, {
 "type":
 "schnitzler-orte",
 "color":
 "#045344",
 "filename":
 "entity/64277/",
 "caption":
 "Aufenthaltsorte",
 "idno":
 "https://pmb.acdh.oeaw.ac.at/entity/64277/",
 "head":
 "Biebrich"
}, {
 "type":
 "schnitzler-orte",
 "color":
 "#045344",
 "filename":
 "entity/44119/",
 "caption":
 "Aufenthaltsorte",
 "idno":
 "https://pmb.acdh.oeaw.ac.at/entity/44119/",
 "head":
 "Mainz"
}, {
 "type":
 "schnitzler-orte",
 "color":
 "#045344",
 "filename":
 "entity/43055/",
 "caption":
 "Aufenthaltsorte",
 "idno":
 "https://pmb.acdh.oeaw.ac.at/entity/43055/",
 "head":
 "Hôtel du Parc &amp; Bristol"
}] 