[{
 "type":
 "schnitzler-tagebuch",
 "color":
 "#037a33",
 "filename":
 "entry__1899-07-31",
 "caption":
 "Tagebuch",
 "idno":
 "https://schnitzler-tagebuch.acdh.oeaw.ac.at/entry__1899-07-31.html",
 "head":
 "Tagebuch, 31. Juli 1899",
 "desc":
{"listPerson":
  [
{
 "persName":
 "Gisela Hajek",
 "ref":
 "person_15854"},
 {
 "persName":
 "Anna Kupelwieser",
 "ref":
 "person_17202"},
 {
 "persName":
 "Louise Schnitzler",
 "ref":
 "person_19831"},
 {
 "persName":
 "Jakob Wassermann",
 "ref":
 "person_21107"}],
 "listPlace":
  [
 {
 "placeName":
 "Toblach",
 "ref":
 "pmb987"}
 ,  {
 "placeName":
 "Innichen",
 "ref":
 "pmb90929"}
 ]
}
}, {
 "type":
 "schnitzler-briefe",
 "color":
 "#A63437",
 "filename":
 "L00953",
 "caption":
 "Briefe mit Autorinnen und Autoren",
 "idno":
 "https://schnitzler-briefe.acdh.oeaw.ac.at/L00953.html",
 "head":
 "Arthur Schnitzler an Richard Beer-Hofmann, 31. 7. 1899",
 "desc":
{"listPerson":
  [
{
 "persName":
 "Richard Beer-Hofmann",
 "ref":
 "pmb10863"}],
 "listPlace":
  [
 {
 "placeName":
 "Spittal an der Drau",
 "ref":
 "pmb41052"}
 ,  {
 "placeName":
 "Seeboden",
 "ref":
 "pmb34824"}
 ,  {
 "placeName":
 "Villa Platzer",
 "ref":
 "pmb40788"}
 ,  {
 "placeName":
 "Millstätter See",
 "ref":
 "pmb39637"}
 ,  {
 "placeName":
 "Passo di Giau",
 "ref":
 "pmb43070"}
 ,  {
 "placeName":
 "Pragser Wildsee",
 "ref":
 "pmb43067"}
 ]
}
}, {
 "type":
 "schnitzler-briefe",
 "color":
 "#A63437",
 "filename":
 "L00954",
 "caption":
 "Briefe mit Autorinnen und Autoren",
 "idno":
 "https://schnitzler-briefe.acdh.oeaw.ac.at/L00954.html",
 "head":
 "Richard Beer-Hofmann an Arthur Schnitzler, 31. 7. 1899",
 "desc":
{"listPerson":
  [
{
 "persName":
 "Richard Beer-Hofmann",
 "ref":
 "pmb10863"}],
 "listBibl":
  [
 {
 "title":
 "Der Tod Georgs",
 "ref":
 "pmb31535"}
 ],
 "listPlace":
  [
 {
 "placeName":
 "Seeboden",
 "ref":
 "pmb34824"}
 ,  {
 "placeName":
 "Toblach",
 "ref":
 "pmb987"}
 ,  {
 "placeName":
 "Südbahnhotel",
 "ref":
 "pmb36284"}
 ,  {
 "placeName":
 "Schloß Schönbrunn",
 "ref":
 "pmb21799"}
 ,  {
 "placeName":
 "Wien",
 "ref":
 "pmb50"}
 ]
}
}, {
 "type":
 "schnitzler-briefe",
 "color":
 "#A63437",
 "filename":
 "L00955",
 "caption":
 "Briefe mit Autorinnen und Autoren",
 "idno":
 "https://schnitzler-briefe.acdh.oeaw.ac.at/L00955.html",
 "head":
 "Hugo von Hofmannsthal an Arthur Schnitzler, 31. 7. [1899]",
 "desc":
{"listPerson":
  [
{
 "persName":
 "Hugo von Hofmannsthal",
 "ref":
 "pmb11740"},
 {
 "persName":
 "Richard Beer-Hofmann",
 "ref":
 "pmb10863"},
 {
 "persName":
 "Clemens von Franckenstein",
 "ref":
 "pmb3130"},
 {
 "persName":
 "Jakob Wassermann",
 "ref":
 "pmb13055"}],
 "listBibl":
  [
 {
 "title":
 "Der Schleier der Beatrice. Schauspiel in fünf Akten",
 "ref":
 "pmb29857"}
 ,  {
 "title":
 "Das Bergwerk zu Falun",
 "ref":
 "pmb32432"}
 ,  {
 "title":
 "Lorenza Burgkmair. Karnevals-Stück in drei Akten",
 "ref":
 "pmb76955"}
 ,  {
 "title":
 "Fortunatus. Oper in 3 Akten, op. 16",
 "ref":
 "pmb118419"}
 ],
 "listPlace":
  [
 {
 "placeName":
 "Altaussee",
 "ref":
 "pmb34401"}
 ,  {
 "placeName":
 "Toblach",
 "ref":
 "pmb987"}
 ,  {
 "placeName":
 "Bad Ischl",
 "ref":
 "pmb213"}
 ,  {
 "placeName":
 "Salzburg",
 "ref":
 "pmb30"}
 ]
}
}, {
 "type":
 "schnitzler-orte",
 "color":
 "#045344",
 "filename":
 "entity/41052/",
 "caption":
 "Aufenthaltsorte",
 "idno":
 "https://pmb.acdh.oeaw.ac.at/entity/41052/",
 "head":
 "Spittal an der Drau"
}, {
 "type":
 "schnitzler-orte",
 "color":
 "#045344",
 "filename":
 "entity/987/",
 "caption":
 "Aufenthaltsorte",
 "idno":
 "https://pmb.acdh.oeaw.ac.at/entity/987/",
 "head":
 "Toblach"
}, {
 "type":
 "schnitzler-traeume",
 "subtype":
 "#ISBN978-3-8353-1029-2",
 "color":
 "#1193CC",
 "caption":
 "Traumtagebuch",
 "head":
 "Traum vom 31. Juli 1899",
 "source":
 "Arthur Schnitzler: Träume. Das Traumtagebuch 1875–1931. Herausgegeben von Peter Michael Braunwarth und Leo A. Lensing. Göttingen: Wallstein 2012 (Bibliothek Janowitz, Bd. 20)"
}] 