[{
 "type":
 "schnitzler-tagebuch",
 "color":
 "#037a33",
 "filename":
 "entry__1899-07-27",
 "caption":
 "Tagebuch",
 "idno":
 "https://schnitzler-tagebuch.acdh.oeaw.ac.at/entry__1899-07-27.html",
 "head":
 "Tagebuch, 27. Juli 1899",
 "desc":
{"listPerson":
  [
{
 "persName":
 "D.",
 "ref":
 "person_14338"},
 {
 "persName":
 "Kraus",
 "ref":
 "person_17099"},
 {
 "persName":
 "Ligeti",
 "ref":
 "person_17541"},
 {
 "persName":
 "Roth",
 "ref":
 "person_19413"}]
}
}, {
 "type":
 "schnitzler-briefe",
 "color":
 "#A63437",
 "filename":
 "L00951",
 "caption":
 "Briefe mit Autorinnen und Autoren",
 "idno":
 "https://schnitzler-briefe.acdh.oeaw.ac.at/L00951.html",
 "head":
 "Arthur Schnitzler an Hugo von Hofmannsthal, 27. 7. 1899",
 "desc":
{"listPerson":
  [
{
 "persName":
 "Hugo von Hofmannsthal",
 "ref":
 "pmb11740"},
 {
 "persName":
 "Richard Beer-Hofmann",
 "ref":
 "pmb10863"},
 {
 "persName":
 "Jakob Wassermann",
 "ref":
 "pmb13055"},
 {
 "persName":
 "Robert Hirschfeld",
 "ref":
 "pmb11707"},
 {
 "persName":
 "Gustav Schwarzkopf",
 "ref":
 "pmb12740"},
 {
 "persName":
 "Louise Schnitzler",
 "ref":
 "pmb12701"},
 {
 "persName":
 "Gisela Hajek",
 "ref":
 "pmb2461"}],
 "listBibl":
  [
 {
 "title":
 "Der Tod Georgs",
 "ref":
 "pmb31535"}
 ,  {
 "title":
 "Der Schleier der Beatrice. Schauspiel in fünf Akten",
 "ref":
 "pmb29857"}
 ,  {
 "title":
 "Das Bergwerk zu Falun",
 "ref":
 "pmb32432"}
 ,  {
 "title":
 "Die Geschichte der jungen Renate Fuchs",
 "ref":
 "pmb33348"}
 ],
 "listPlace":
  [
 {
 "placeName":
 "Velden",
 "ref":
 "pmb909"}
 ,  {
 "placeName":
 "Marienbad",
 "ref":
 "pmb772"}
 ,  {
 "placeName":
 "Pension Pundschu",
 "ref":
 "pmb36282"}
 ,  {
 "placeName":
 "Toblach",
 "ref":
 "pmb987"}
 ,  {
 "placeName":
 "Millstätter See",
 "ref":
 "pmb39637"}
 ,  {
 "placeName":
 "Südtirol",
 "ref":
 "pmb969"}
 ,  {
 "placeName":
 "Trient",
 "ref":
 "pmb954"}
 ,  {
 "placeName":
 "Bozen",
 "ref":
 "pmb40260"}
 ,  {
 "placeName":
 "Bad Ischl",
 "ref":
 "pmb213"}
 ,  {
 "placeName":
 "Thüringen",
 "ref":
 "pmb432"}
 ,  {
 "placeName":
 "Südbahnhotel",
 "ref":
 "pmb36284"}
 ]
}
}, {
 "type":
 "schnitzler-briefe",
 "color":
 "#A63437",
 "filename":
 "L02881",
 "caption":
 "Briefe mit Autorinnen und Autoren",
 "idno":
 "https://schnitzler-briefe.acdh.oeaw.ac.at/L02881.html",
 "head":
 "Paul Goldmann an Arthur Schnitzler, 27. 7. [1899]",
 "desc":
{"listPerson":
  [
{
 "persName":
 "Paul Goldmann",
 "ref":
 "pmb11485"},
 {
 "persName":
 "Richard Wagner",
 "ref":
 "pmb13024"},
 {
 "persName":
 "Cosima Wagner",
 "ref":
 "pmb26555"},
 {
 "persName":
 "Alfred Dreyfus",
 "ref":
 "pmb4216"},
 {
 "persName":
 "Fedor Mamroth",
 "ref":
 "pmb4986"},
 {
 "persName":
 "Richard Beer-Hofmann",
 "ref":
 "pmb10863"}],
 "listBibl":
  [
 {
 "title":
 "Der Ring des Nibelungen",
 "ref":
 "pmb43228"}
 ],
 "listOrg":
  [
 {
 "orgName":
 "Bayreuther Festspiele",
 "ref":
 "pmb29811"}
 ],
 "listPlace":
  [
 {
 "placeName":
 "Bayreuth",
 "ref":
 "pmb734"}
 ,  {
 "placeName":
 "Villach",
 "ref":
 "pmb40454"}
 ,  {
 "placeName":
 "Velden am Wörthersee",
 "ref":
 "pmb909"}
 ,  {
 "placeName":
 "Wörthersee",
 "ref":
 "pmb430"}
 ,  {
 "placeName":
 "Deutschland",
 "ref":
 "pmb151"}
 ,  {
 "placeName":
 "Rennes",
 "ref":
 "pmb55293"}
 ,  {
 "placeName":
 "Grönland",
 "ref":
 "pmb142348"}
 ,  {
 "placeName":
 "Italien",
 "ref":
 "pmb40306"}
 ]
}
}, {
 "type":
 "schnitzler-orte",
 "color":
 "#045344",
 "filename":
 "entity/909/",
 "caption":
 "Aufenthaltsorte",
 "idno":
 "https://pmb.acdh.oeaw.ac.at/entity/909/",
 "head":
 "Velden am Wörthersee"
}, {
 "type":
 "schnitzler-orte",
 "color":
 "#045344",
 "filename":
 "entity/36282/",
 "caption":
 "Aufenthaltsorte",
 "idno":
 "https://pmb.acdh.oeaw.ac.at/entity/36282/",
 "head":
 "Pension Pundschu"
}] 