[{
 "type":
 "schnitzler-tagebuch",
 "color":
 "#037a33",
 "filename":
 "entry__1900-03-15",
 "caption":
 "Tagebuch",
 "idno":
 "https://schnitzler-tagebuch.acdh.oeaw.ac.at/entry__1900-03-15.html",
 "head":
 "Tagebuch, 15. März 1900",
 "desc":
{"listPerson":
  [
{
 "persName":
 "Alfred Kerr",
 "ref":
 "person_16819"},
 {
 "persName":
 "Leopoldine Müller",
 "ref":
 "person_18303"}],
 "listPlace":
  [
 {
 "placeName":
 "H.gasse",
 "ref":
 "pmb92266"}
 ]
}
}, {
 "type":
 "schnitzler-briefe",
 "color":
 "#A63437",
 "filename":
 "L01021",
 "caption":
 "Briefe mit Autorinnen und Autoren",
 "idno":
 "https://schnitzler-briefe.acdh.oeaw.ac.at/L01021.html",
 "head":
 "Hugo von Hofmannsthal an Arthur Schnitzler, 15. 3. [1900]",
 "desc":
{"listPerson":
  [
{
 "persName":
 "Hugo von Hofmannsthal",
 "ref":
 "pmb11740"},
 {
 "persName":
 "Anatole France",
 "ref":
 "pmb4279"},
 {
 "persName":
 "Auguste Rodin",
 "ref":
 "pmb9554"},
 {
 "persName":
 "Marie Reinhard",
 "ref":
 "pmb2378"},
 {
 "persName":
 "Theofrastus Bombastus Paracelsus",
 "ref":
 "pmb42949"},
 {
 "persName":
 "Richard Beer-Hofmann",
 "ref":
 "pmb10863"},
 {
 "persName":
 "Hugo August von Hofmannsthal",
 "ref":
 "pmb11737"},
 {
 "persName":
 "Paul Goldmann",
 "ref":
 "pmb11485"},
 {
 "persName":
 "Maurice Maeterlinck",
 "ref":
 "pmb12156"}],
 "listBibl":
  [
 {
 "title":
 "Paracelsus und Dr. Schnitzler",
 "ref":
 "pmb40611"}
 ,  {
 "title":
 "Vorspiel zur Antigone des Sophokles",
 "ref":
 "pmb40595"}
 ,  {
 "title":
 "Antigone",
 "ref":
 "pmb31593"}
 ],
 "listPlace":
  [
 {
 "placeName":
 "Paris",
 "ref":
 "pmb182"}
 ,  {
 "placeName":
 "Wien",
 "ref":
 "pmb50"}
 ,  {
 "placeName":
 "Boulevard Haussmann",
 "ref":
 "pmb34022"}
 ,  {
 "placeName":
 "Deutschland",
 "ref":
 "pmb151"}
 ,  {
 "placeName":
 "Bois de Boulogne",
 "ref":
 "pmb611"}
 ,  {
 "placeName":
 "Meudon",
 "ref":
 "pmb44131"}
 ,  {
 "placeName":
 "Villenes-sur-Seine",
 "ref":
 "pmb123"}
 ,  {
 "placeName":
 "Florenz",
 "ref":
 "pmb263"}
 ,  {
 "placeName":
 "Berlin",
 "ref":
 "pmb168"}
 ]
}
}, {
 "type":
 "schnitzler-orte",
 "color":
 "#045344",
 "filename":
 "entity/50/",
 "caption":
 "Aufenthaltsorte",
 "idno":
 "https://pmb.acdh.oeaw.ac.at/entity/50/",
 "head":
 "Wien"
}] 