[{
 "type":
 "schnitzler-tagebuch",
 "color":
 "#037a33",
 "filename":
 "entry__1900-08-03",
 "caption":
 "Tagebuch",
 "idno":
 "https://schnitzler-tagebuch.acdh.oeaw.ac.at/entry__1900-08-03.html",
 "head":
 "Tagebuch, 3. August 1900",
 "desc":
{"listBibl":
  [
 {
 "title":
 "Marionetten",
 "ref":
 "pmb36093"}
 ]
}
}, {
 "type":
 "schnitzler-briefe",
 "color":
 "#A63437",
 "filename":
 "L01063",
 "caption":
 "Briefe mit Autorinnen und Autoren",
 "idno":
 "https://schnitzler-briefe.acdh.oeaw.ac.at/L01063.html",
 "head":
 "Arthur Schnitzler an Richard Beer-Hofmann, 3. 8. 1900",
 "desc":
{"listPerson":
  [
{
 "persName":
 "Richard Beer-Hofmann",
 "ref":
 "pmb10863"},
 {
 "persName":
 "Alfred Kerr",
 "ref":
 "pmb11910"},
 {
 "persName":
 "Georg Hirschfeld",
 "ref":
 "pmb11701"},
 {
 "persName":
 "Gustav Schwarzkopf",
 "ref":
 "pmb12740"},
 {
 "persName":
 "Felix Salten",
 "ref":
 "pmb2167"},
 {
 "persName":
 "Paul Goldmann",
 "ref":
 "pmb11485"},
 {
 "persName":
 "Hugo von Hofmannsthal",
 "ref":
 "pmb11740"}],
 "listPlace":
  [
 {
 "placeName":
 "Bad Ischl",
 "ref":
 "pmb213"}
 ,  {
 "placeName":
 "Altaussee",
 "ref":
 "pmb34401"}
 ,  {
 "placeName":
 "Jenbach",
 "ref":
 "pmb40329"}
 ,  {
 "placeName":
 "Sterzing",
 "ref":
 "pmb40302"}
 ,  {
 "placeName":
 "Innsbruck",
 "ref":
 "pmb867"}
 ,  {
 "placeName":
 "Zell am See",
 "ref":
 "pmb40336"}
 ,  {
 "placeName":
 "Krimml",
 "ref":
 "pmb40432"}
 ,  {
 "placeName":
 "Gerlos",
 "ref":
 "pmb40280"}
 ,  {
 "placeName":
 "Salzburg",
 "ref":
 "pmb30"}
 ,  {
 "placeName":
 "Alpenhaus Kesselfall",
 "ref":
 "pmb40435"}
 ,  {
 "placeName":
 "Mooserboden",
 "ref":
 "pmb40339"}
 ,  {
 "placeName":
 "Zell am Ziller",
 "ref":
 "pmb134"}
 ,  {
 "placeName":
 "Schweiz",
 "ref":
 "pmb43435"}
 ,  {
 "placeName":
 "Klosters Dorf",
 "ref":
 "pmb38518"}
 ,  {
 "placeName":
 "Küblis",
 "ref":
 "pmb40646"}
 ,  {
 "placeName":
 "Davos",
 "ref":
 "pmb892"}
 ,  {
 "placeName":
 "Flüelapass",
 "ref":
 "pmb40649"}
 ,  {
 "placeName":
 "Samedan",
 "ref":
 "pmb44306"}
 ,  {
 "placeName":
 "Pontresina",
 "ref":
 "pmb34946"}
 ]
}
}, {
 "type":
 "schnitzler-briefe",
 "color":
 "#A63437",
 "filename":
 "L01064",
 "caption":
 "Briefe mit Autorinnen und Autoren",
 "idno":
 "https://schnitzler-briefe.acdh.oeaw.ac.at/L01064.html",
 "head":
 "Richard Beer-Hofmann an Arthur Schnitzler, 3. 8. 1900",
 "desc":
{"listPerson":
  [
{
 "persName":
 "Richard Beer-Hofmann",
 "ref":
 "pmb10863"},
 {
 "persName":
 "Paul Goldmann",
 "ref":
 "pmb11485"}],
 "listPlace":
  [
 {
 "placeName":
 "Altaussee",
 "ref":
 "pmb34401"}
 ,  {
 "placeName":
 "Bad Ischl",
 "ref":
 "pmb213"}
 ,  {
 "placeName":
 "Salzburg",
 "ref":
 "pmb30"}
 ]
}
}, {
 "type":
 "schnitzler-orte",
 "color":
 "#045344",
 "filename":
 "entity/213/",
 "caption":
 "Aufenthaltsorte",
 "idno":
 "https://pmb.acdh.oeaw.ac.at/entity/213/",
 "head":
 "Bad Ischl"
}, {
 "type":
 "schnitzler-orte",
 "color":
 "#045344",
 "filename":
 "entity/414/",
 "caption":
 "Aufenthaltsorte",
 "idno":
 "https://pmb.acdh.oeaw.ac.at/entity/414/",
 "head":
 "Hotel und Pension Rudolfshöhe (Leopold Petter)"
}] 