[{
 "type":
 "schnitzler-tagebuch",
 "color":
 "#037a33",
 "filename":
 "entry__1900-03-07",
 "caption":
 "Tagebuch",
 "idno":
 "https://schnitzler-tagebuch.acdh.oeaw.ac.at/entry__1900-03-07.html",
 "head":
 "Tagebuch, 7. März 1900",
 "desc":
{"listPerson":
  [
{
 "persName":
 "Leopoldine Müller",
 "ref":
 "person_18303"}],
 "listPlace":
  [
 {
 "placeName":
 "H.gasse",
 "ref":
 "pmb92266"}
 ]
}
}, {
 "type":
 "schnitzler-briefe",
 "color":
 "#A63437",
 "filename":
 "L01019",
 "caption":
 "Briefe mit Autorinnen und Autoren",
 "idno":
 "https://schnitzler-briefe.acdh.oeaw.ac.at/L01019.html",
 "head":
 "Richard Beer-Hofmann an Arthur Schnitzler, 7. 3. 1900",
 "desc":
{"listPerson":
  [
{
 "persName":
 "Richard Beer-Hofmann",
 "ref":
 "pmb10863"},
 {
 "persName":
 "Andrea Mantegna",
 "ref":
 "pmb20935"}],
 "listBibl":
  [
 {
 "title":
 "Sankt Georg",
 "ref":
 "pmb43218"}
 ],
 "listOrg":
  [
 {
 "orgName":
 "Accademia di belle arti di Venezia",
 "ref":
 "pmb44602"}
 ,  {
 "orgName":
 "Wiener Schachclub",
 "ref":
 "pmb43143"}
 ],
 "listPlace":
  [
 {
 "placeName":
 "Bahnhof",
 "ref":
 "pmb850"}
 ,  {
 "placeName":
 "IX., Alsergrund",
 "ref":
 "pmb59"}
 ,  {
 "placeName":
 "Florenz",
 "ref":
 "pmb263"}
 ,  {
 "placeName":
 "Wien",
 "ref":
 "pmb50"}
 ,  {
 "placeName":
 "Frankgasse",
 "ref":
 "pmb397"}
 ,  {
 "placeName":
 "Österreich",
 "ref":
 "pmb41240"}
 ,  {
 "placeName":
 "Venedig",
 "ref":
 "pmb462"}
 ]
}
}, {
 "type":
 "schnitzler-orte",
 "color":
 "#045344",
 "filename":
 "entity/50/",
 "caption":
 "Aufenthaltsorte",
 "idno":
 "https://pmb.acdh.oeaw.ac.at/entity/50/",
 "head":
 "Wien"
}] 