[{
 "type":
 "schnitzler-tagebuch",
 "color":
 "#037a33",
 "filename":
 "entry__1900-10-04",
 "caption":
 "Tagebuch",
 "idno":
 "https://schnitzler-tagebuch.acdh.oeaw.ac.at/entry__1900-10-04.html",
 "head":
 "Tagebuch, 4. Oktober 1900",
 "desc":
{"listPerson":
  [
{
 "persName":
 "Olga Schnitzler",
 "ref":
 "person_19832"}],
 "listBibl":
  [
 {
 "title":
 "Marionetten",
 "ref":
 "pmb36093"}
 ,  {
 "title":
 "Der Weg ins Freie. Roman",
 "ref":
 "pmb29923"}
 ]
}
}, {
 "type":
 "schnitzler-briefe",
 "color":
 "#A63437",
 "filename":
 "L01075",
 "caption":
 "Briefe mit Autorinnen und Autoren",
 "idno":
 "https://schnitzler-briefe.acdh.oeaw.ac.at/L01075.html",
 "head":
 "Hugo von Hofmannsthal an Arthur Schnitzler, 4. 10. 1900",
 "desc":
{"listPerson":
  [
{
 "persName":
 "Hugo von Hofmannsthal",
 "ref":
 "pmb11740"}],
 "listPlace":
  [
 {
 "placeName":
 "Ouchy",
 "ref":
 "pmb36464"}
 ,  {
 "placeName":
 "IX., Alsergrund",
 "ref":
 "pmb59"}
 ,  {
 "placeName":
 "Wien",
 "ref":
 "pmb50"}
 ,  {
 "placeName":
 "Frankgasse",
 "ref":
 "pmb397"}
 ,  {
 "placeName":
 "Beau-Rivage Palace",
 "ref":
 "pmb43984"}
 ,  {
 "placeName":
 "Schloss Chillon",
 "ref":
 "pmb40481"}
 ,  {
 "placeName":
 "Glion",
 "ref":
 "pmb40483"}
 ]
}
}, {
 "type":
 "schnitzler-briefe",
 "color":
 "#A63437",
 "filename":
 "L02934",
 "caption":
 "Briefe mit Autorinnen und Autoren",
 "idno":
 "https://schnitzler-briefe.acdh.oeaw.ac.at/L02934.html",
 "head":
 "Paul Goldmann an Arthur Schnitzler, 4. 10. [1900]",
 "desc":
{"listPerson":
  [
{
 "persName":
 "Paul Goldmann",
 "ref":
 "pmb11485"},
 {
 "persName":
 "Wilhelm Ernst Oswalt",
 "ref":
 "pmb141828"},
 {
 "persName":
 "Otto Erich Hartleben",
 "ref":
 "pmb11605"},
 {
 "persName":
 "Oskar Blumenthal",
 "ref":
 "pmb14328"},
 {
 "persName":
 "Hermann Bahr",
 "ref":
 "pmb10815"},
 {
 "persName":
 "Siegfried Loewy",
 "ref":
 "pmb12101"},
 {
 "persName":
 "Friedrich Nietzsche",
 "ref":
 "pmb12358"},
 {
 "persName":
 "Malwida von Meysenbug",
 "ref":
 "pmb141847"},
 {
 "persName":
 "Georg Brandes",
 "ref":
 "pmb10992"},
 {
 "persName":
 "Maria Stona",
 "ref":
 "pmb24452"}],
 "listBibl":
  [
 {
 "title":
 "Ein Sommer in China. Reisebilder. Zweite, durchgesehene und vermehrte Auflage",
 "ref":
 "pmb141823"}
 ,  {
 "title":
 "Ein Sommer in China. Reisebilder",
 "ref":
 "pmb33346"}
 ,  {
 "title":
 "Rosenmontag",
 "ref":
 "pmb31767"}
 ,  {
 "title":
 "Kritische Tagebuchblätter",
 "ref":
 "pmb141842"}
 ,  {
 "title":
 "Berliner Tageblatt",
 "ref":
 "pmb41531"}
 ,  {
 "title":
 "Wienerinnen. Lustspiel in drei Akten",
 "ref":
 "pmb29885"}
 ,  {
 "title":
 "Vossische Zeitung",
 "ref":
 "pmb52605"}
 ,  {
 "title":
 "Theater und Musik [Wienerinnen]",
 "ref":
 "pmb142443"}
 ,  {
 "title":
 "Theaterchronik [Wienerinnen]",
 "ref":
 "pmb142447"}
 ,  {
 "title":
 "Berliner Börsen-Courier",
 "ref":
 "pmb41289"}
 ,  {
 "title":
 "Liebelei. Schauspiel in drei Akten",
 "ref":
 "pmb29917"}
 ,  {
 "title":
 "[Rezension von Wienerinnen von Siegfried Loewy]",
 "ref":
 "pmb142451"}
 ,  {
 "title":
 "Der erste Nietzsche",
 "ref":
 "pmb141850"}
 ,  {
 "title":
 "Neue Freie Presse",
 "ref":
 "pmb36374"}
 ],
 "listOrg":
  [
 {
 "orgName":
 "Rütten &amp; Loening",
 "ref":
 "pmb29309"}
 ],
 "listPlace":
  [
 {
 "placeName":
 "Berlin",
 "ref":
 "pmb168"}
 ,  {
 "placeName":
 "Wien",
 "ref":
 "pmb50"}
 ,  {
 "placeName":
 "Frankfurt am Main",
 "ref":
 "pmb146"}
 ,  {
 "placeName":
 "Deutsches Theater Berlin",
 "ref":
 "pmb3"}
 ,  {
 "placeName":
 "Volkstheater",
 "ref":
 "pmb20"}
 ,  {
 "placeName":
 "Frankreich",
 "ref":
 "pmb166"}
 ,  {
 "placeName":
 "Donau",
 "ref":
 "pmb59370"}
 ,  {
 "placeName":
 "Dresden",
 "ref":
 "pmb866"}
 ]
}
}, {
 "type":
 "schnitzler-orte",
 "color":
 "#045344",
 "filename":
 "entity/50/",
 "caption":
 "Aufenthaltsorte",
 "idno":
 "https://pmb.acdh.oeaw.ac.at/entity/50/",
 "head":
 "Wien"
}, {
 "type":
 "kalliope-verbund",
 "color":
 "#003574",
 "caption":
 "Kalliope Verbundkatalog",
 "idno":
 "http://kalliope-verbund.info/DE-2498-HS00083203",
 "head":
 "Schnitzler, Arthur: Der Weg ins Freie [Dramatisches] (Drucktitel)",
 "text":
 "2 Bl.Abschr."
}] 