[{
 "type":
 "schnitzler-tagebuch",
 "color":
 "#037a33",
 "filename":
 "entry__1900-03-29",
 "caption":
 "Tagebuch",
 "idno":
 "https://schnitzler-tagebuch.acdh.oeaw.ac.at/entry__1900-03-29.html",
 "head":
 "Tagebuch, 29. März 1900",
 "desc":
{"listPlace":
  [
 {
 "placeName":
 "Trieste",
 "ref":
 "pmb91944"}
 ,  {
 "placeName":
 "Pola",
 "ref":
 "pmb851"}
 ,  {
 "placeName":
 "Zadar",
 "ref":
 "pmb61062"}
 ,  {
 "placeName":
 "Split",
 "ref":
 "pmb4231"}
 ]
}
}, {
 "type":
 "schnitzler-briefe",
 "color":
 "#A63437",
 "filename":
 "L02909",
 "caption":
 "Briefe mit Autorinnen und Autoren",
 "idno":
 "https://schnitzler-briefe.acdh.oeaw.ac.at/L02909.html",
 "head":
 "Paul Goldmann an Arthur Schnitzler, 29. 3. [1900]",
 "desc":
{"listPerson":
  [
{
 "persName":
 "Paul Goldmann",
 "ref":
 "pmb11485"},
 {
 "persName":
 "A. P.",
 "ref":
 "pmb88531"},
 {
 "persName":
 "Adele Schreiber",
 "ref":
 "pmb88525"},
 {
 "persName":
 "Hugo von Hofmannsthal",
 "ref":
 "pmb11740"},
 {
 "persName":
 "Sophokles",
 "ref":
 "pmb2693"},
 {
 "persName":
 "Otto Brahm",
 "ref":
 "pmb10986"},
 {
 "persName":
 "Hermann Bahr",
 "ref":
 "pmb10815"},
 {
 "persName":
 "Robert Hirschfeld",
 "ref":
 "pmb11707"},
 {
 "persName":
 "Peter Altenberg",
 "ref":
 "pmb2147"}],
 "listBibl":
  [
 {
 "title":
 "Berliner Tageblatt",
 "ref":
 "pmb41531"}
 ,  {
 "title":
 "[In der Gesellschaft für Kunst und Wissenschaft sprach am Mittwoch Abend Adele Schreiber über Arthur Schnitzler]",
 "ref":
 "pmb88523"}
 ,  {
 "title":
 "[Vortrag über Arthur Schnitzler]",
 "ref":
 "pmb141499"}
 ,  {
 "title":
 "Weihnachts-Einkäufe",
 "ref":
 "pmb30163"}
 ,  {
 "title":
 "Vorspiel zur Antigone des Sophokles",
 "ref":
 "pmb40595"}
 ,  {
 "title":
 "Antigone",
 "ref":
 "pmb31593"}
 ,  {
 "title":
 "Neue Freie Presse",
 "ref":
 "pmb36374"}
 ,  {
 "title":
 "[Goldmanns Kritik an Otto Brahm]",
 "ref":
 "pmb141521"}
 ,  {
 "title":
 "West-östlicher Divan",
 "ref":
 "pmb33937"}
 ,  {
 "title":
 "Alkandi’s Lied",
 "ref":
 "pmb31637"}
 ,  {
 "title":
 "Das Märchen. Schauspiel in drei Aufzügen",
 "ref":
 "pmb29823"}
 ,  {
 "title":
 "Freiwild. Schauspiel in 3 Akten",
 "ref":
 "pmb29899"}
 ,  {
 "title":
 "Liebelei. Schauspiel in drei Akten",
 "ref":
 "pmb29917"}
 ,  {
 "title":
 "Das Vermächtnis. Schauspiel in drei Akten",
 "ref":
 "pmb30219"}
 ,  {
 "title":
 "Die Gefährtin. Schauspiel in einem Akt",
 "ref":
 "pmb29845"}
 ,  {
 "title":
 "Paracelsus. Versspiel in einem Akt",
 "ref":
 "pmb30403"}
 ,  {
 "title":
 "Der grüne Kakadu. Groteske in einem Akt",
 "ref":
 "pmb29843"}
 ,  {
 "title":
 "Der Schleier der Beatrice. Schauspiel in fünf Akten",
 "ref":
 "pmb29857"}
 ,  {
 "title":
 "Anatol",
 "ref":
 "pmb29935"}
 ,  {
 "title":
 "Die Frau des Weisen. Novelletten",
 "ref":
 "pmb32460"}
 ],
 "listOrg":
  [
 {
 "orgName":
 "Lessing-Gesellschaft für Kunst und Wissenschaft",
 "ref":
 "pmb141511"}
 ],
 "listPlace":
  [
 {
 "placeName":
 "Berlin",
 "ref":
 "pmb168"}
 ,  {
 "placeName":
 "Dubrovnik",
 "ref":
 "pmb682"}
 ,  {
 "placeName":
 "Dessauer Straße",
 "ref":
 "pmb40583"}
 ,  {
 "placeName":
 "Triest",
 "ref":
 "pmb873"}
 ,  {
 "placeName":
 "Kroatien",
 "ref":
 "pmb34494"}
 ,  {
 "placeName":
 "Lessing-Theater",
 "ref":
 "pmb18"}
 ,  {
 "placeName":
 "Wien",
 "ref":
 "pmb50"}
 ,  {
 "placeName":
 "Österreich",
 "ref":
 "pmb41240"}
 ,  {
 "placeName":
 "Deutschland",
 "ref":
 "pmb151"}
 ,  {
 "placeName":
 "Griechenland",
 "ref":
 "pmb44293"}
 ,  {
 "placeName":
 "Frankreich",
 "ref":
 "pmb166"}
 ]
}
}, {
 "type":
 "schnitzler-orte",
 "color":
 "#045344",
 "filename":
 "entity/91944/",
 "caption":
 "Aufenthaltsorte",
 "idno":
 "https://pmb.acdh.oeaw.ac.at/entity/91944/",
 "head":
 "Triest"
}, {
 "type":
 "schnitzler-orte",
 "color":
 "#045344",
 "filename":
 "entity/851/",
 "caption":
 "Aufenthaltsorte",
 "idno":
 "https://pmb.acdh.oeaw.ac.at/entity/851/",
 "head":
 "Pola"
}, {
 "type":
 "schnitzler-orte",
 "color":
 "#045344",
 "filename":
 "entity/61062/",
 "caption":
 "Aufenthaltsorte",
 "idno":
 "https://pmb.acdh.oeaw.ac.at/entity/61062/",
 "head":
 "Zadar"
}, {
 "type":
 "schnitzler-orte",
 "color":
 "#045344",
 "filename":
 "entity/91780/",
 "caption":
 "Aufenthaltsorte",
 "idno":
 "https://pmb.acdh.oeaw.ac.at/entity/91780/",
 "head":
 "Split"
}] 