[{
 "type":
 "schnitzler-tagebuch",
 "color":
 "#037a33",
 "filename":
 "entry__1900-08-26",
 "caption":
 "Tagebuch",
 "idno":
 "https://schnitzler-tagebuch.acdh.oeaw.ac.at/entry__1900-08-26.html",
 "head":
 "Tagebuch, 26. August 1900",
 "desc":
{"listPlace":
  [
 {
 "placeName":
 "Le Prese",
 "ref":
 "pmb49135"}
 ,  {
 "placeName":
 "Bolladore",
 "ref":
 "pmb90132"}
 ,  {
 "placeName":
 "Bormio",
 "ref":
 "pmb49343"}
 ]
}
}, {
 "type":
 "schnitzler-briefe",
 "color":
 "#A63437",
 "filename":
 "L01068",
 "caption":
 "Briefe mit Autorinnen und Autoren",
 "idno":
 "https://schnitzler-briefe.acdh.oeaw.ac.at/L01068.html",
 "head":
 "Arthur Schnitzler, Paul Goldmann an Richard Beer-Hofmann, 26. 8. 1900",
 "desc":
{"listPerson":
  [
{
 "persName":
 "Paul Goldmann",
 "ref":
 "pmb11485"},
 {
 "persName":
 "Richard Beer-Hofmann",
 "ref":
 "pmb10863"}],
 "listBibl":
  [
 {
 "title":
 "Der blinde Geronimo und sein Bruder",
 "ref":
 "pmb30649"}
 ],
 "listPlace":
  [
 {
 "placeName":
 "Bormio",
 "ref":
 "pmb49343"}
 ,  {
 "placeName":
 "Altaussee",
 "ref":
 "pmb34401"}
 ,  {
 "placeName":
 "Steiermark",
 "ref":
 "pmb17"}
 ,  {
 "placeName":
 "Alte Therme",
 "ref":
 "pmb49345"}
 ,  {
 "placeName":
 "Tirol",
 "ref":
 "pmb423"}
 ,  {
 "placeName":
 "Südtirol",
 "ref":
 "pmb969"}
 ]
}
}, {
 "type":
 "schnitzler-orte",
 "color":
 "#045344",
 "filename":
 "entity/49135/",
 "caption":
 "Aufenthaltsorte",
 "idno":
 "https://pmb.acdh.oeaw.ac.at/entity/49135/",
 "head":
 "Le Prese"
}, {
 "type":
 "schnitzler-orte",
 "color":
 "#045344",
 "filename":
 "entity/90132/",
 "caption":
 "Aufenthaltsorte",
 "idno":
 "https://pmb.acdh.oeaw.ac.at/entity/90132/",
 "head":
 "Bolladore"
}, {
 "type":
 "schnitzler-orte",
 "color":
 "#045344",
 "filename":
 "entity/49343/",
 "caption":
 "Aufenthaltsorte",
 "idno":
 "https://pmb.acdh.oeaw.ac.at/entity/49343/",
 "head":
 "Bormio"
}, {
 "type":
 "kalliope-verbund",
 "color":
 "#003574",
 "caption":
 "Kalliope Verbundkatalog",
 "idno":
 "http://kalliope-verbund.info/DE-2498-HS00043267",
 "head":
 "Siegfried, Curt an Schnitzler, Arthur [Briefe]",
 "text":
 "2 Bl."
}] 