[{
 "type":
 "schnitzler-tagebuch",
 "color":
 "#037a33",
 "filename":
 "entry__1900-03-23",
 "caption":
 "Tagebuch",
 "idno":
 "https://schnitzler-tagebuch.acdh.oeaw.ac.at/entry__1900-03-23.html",
 "head":
 "Tagebuch, 23. März 1900",
 "desc":
{"listPerson":
  [
{
 "persName":
 "Leopoldine Müller",
 "ref":
 "person_18303"}],
 "listPlace":
  [
 {
 "placeName":
 "H.gasse",
 "ref":
 "pmb92266"}
 ]
}
}, {
 "type":
 "schnitzler-briefe",
 "color":
 "#A63437",
 "filename":
 "L01024",
 "caption":
 "Briefe mit Autorinnen und Autoren",
 "idno":
 "https://schnitzler-briefe.acdh.oeaw.ac.at/L01024.html",
 "head":
 "Arthur Schnitzler an Hugo von Hofmannsthal, 23. 3. 1900",
 "desc":
{"listPerson":
  [
{
 "persName":
 "Hugo von Hofmannsthal",
 "ref":
 "pmb11740"},
 {
 "persName":
 "Marie Reinhard",
 "ref":
 "pmb2378"},
 {
 "persName":
 "Paul Goldmann",
 "ref":
 "pmb11485"},
 {
 "persName":
 "Dora Michaelis",
 "ref":
 "pmb2774"},
 {
 "persName":
 "Georg Brandes",
 "ref":
 "pmb10992"},
 {
 "persName":
 "Richard Beer-Hofmann",
 "ref":
 "pmb10863"},
 {
 "persName":
 "Hans Bernhard Schlesinger",
 "ref":
 "pmb24239"},
 {
 "persName":
 "Georg von Franckenstein",
 "ref":
 "pmb11359"}],
 "listBibl":
  [
 {
 "title":
 "Der Schleier der Beatrice. Schauspiel in fünf Akten",
 "ref":
 "pmb29857"}
 ,  {
 "title":
 "Vorspiel zur Antigone des Sophokles",
 "ref":
 "pmb40595"}
 ,  {
 "title":
 "Frau Bertha Garlan. Roman",
 "ref":
 "pmb30486"}
 ,  {
 "title":
 "Eine Frau von dreißig Jahren",
 "ref":
 "pmb40585"}
 ],
 "listOrg":
  [
 {
 "orgName":
 "Wiener Schachclub",
 "ref":
 "pmb43143"}
 ],
 "listPlace":
  [
 {
 "placeName":
 "Wien",
 "ref":
 "pmb50"}
 ,  {
 "placeName":
 "Paris",
 "ref":
 "pmb182"}
 ,  {
 "placeName":
 "Villenes-sur-Seine",
 "ref":
 "pmb123"}
 ,  {
 "placeName":
 "Poissy",
 "ref":
 "pmb921"}
 ,  {
 "placeName":
 "Berlin",
 "ref":
 "pmb168"}
 ,  {
 "placeName":
 "Dessauer Straße",
 "ref":
 "pmb40583"}
 ,  {
 "placeName":
 "Dubrovnik",
 "ref":
 "pmb682"}
 ,  {
 "placeName":
 "Edlach",
 "ref":
 "pmb470"}
 ,  {
 "placeName":
 "Dalmatien",
 "ref":
 "pmb265"}
 ,  {
 "placeName":
 "rue de Maubeuge",
 "ref":
 "pmb592"}
 ]
}
}, {
 "type":
 "schnitzler-orte",
 "color":
 "#045344",
 "filename":
 "entity/50/",
 "caption":
 "Aufenthaltsorte",
 "idno":
 "https://pmb.acdh.oeaw.ac.at/entity/50/",
 "head":
 "Wien"
}] 