[{
 "type":
 "schnitzler-tagebuch",
 "color":
 "#037a33",
 "filename":
 "entry__1900-04-03",
 "caption":
 "Tagebuch",
 "idno":
 "https://schnitzler-tagebuch.acdh.oeaw.ac.at/entry__1900-04-03.html",
 "head":
 "Tagebuch, 3. April 1900",
 "desc":
{"listPerson":
  [
{
 "persName":
 "Pittinger",
 "ref":
 "person_18818"}],
 "listPlace":
  [
 {
 "placeName":
 "Split",
 "ref":
 "pmb4231"}
 ,  {
 "placeName":
 "Solin",
 "ref":
 "pmb91643"}
 ]
}
}, {
 "type":
 "schnitzler-briefe",
 "color":
 "#A63437",
 "filename":
 "L01026",
 "caption":
 "Briefe mit Autorinnen und Autoren",
 "idno":
 "https://schnitzler-briefe.acdh.oeaw.ac.at/L01026.html",
 "head":
 "Arthur Schnitzler an Richard Beer-Hofmann, 3. 4. 1900",
 "desc":
{"listPerson":
  [
{
 "persName":
 "Richard Beer-Hofmann",
 "ref":
 "pmb10863"}],
 "listPlace":
  [
 {
 "placeName":
 "Split",
 "ref":
 "pmb4231"}
 ,  {
 "placeName":
 "Wien",
 "ref":
 "pmb50"}
 ,  {
 "placeName":
 "Wollzeile",
 "ref":
 "pmb338"}
 ,  {
 "placeName":
 "Peristil ulica",
 "ref":
 "pmb49246"}
 ,  {
 "placeName":
 "Katedrala Svetog Duje",
 "ref":
 "pmb46388"}
 ]
}
}, {
 "type":
 "schnitzler-briefe",
 "color":
 "#A63437",
 "filename":
 "L01027",
 "caption":
 "Briefe mit Autorinnen und Autoren",
 "idno":
 "https://schnitzler-briefe.acdh.oeaw.ac.at/L01027.html",
 "head":
 "Arthur Schnitzler an Hugo von Hofmannsthal, 3. 4. 1900",
 "desc":
{"listPerson":
  [
{
 "persName":
 "Hugo von Hofmannsthal",
 "ref":
 "pmb11740"}],
 "listPlace":
  [
 {
 "placeName":
 "Split",
 "ref":
 "pmb4231"}
 ,  {
 "placeName":
 "Paris",
 "ref":
 "pmb182"}
 ,  {
 "placeName":
 "Boulevard Haussmann",
 "ref":
 "pmb34022"}
 ,  {
 "placeName":
 "Goldenes Tor",
 "ref":
 "pmb34020"}
 ,  {
 "placeName":
 "Triest",
 "ref":
 "pmb873"}
 ,  {
 "placeName":
 "Dubrovnik",
 "ref":
 "pmb682"}
 ,  {
 "placeName":
 "Opatija",
 "ref":
 "pmb38096"}
 ]
}
}, {
 "type":
 "schnitzler-briefe",
 "color":
 "#A63437",
 "filename":
 "L01028",
 "caption":
 "Briefe mit Autorinnen und Autoren",
 "idno":
 "https://schnitzler-briefe.acdh.oeaw.ac.at/L01028.html",
 "head":
 "Georg Brandes an Arthur Schnitzler, [3. 4. 1900?]",
 "desc":
{"listPerson":
  [
{
 "persName":
 "Georg Brandes",
 "ref":
 "pmb10992"}],
 "listPlace":
  [
 {
 "placeName":
 "Budapest",
 "ref":
 "pmb43471"}
 ,  {
 "placeName":
 "Opatija",
 "ref":
 "pmb38096"}
 ]
}
}, {
 "type":
 "schnitzler-briefe",
 "color":
 "#A63437",
 "filename":
 "L01029",
 "caption":
 "Briefe mit Autorinnen und Autoren",
 "idno":
 "https://schnitzler-briefe.acdh.oeaw.ac.at/L01029.html",
 "head":
 "Georg Brandes an Arthur Schnitzler, 3. 4. [1900]",
 "desc":
{"listPerson":
  [
{
 "persName":
 "Georg Brandes",
 "ref":
 "pmb10992"},
 {
 "persName":
 "Sandór Hegedüs",
 "ref":
 "pmb5471"},
 {
 "persName":
 "Ignác Darányi",
 "ref":
 "pmb5468"}],
 "listPlace":
  [
 {
 "placeName":
 "Budapest",
 "ref":
 "pmb43471"}
 ,  {
 "placeName":
 "Hotel Royal",
 "ref":
 "pmb1121"}
 ,  {
 "placeName":
 "Ungarn",
 "ref":
 "pmb35512"}
 ,  {
 "placeName":
 "Wien",
 "ref":
 "pmb50"}
 ]
}
}, {
 "type":
 "schnitzler-orte",
 "color":
 "#045344",
 "filename":
 "entity/91780/",
 "caption":
 "Aufenthaltsorte",
 "idno":
 "https://pmb.acdh.oeaw.ac.at/entity/91780/",
 "head":
 "Split"
}] 