[{
 "type":
 "schnitzler-tagebuch",
 "color":
 "#037a33",
 "filename":
 "entry__1901-05-13",
 "caption":
 "Tagebuch",
 "idno":
 "https://schnitzler-tagebuch.acdh.oeaw.ac.at/entry__1901-05-13.html",
 "head":
 "Tagebuch, 13. Mai 1901",
 "desc":
{"listPerson":
  [
{
 "persName":
 "Olga Schnitzler",
 "ref":
 "person_19832"}]
}
}, {
 "type":
 "schnitzler-briefe",
 "color":
 "#A63437",
 "filename":
 "L01118",
 "caption":
 "Briefe mit Autorinnen und Autoren",
 "idno":
 "https://schnitzler-briefe.acdh.oeaw.ac.at/L01118.html",
 "head":
 "Georg Brandes an Arthur Schnitzler, 13. 5. 1901",
 "desc":
{"listPerson":
  [
{
 "persName":
 "Georg Brandes",
 "ref":
 "pmb10992"},
 {
 "persName":
 "Richard Beer-Hofmann",
 "ref":
 "pmb10863"}],
 "listPlace":
  [
 {
 "placeName":
 "Ostrava",
 "ref":
 "pmb41075"}
 ,  {
 "placeName":
 "Schloss Strzebowitz",
 "ref":
 "pmb1123"}
 ,  {
 "placeName":
 "Schlesien",
 "ref":
 "pmb1122"}
 ,  {
 "placeName":
 "Wien",
 "ref":
 "pmb50"}
 ,  {
 "placeName":
 "Opatija",
 "ref":
 "pmb38096"}
 ,  {
 "placeName":
 "Nordbahnhof",
 "ref":
 "pmb426"}
 ,  {
 "placeName":
 "Südbahnhof",
 "ref":
 "pmb132"}
 ]
}
}, {
 "type":
 "schnitzler-briefe",
 "color":
 "#A63437",
 "filename":
 "L01119",
 "caption":
 "Briefe mit Autorinnen und Autoren",
 "idno":
 "https://schnitzler-briefe.acdh.oeaw.ac.at/L01119.html",
 "head":
 "Jakob Julius David an Arthur Schnitzler, 13. 5. 1901",
 "desc":
{"listPerson":
  [
{
 "persName":
 "Jakob Julius David",
 "ref":
 "pmb2416"}],
 "listPlace":
  [
 {
 "placeName":
 "Wien",
 "ref":
 "pmb50"}
 ,  {
 "placeName":
 "Glasergasse",
 "ref":
 "pmb44819"}
 ]
}
}, {
 "type":
 "schnitzler-orte",
 "color":
 "#045344",
 "filename":
 "entity/50/",
 "caption":
 "Aufenthaltsorte",
 "idno":
 "https://pmb.acdh.oeaw.ac.at/entity/50/",
 "head":
 "Wien"
}] 