[{
 "type":
 "schnitzler-tagebuch",
 "color":
 "#037a33",
 "filename":
 "entry__1901-07-18",
 "caption":
 "Tagebuch",
 "idno":
 "https://schnitzler-tagebuch.acdh.oeaw.ac.at/entry__1901-07-18.html",
 "head":
 "Tagebuch, 18. Juli 1901",
 "desc":
{"listPerson":
  [
{
 "persName":
 "Helene Schnitzler",
 "ref":
 "person_19823"},
 {
 "persName":
 "Julius Schnitzler",
 "ref":
 "person_19827"}],
 "listPlace":
  [
 {
 "placeName":
 "Franzensfeste",
 "ref":
 "pmb40264"}
 ]
}
}, {
 "type":
 "schnitzler-briefe",
 "color":
 "#A63437",
 "filename":
 "L01149",
 "caption":
 "Briefe mit Autorinnen und Autoren",
 "idno":
 "https://schnitzler-briefe.acdh.oeaw.ac.at/L01149.html",
 "head":
 "Hugo von Hofmannsthal an Arthur Schnitzler, 18. 7. [1901]",
 "desc":
{"listPerson":
  [
{
 "persName":
 "Hugo von Hofmannsthal",
 "ref":
 "pmb11740"},
 {
 "persName":
 "Hermann Bahr",
 "ref":
 "pmb10815"},
 {
 "persName":
 "Gertrude von Hofmannsthal",
 "ref":
 "pmb2292"},
 {
 "persName":
 "Olga Schnitzler",
 "ref":
 "pmb2173"},
 {
 "persName":
 "Robert Browning",
 "ref":
 "pmb4338"},
 {
 "persName":
 "Leopold von Andrian-Werburg",
 "ref":
 "pmb10765"}],
 "listBibl":
  [
 {
 "title":
 "Der Triumph der Zeit",
 "ref":
 "pmb39862"}
 ,  {
 "title":
 "Pompilia oder das Leben",
 "ref":
 "pmb32039"}
 ],
 "listPlace":
  [
 {
 "placeName":
 "Wien",
 "ref":
 "pmb50"}
 ,  {
 "placeName":
 "Rodaun",
 "ref":
 "pmb173"}
 ,  {
 "placeName":
 "Innsbruck",
 "ref":
 "pmb867"}
 ,  {
 "placeName":
 "Hofgartengasthaus",
 "ref":
 "pmb664"}
 ]
}
}, {
 "type":
 "schnitzler-orte",
 "color":
 "#045344",
 "filename":
 "entity/946/",
 "caption":
 "Aufenthaltsorte",
 "idno":
 "https://pmb.acdh.oeaw.ac.at/entity/946/",
 "head":
 "Vahrn"
}, {
 "type":
 "schnitzler-orte",
 "color":
 "#045344",
 "filename":
 "entity/40264/",
 "caption":
 "Aufenthaltsorte",
 "idno":
 "https://pmb.acdh.oeaw.ac.at/entity/40264/",
 "head":
 "Franzensfeste"
}, {
 "type":
 "schnitzler-bahr",
 "color":
 "#F9BD63",
 "filename":
 "L041440",
 "caption":
 "Schnitzler/Bahr",
 "idno":
 "https://schnitzler-bahr.acdh.oeaw.ac.at/L041440.html",
 "head":
 "Hofmannsthal an Schnitzler, 18. 7. [1901]",
 "desc":
{"listPerson":
  [
{
 "persName":
 "Hugo von Hofmannsthal",
 "ref":
 "pmb11740"},
 {
 "persName":
 "Gertrude von Hofmannsthal",
 "ref":
 "pmb2292"},
 {
 "persName":
 "Olga Schnitzler",
 "ref":
 "pmb2173"},
 {
 "persName":
 "Robert Browning",
 "ref":
 "pmb4338"},
 {
 "persName":
 "Hermann Bahr",
 "ref":
 "pmb10815"},
 {
 "persName":
 "Leopold von Andrian-Werburg",
 "ref":
 "pmb10765"}],
 "listBibl":
  [
 {
 "title":
 "Der Triumph der Zeit",
 "ref":
 "pmb39862"}
 ,  {
 "title":
 "Pompilia oder das Leben",
 "ref":
 "pmb32039"}
 ],
 "listPlace":
  [
 {
 "placeName":
 "Wien",
 "ref":
 "pmb50"}
 ,  {
 "placeName":
 "Rodaun",
 "ref":
 "pmb173"}
 ,  {
 "placeName":
 "Innsbruck",
 "ref":
 "pmb867"}
 ,  {
 "placeName":
 "Hofgartengasthaus",
 "ref":
 "pmb664"}
 ]
}
}] 