[{
 "type":
 "schnitzler-tagebuch",
 "color":
 "#037a33",
 "filename":
 "entry__1901-08-21",
 "caption":
 "Tagebuch",
 "idno":
 "https://schnitzler-tagebuch.acdh.oeaw.ac.at/entry__1901-08-21.html",
 "head":
 "Tagebuch, 21. August 1901",
 "desc":
{"listPerson":
  [
{
 "persName":
 "Peter Dorner",
 "ref":
 "person_14495"}],
 "listPlace":
  [
 {
 "placeName":
 "Welsberg-Taisten",
 "ref":
 "pmb428"}
 ]
}
}, {
 "type":
 "schnitzler-briefe",
 "color":
 "#A63437",
 "filename":
 "L01165",
 "caption":
 "Briefe mit Autorinnen und Autoren",
 "idno":
 "https://schnitzler-briefe.acdh.oeaw.ac.at/L01165.html",
 "head":
 "Paul Goldmann, Arthur Schnitzler an Georg Brandes, 21. 8. 1901",
 "desc":
{"listPerson":
  [
{
 "persName":
 "Paul Goldmann",
 "ref":
 "pmb11485"},
 {
 "persName":
 "Georg Brandes",
 "ref":
 "pmb10992"}],
 "listPlace":
  [
 {
 "placeName":
 "Wildbad Waldbrunn",
 "ref":
 "pmb723"}
 ,  {
 "placeName":
 "Welsberg-Taisten",
 "ref":
 "pmb428"}
 ,  {
 "placeName":
 "Kopenhagen",
 "ref":
 "pmb36300"}
 ,  {
 "placeName":
 "Hotel Savoy",
 "ref":
 "pmb545"}
 ,  {
 "placeName":
 "Berlin",
 "ref":
 "pmb168"}
 ,  {
 "placeName":
 "Dänemark",
 "ref":
 "pmb43570"}
 ,  {
 "placeName":
 "Schloss Welsperg",
 "ref":
 "pmb1100"}
 ]
}
}, {
 "type":
 "schnitzler-briefe",
 "color":
 "#A63437",
 "filename":
 "L01166",
 "caption":
 "Briefe mit Autorinnen und Autoren",
 "idno":
 "https://schnitzler-briefe.acdh.oeaw.ac.at/L01166.html",
 "head":
 "Richard Beer-Hofmann an Arthur Schnitzler, 21. 8. 1901",
 "desc":
{"listPerson":
  [
{
 "persName":
 "Richard Beer-Hofmann",
 "ref":
 "pmb10863"},
 {
 "persName":
 "Paul Goldmann",
 "ref":
 "pmb11485"}],
 "listPlace":
  [
 {
 "placeName":
 "Pörtschach",
 "ref":
 "pmb44278"}
 ,  {
 "placeName":
 "Welsberg-Taisten",
 "ref":
 "pmb428"}
 ,  {
 "placeName":
 "Toblach",
 "ref":
 "pmb987"}
 ]
}
}, {
 "type":
 "schnitzler-orte",
 "color":
 "#045344",
 "filename":
 "entity/428/",
 "caption":
 "Aufenthaltsorte",
 "idno":
 "https://pmb.acdh.oeaw.ac.at/entity/428/",
 "head":
 "Welsberg-Taisten"
}, {
 "type":
 "schnitzler-orte",
 "color":
 "#045344",
 "filename":
 "entity/723/",
 "caption":
 "Aufenthaltsorte",
 "idno":
 "https://pmb.acdh.oeaw.ac.at/entity/723/",
 "head":
 "Wildbad Waldbrunn"
}] 