[{
 "type":
 "schnitzler-tagebuch",
 "color":
 "#037a33",
 "filename":
 "entry__1902-07-03",
 "caption":
 "Tagebuch",
 "idno":
 "https://schnitzler-tagebuch.acdh.oeaw.ac.at/entry__1902-07-03.html",
 "head":
 "Tagebuch, 3. Juli 1902",
 "desc":
{"listPlace":
  [
 {
 "placeName":
 "Patsch",
 "ref":
 "pmb91441"}
 ,  {
 "placeName":
 "Schönberg im Stubaital",
 "ref":
 "pmb759"}
 ,  {
 "placeName":
 "Mieders",
 "ref":
 "pmb91243"}
 ,  {
 "placeName":
 "Matrei am Brenner",
 "ref":
 "pmb591"}
 ,  {
 "placeName":
 "Brenner",
 "ref":
 "pmb608"}
 ]
}
}, {
 "type":
 "schnitzler-briefe",
 "color":
 "#A63437",
 "filename":
 "L01227",
 "caption":
 "Briefe mit Autorinnen und Autoren",
 "idno":
 "https://schnitzler-briefe.acdh.oeaw.ac.at/L01227.html",
 "head":
 "Hugo von Hofmannsthal, Arthur Schnitzler an Hermann Bahr, 3. 7. 1902",
 "desc":
{"listPerson":
  [
{
 "persName":
 "Hugo von Hofmannsthal",
 "ref":
 "pmb11740"},
 {
 "persName":
 "Hermann Bahr",
 "ref":
 "pmb10815"}],
 "listBibl":
  [
 {
 "title":
 "Entgegen",
 "ref":
 "pmb32332"}
 ],
 "listOrg":
  [
 {
 "orgName":
 "Neues Wiener Tagblatt",
 "ref":
 "pmb29414"}
 ],
 "listPlace":
  [
 {
 "placeName":
 "Matrei am Brenner",
 "ref":
 "pmb591"}
 ,  {
 "placeName":
 "XIII., Hietzing",
 "ref":
 "pmb63"}
 ,  {
 "placeName":
 "Wien",
 "ref":
 "pmb50"}
 ,  {
 "placeName":
 "Veitlissengasse",
 "ref":
 "pmb220"}
 ,  {
 "placeName":
 "Ober Sankt Veit",
 "ref":
 "pmb165"}
 ]
}
}, {
 "type":
 "schnitzler-briefe",
 "color":
 "#A63437",
 "filename":
 "L01228",
 "caption":
 "Briefe mit Autorinnen und Autoren",
 "idno":
 "https://schnitzler-briefe.acdh.oeaw.ac.at/L01228.html",
 "head":
 "Hugo von Hofmannsthal, Arthur Schnitzler an Richard Beer-Hofmann, 3. 7. 1902",
 "desc":
{"listPerson":
  [
{
 "persName":
 "Hugo von Hofmannsthal",
 "ref":
 "pmb11740"},
 {
 "persName":
 "Richard Beer-Hofmann",
 "ref":
 "pmb10863"},
 {
 "persName":
 "Gustav Schwarzkopf",
 "ref":
 "pmb12740"}],
 "listPlace":
  [
 {
 "placeName":
 "Matrei am Brenner",
 "ref":
 "pmb591"}
 ,  {
 "placeName":
 "Rodaun",
 "ref":
 "pmb173"}
 ,  {
 "placeName":
 "Liesingerstraße",
 "ref":
 "pmb40101"}
 ]
}
}, {
 "type":
 "schnitzler-orte",
 "color":
 "#045344",
 "filename":
 "entity/867/",
 "caption":
 "Aufenthaltsorte",
 "idno":
 "https://pmb.acdh.oeaw.ac.at/entity/867/",
 "head":
 "Innsbruck"
}, {
 "type":
 "schnitzler-orte",
 "color":
 "#045344",
 "filename":
 "entity/759/",
 "caption":
 "Aufenthaltsorte",
 "idno":
 "https://pmb.acdh.oeaw.ac.at/entity/759/",
 "head":
 "Schönberg im Stubaital"
}, {
 "type":
 "schnitzler-orte",
 "color":
 "#045344",
 "filename":
 "entity/90093/",
 "caption":
 "Aufenthaltsorte",
 "idno":
 "https://pmb.acdh.oeaw.ac.at/entity/90093/",
 "head":
 "Maria Waldrast"
}, {
 "type":
 "schnitzler-orte",
 "color":
 "#045344",
 "filename":
 "entity/591/",
 "caption":
 "Aufenthaltsorte",
 "idno":
 "https://pmb.acdh.oeaw.ac.at/entity/591/",
 "head":
 "Matrei am Brenner"
}, {
 "type":
 "schnitzler-orte",
 "color":
 "#045344",
 "filename":
 "entity/608/",
 "caption":
 "Aufenthaltsorte",
 "idno":
 "https://pmb.acdh.oeaw.ac.at/entity/608/",
 "head":
 "Brenner"
}, {
 "type":
 "schnitzler-bahr",
 "color":
 "#F9BD63",
 "filename":
 "L041201",
 "caption":
 "Schnitzler/Bahr",
 "idno":
 "https://schnitzler-bahr.acdh.oeaw.ac.at/L041201.html",
 "head":
 "Hofmannsthal und Schnitzler an Bahr, 3. 7. 1902",
 "desc":
{"listPerson":
  [
{
 "persName":
 "Hugo von Hofmannsthal",
 "ref":
 "pmb11740"},
 {
 "persName":
 "Hermann Bahr",
 "ref":
 "pmb10815"}],
 "listBibl":
  [
 {
 "title":
 "Entgegen",
 "ref":
 "pmb32332"}
 ],
 "listPlace":
  [
 {
 "placeName":
 "Matrei am Brenner",
 "ref":
 "pmb591"}
 ,  {
 "placeName":
 "Wien",
 "ref":
 "pmb50"}
 ,  {
 "placeName":
 "XIII., Hietzing",
 "ref":
 "pmb63"}
 ,  {
 "placeName":
 "Veitlissengasse",
 "ref":
 "pmb220"}
 ]
}
}, {
 "type":
 "schnitzler-cmif",
 "subtype":
 "#l25eefe1-afeb-4a14-b13f-25d15ae20e34",
 "color":
 "#654321",
 "caption":
 "Gedruckte Briefwechsel",
 "head":
 "Hugo von Hofmannsthal, Arthur Schnitzler an Hermann Bahr, 3. Juli 1902",
 "source":
 "Hugo und Gerty von Hofmannsthal - Hermann Bahr: Briefwechsel. 1891-1934. Hg. und kommentiert von Elsbeth Dangel-Pelloquin. Göttingen: Wallstein 2013."
}] 