[{
 "type":
 "schnitzler-tagebuch",
 "color":
 "#037a33",
 "filename":
 "entry__1902-06-29",
 "caption":
 "Tagebuch",
 "idno":
 "https://schnitzler-tagebuch.acdh.oeaw.ac.at/entry__1902-06-29.html",
 "head":
 "Tagebuch, 29. Juni 1902",
 "desc":
{"listPerson":
  [
{
 "persName":
 "Hugo von Hofmannsthal",
 "ref":
 "person_16293"}],
 "listBibl":
  [
 {
 "title":
 "Der Abenteurer",
 "ref":
 "pmb35724"}
 ,  {
 "title":
 "Die Weissagung",
 "ref":
 "pmb30683"}
 ],
 "listPlace":
  [
 {
 "placeName":
 "Aigen",
 "ref":
 "pmb90200"}
 ,  {
 "placeName":
 "Hellbrunn",
 "ref":
 "pmb31"}
 ,  {
 "placeName":
 "Berchtesgadener-Straße",
 "ref":
 "pmb92164"}
 ,  {
 "placeName":
 "Maria Plain",
 "ref":
 "pmb49120"}
 ]
}
}, {
 "type":
 "schnitzler-orte",
 "color":
 "#045344",
 "filename":
 "entity/30/",
 "caption":
 "Aufenthaltsorte",
 "idno":
 "https://pmb.acdh.oeaw.ac.at/entity/30/",
 "head":
 "Salzburg"
}, {
 "type":
 "schnitzler-bahr",
 "color":
 "#F9BD63",
 "filename":
 "L041629",
 "caption":
 "Schnitzler/Bahr",
 "idno":
 "https://schnitzler-bahr.acdh.oeaw.ac.at/L041629.html",
 "head":
 "Bukovics an Bahr, 29. [6.?] 1902",
 "desc":
{"listPerson":
  [
{
 "persName":
 "Emerich von Bukovics",
 "ref":
 "pmb2161"},
 {
 "persName":
 "Hermann Bahr",
 "ref":
 "pmb10815"},
 {
 "persName":
 "Adolf Weisse",
 "ref":
 "pmb26880"},
 {
 "persName":
 "Richard Fellner",
 "ref":
 "pmb11308"},
 {
 "persName":
 "Rosa Bahr",
 "ref":
 "pmb13682"},
 {
 "persName":
 "Pauline von Bukovics",
 "ref":
 "pmb28760"}],
 "listBibl":
  [
 {
 "title":
 "Das Tschaperl",
 "ref":
 "pmb29829"}
 ,  {
 "title":
 "Lebendige Stunden. Vier Einakter",
 "ref":
 "pmb29863"}
 ],
 "listPlace":
  [
 {
 "placeName":
 "Karlsbad",
 "ref":
 "pmb842"}
 ,  {
 "placeName":
 "Wien",
 "ref":
 "pmb50"}
 ,  {
 "placeName":
 "Volkstheater",
 "ref":
 "pmb20"}
 ,  {
 "placeName":
 "Villa Schäffler",
 "ref":
 "pmb749"}
 ,  {
 "placeName":
 "Paris",
 "ref":
 "pmb182"}
 ]
}
}, {
 "type":
 "schnitzler-bahr",
 "color":
 "#F9BD63",
 "filename":
 "L041478",
 "caption":
 "Schnitzler/Bahr",
 "idno":
 "https://schnitzler-bahr.acdh.oeaw.ac.at/L041478.html",
 "head":
 "Hofmannsthal an Bahr, [29. 6. 1902?]",
 "desc":
{"listPerson":
  [
{
 "persName":
 "Hugo von Hofmannsthal",
 "ref":
 "pmb11740"},
 {
 "persName":
 "Hermann Bahr",
 "ref":
 "pmb10815"},
 {
 "persName":
 "Gertrude von Hofmannsthal",
 "ref":
 "pmb2292"}],
 "listPlace":
  [
 {
 "placeName":
 "Salzburg",
 "ref":
 "pmb30"}
 ,  {
 "placeName":
 "Wien",
 "ref":
 "pmb50"}
 ]
}
}] 