[{
 "type":
 "schnitzler-tagebuch",
 "color":
 "#037a33",
 "filename":
 "entry__1902-06-11",
 "caption":
 "Tagebuch",
 "idno":
 "https://schnitzler-tagebuch.acdh.oeaw.ac.at/entry__1902-06-11.html",
 "head":
 "Tagebuch, 11. Juni 1902",
 "desc":
{"listPlace":
  [
 {
 "placeName":
 "Brühl",
 "ref":
 "pmb44413"}
 ]
}
}, {
 "type":
 "schnitzler-briefe",
 "color":
 "#A63437",
 "filename":
 "L01222",
 "caption":
 "Briefe mit Autorinnen und Autoren",
 "idno":
 "https://schnitzler-briefe.acdh.oeaw.ac.at/L01222.html",
 "head":
 "Hugo von Hofmannsthal an Arthur Schnitzler, 1[1?]. 6. 1902",
 "desc":
{"listPerson":
  [
{
 "persName":
 "Hugo von Hofmannsthal",
 "ref":
 "pmb11740"},
 {
 "persName":
 "Richard Beer-Hofmann",
 "ref":
 "pmb10863"},
 {
 "persName":
 "Ferdinand Raimund",
 "ref":
 "pmb12468"}],
 "listPlace":
  [
 {
 "placeName":
 "Wien",
 "ref":
 "pmb50"}
 ,  {
 "placeName":
 "Bergfriedhof",
 "ref":
 "pmb40801"}
 ,  {
 "placeName":
 "Mödling",
 "ref":
 "pmb968"}
 ,  {
 "placeName":
 "Gutenstein",
 "ref":
 "pmb1036"}
 ,  {
 "placeName":
 "Bad Vöslau",
 "ref":
 "pmb992"}
 ,  {
 "placeName":
 "Salzburg",
 "ref":
 "pmb30"}
 ,  {
 "placeName":
 "Lofer",
 "ref":
 "pmb33929"}
 ,  {
 "placeName":
 "Innsbruck",
 "ref":
 "pmb867"}
 ,  {
 "placeName":
 "Stubaital",
 "ref":
 "pmb607"}
 ,  {
 "placeName":
 "Brenner",
 "ref":
 "pmb608"}
 ,  {
 "placeName":
 "Toblach",
 "ref":
 "pmb987"}
 ,  {
 "placeName":
 "Ampezzo",
 "ref":
 "pmb39757"}
 ,  {
 "placeName":
 "Spittal an der Drau",
 "ref":
 "pmb41052"}
 ,  {
 "placeName":
 "Radstadt",
 "ref":
 "pmb41035"}
 ,  {
 "placeName":
 "Bischofshofen",
 "ref":
 "pmb41003"}
 ]
}
}, {
 "type":
 "schnitzler-orte",
 "color":
 "#045344",
 "filename":
 "entity/50/",
 "caption":
 "Aufenthaltsorte",
 "idno":
 "https://pmb.acdh.oeaw.ac.at/entity/50/",
 "head":
 "Wien"
}] 