[{
 "type":
 "schnitzler-tagebuch",
 "color":
 "#037a33",
 "filename":
 "entry__1903-02-22",
 "caption":
 "Tagebuch",
 "idno":
 "https://schnitzler-tagebuch.acdh.oeaw.ac.at/entry__1903-02-22.html",
 "head":
 "Tagebuch, 22. Februar 1903",
 "desc":
{"listPerson":
  [
{
 "persName":
 "Otto Brahm",
 "ref":
 "person_13913"},
 {
 "persName":
 "Paul Goldmann",
 "ref":
 "person_15529"},
 {
 "persName":
 "Stefan Vacano",
 "ref":
 "person_20898"}],
 "listPlace":
  [
 {
 "placeName":
 "Berlin",
 "ref":
 "pmb168"}
 ]
}
}, {
 "type":
 "schnitzler-briefe",
 "color":
 "#A63437",
 "filename":
 "L01272",
 "caption":
 "Briefe mit Autorinnen und Autoren",
 "idno":
 "https://schnitzler-briefe.acdh.oeaw.ac.at/L01272.html",
 "head":
 "Hermann Bahr an Arthur Schnitzler, 22. 2. 1903",
 "desc":
{"listPerson":
  [
{
 "persName":
 "Hermann Bahr",
 "ref":
 "pmb10815"},
 {
 "persName":
 "Julius Schnitzler",
 "ref":
 "pmb12698"},
 {
 "persName":
 "Siegfried Trebitsch",
 "ref":
 "pmb12968"},
 {
 "persName":
 "Otto Brahm",
 "ref":
 "pmb10986"}],
 "listBibl":
  [
 {
 "title":
 "Genesung. Roman",
 "ref":
 "pmb30805"}
 ],
 "listOrg":
  [
 {
 "orgName":
 "S. Fischer Verlag",
 "ref":
 "pmb29639"}
 ],
 "listPlace":
  [
 {
 "placeName":
 "XIII., Hietzing",
 "ref":
 "pmb63"}
 ,  {
 "placeName":
 "Wien",
 "ref":
 "pmb50"}
 ,  {
 "placeName":
 "Berlin",
 "ref":
 "pmb168"}
 ,  {
 "placeName":
 "Palasthotel Berlin",
 "ref":
 "pmb88"}
 ]
}
}, {
 "type":
 "schnitzler-orte",
 "color":
 "#045344",
 "filename":
 "entity/168/",
 "caption":
 "Aufenthaltsorte",
 "idno":
 "https://pmb.acdh.oeaw.ac.at/entity/168/",
 "head":
 "Berlin"
}, {
 "type":
 "schnitzler-orte",
 "color":
 "#045344",
 "filename":
 "entity/88/",
 "caption":
 "Aufenthaltsorte",
 "idno":
 "https://pmb.acdh.oeaw.ac.at/entity/88/",
 "head":
 "Palasthotel Berlin"
}, {
 "type":
 "schnitzler-bahr",
 "color":
 "#F9BD63",
 "filename":
 "L041253",
 "caption":
 "Schnitzler/Bahr",
 "idno":
 "https://schnitzler-bahr.acdh.oeaw.ac.at/L041253.html",
 "head":
 "Bahr an Schnitzler, 22. 2. 1903",
 "desc":
{"listPerson":
  [
{
 "persName":
 "Hermann Bahr",
 "ref":
 "pmb10815"},
 {
 "persName":
 "Julius Schnitzler",
 "ref":
 "pmb12698"},
 {
 "persName":
 "Siegfried Trebitsch",
 "ref":
 "pmb12968"},
 {
 "persName":
 "Otto Brahm",
 "ref":
 "pmb10986"}],
 "listBibl":
  [
 {
 "title":
 "Genesung. Roman",
 "ref":
 "pmb30805"}
 ],
 "listPlace":
  [
 {
 "placeName":
 "Wien",
 "ref":
 "pmb50"}
 ,  {
 "placeName":
 "Berlin",
 "ref":
 "pmb168"}
 ,  {
 "placeName":
 "XIII., Hietzing",
 "ref":
 "pmb63"}
 ,  {
 "placeName":
 "Palasthotel Berlin",
 "ref":
 "pmb88"}
 ]
}
}] 