[{
 "type":
 "schnitzler-tagebuch",
 "color":
 "#037a33",
 "filename":
 "entry__1904-08-12",
 "caption":
 "Tagebuch",
 "idno":
 "https://schnitzler-tagebuch.acdh.oeaw.ac.at/entry__1904-08-12.html",
 "head":
 "Tagebuch, 12. August 1904",
 "desc":
{"listPerson":
  [
{
 "persName":
 "Arnold Burger",
 "ref":
 "person_14072"},
 {
 "persName":
 "Julius Epstein",
 "ref":
 "person_14776"},
 {
 "persName":
 "Jacob Pollak",
 "ref":
 "person_18884"},
 {
 "persName":
 "Felix Salten",
 "ref":
 "person_19542"},
 {
 "persName":
 "Paul Salten",
 "ref":
 "person_19544"},
 {
 "persName":
 "Caroline Burger",
 "ref":
 "person_14073"}],
 "listBibl":
  [
 {
 "title":
 "Zwischenspiel. Komödie in drei Akten",
 "ref":
 "pmb29903"}
 ],
 "listPlace":
  [
 {
 "placeName":
 "Pötzleinsdorf",
 "ref":
 "pmb169"}
 ]
}
}, {
 "type":
 "schnitzler-briefe",
 "color":
 "#A63437",
 "filename":
 "L01426",
 "caption":
 "Briefe mit Autorinnen und Autoren",
 "idno":
 "https://schnitzler-briefe.acdh.oeaw.ac.at/L01426.html",
 "head":
 "Hugo von Hofmannsthal an Arthur Schnitzler, 12. 8. 1904",
 "desc":
{"listPerson":
  [
{
 "persName":
 "Hugo von Hofmannsthal",
 "ref":
 "pmb11740"},
 {
 "persName":
 "Hermine von Schaffgotsch",
 "ref":
 "pmb24033"},
 {
 "persName":
 "Robert Gilbert Vansittart",
 "ref":
 "pmb26402"},
 {
 "persName":
 "Christopher St. John",
 "ref":
 "pmb41764"},
 {
 "persName":
 "Franziska Schlesinger",
 "ref":
 "pmb24233"},
 {
 "persName":
 "Louise Schnitzler",
 "ref":
 "pmb12701"}],
 "listBibl":
  [
 {
 "title":
 "Das Vermächtnis. Schauspiel in drei Akten",
 "ref":
 "pmb30219"}
 ,  {
 "title":
 "Der Schleier der Beatrice. Schauspiel in fünf Akten",
 "ref":
 "pmb29857"}
 ,  {
 "title":
 "Sterben. Novelle",
 "ref":
 "pmb30117"}
 ,  {
 "title":
 "Anatol",
 "ref":
 "pmb29935"}
 ],
 "listOrg":
  [
 {
 "orgName":
 "Eton College",
 "ref":
 "pmb40424"}
 ],
 "listPlace":
  [
 {
 "placeName":
 "Bad Aussee",
 "ref":
 "pmb415"}
 ,  {
 "placeName":
 "Wien",
 "ref":
 "pmb50"}
 ,  {
 "placeName":
 "Ramgut",
 "ref":
 "pmb656"}
 ,  {
 "placeName":
 "Botschaft von Großbritannien in Paris",
 "ref":
 "pmb40421"}
 ,  {
 "placeName":
 "Villa Franckenstein",
 "ref":
 "pmb36393"}
 ,  {
 "placeName":
 "England",
 "ref":
 "pmb254"}
 ,  {
 "placeName":
 "Bad Ischl",
 "ref":
 "pmb213"}
 ,  {
 "placeName":
 "Wolfgangsee",
 "ref":
 "pmb40874"}
 ]
}
}, {
 "type":
 "schnitzler-orte",
 "color":
 "#045344",
 "filename":
 "entity/50/",
 "caption":
 "Aufenthaltsorte",
 "idno":
 "https://pmb.acdh.oeaw.ac.at/entity/50/",
 "head":
 "Wien"
}, {
 "type":
 "schnitzler-bahr",
 "color":
 "#F9BD63",
 "filename":
 "L041491",
 "caption":
 "Schnitzler/Bahr",
 "idno":
 "https://schnitzler-bahr.acdh.oeaw.ac.at/L041491.html",
 "head":
 "Bahr an Gerty von Hofmannsthal, 12. 8. 1904",
 "desc":
{"listPerson":
  [
{
 "persName":
 "Hermann Bahr",
 "ref":
 "pmb10815"},
 {
 "persName":
 "Gertrude von Hofmannsthal",
 "ref":
 "pmb2292"},
 {
 "persName":
 "Hugo von Hofmannsthal",
 "ref":
 "pmb11740"},
 {
 "persName":
 "Olga Schnitzler",
 "ref":
 "pmb2173"}],
 "listPlace":
  [
 {
 "placeName":
 "Wien",
 "ref":
 "pmb50"}
 ,  {
 "placeName":
 "Bad Aussee",
 "ref":
 "pmb415"}
 ,  {
 "placeName":
 "Gasthaus Stelzer",
 "ref":
 "pmb177"}
 ]
}
}, {
 "type":
 "kalliope-verbund",
 "color":
 "#003574",
 "caption":
 "Kalliope Verbundkatalog",
 "idno":
 "http://kalliope-verbund.info/DE-2498-HS00040814",
 "head":
 "Muetter, Helen an Schnitzler, Arthur [Briefe]",
 "text":
 "2 Bl."
}] 