[{
 "type":
 "Arthur-Schnitzler-digital",
 "color":
 "#801e23",
 "caption":
 "Arthur Schnitzler digital (Werke 1905–1931)",
 "idno":
 "https://www.schnitzler-edition.net/Dokumentarisch/Dokumentklasse/WUR_K4_*H1",
 "head":
 "Zum großen Wurstel, K4 erschl. hsl. Werkniederschrift 1, Von 14. August 1904 bis 28.
            September 1904"
}, {
 "type":
 "schnitzler-tagebuch",
 "color":
 "#037a33",
 "filename":
 "entry__1904-09-24",
 "caption":
 "Tagebuch",
 "idno":
 "https://schnitzler-tagebuch.acdh.oeaw.ac.at/entry__1904-09-24.html",
 "head":
 "Tagebuch, 24. September 1904",
 "desc":
{"listPerson":
  [
{
 "persName":
 "Bogumil Zepler",
 "ref":
 "person_21539"},
 {
 "persName":
 "Adolf Bukorester",
 "ref":
 "person_16604"},
 {
 "persName":
 "Fanny Lubelsky",
 "ref":
 "person_17709"}],
 "listBibl":
  [
 {
 "title":
 "Excentric",
 "ref":
 "pmb29893"}
 ,  {
 "title":
 "Der blinde Geronimo und sein Bruder",
 "ref":
 "pmb30649"}
 ,  {
 "title":
 "Zum großen Wurstel",
 "ref":
 "pmb29951"}
 ,  {
 "title":
 "Die griechische Tänzerin. Novellen",
 "ref":
 "pmb30301"}
 ]
}
}, {
 "type":
 "schnitzler-briefe",
 "color":
 "#A63437",
 "filename":
 "L01449",
 "caption":
 "Briefe mit Autorinnen und Autoren",
 "idno":
 "https://schnitzler-briefe.acdh.oeaw.ac.at/L01449.html",
 "head":
 "Arthur Schnitzler an Hugo von Hofmannsthal, 24. 9. 1904",
 "desc":
{"listPerson":
  [
{
 "persName":
 "Hugo von Hofmannsthal",
 "ref":
 "pmb11740"},
 {
 "persName":
 "Hermann Bahr",
 "ref":
 "pmb10815"},
 {
 "persName":
 "Jakob Wassermann",
 "ref":
 "pmb13055"},
 {
 "persName":
 "Richard Beer-Hofmann",
 "ref":
 "pmb10863"},
 {
 "persName":
 "Edgar von Karg-Bebenburg",
 "ref":
 "pmb2219"},
 {
 "persName":
 "Gertrude von Hofmannsthal",
 "ref":
 "pmb2292"},
 {
 "persName":
 "?? [Italienischlehrerin in Wien]",
 "ref":
 "pmb27705"},
 {
 "persName":
 "Hans Bernhard Schlesinger",
 "ref":
 "pmb24239"},
 {
 "persName":
 "Olga Schnitzler",
 "ref":
 "pmb2173"}],
 "listBibl":
  [
 {
 "title":
 "Die Jagd nach Liebe",
 "ref":
 "pmb31981"}
 ,  {
 "title":
 "Die Göttinnen oder Die drei Romane der Herzogin von Assy",
 "ref":
 "pmb31983"}
 ],
 "listPlace":
  [
 {
 "placeName":
 "XVIII., Währing",
 "ref":
 "pmb68"}
 ,  {
 "placeName":
 "Thüringen",
 "ref":
 "pmb432"}
 ,  {
 "placeName":
 "Rodaun",
 "ref":
 "pmb173"}
 ,  {
 "placeName":
 "Badgasse",
 "ref":
 "pmb1006"}
 ,  {
 "placeName":
 "Wien",
 "ref":
 "pmb50"}
 ,  {
 "placeName":
 "Hotel de l’Europe",
 "ref":
 "pmb34050"}
 ,  {
 "placeName":
 "Salzburg",
 "ref":
 "pmb30"}
 ,  {
 "placeName":
 "Hotel Hammerand",
 "ref":
 "pmb585"}
 ,  {
 "placeName":
 "Hütteldorf",
 "ref":
 "pmb271"}
 ,  {
 "placeName":
 "Neuwaldegg",
 "ref":
 "pmb170"}
 ]
}
}, {
 "type":
 "schnitzler-orte",
 "color":
 "#045344",
 "filename":
 "entity/50/",
 "caption":
 "Aufenthaltsorte",
 "idno":
 "https://pmb.acdh.oeaw.ac.at/entity/50/",
 "head":
 "Wien"
}, {
 "type":
 "schnitzler-bahr",
 "color":
 "#F9BD63",
 "filename":
 "L041449",
 "caption":
 "Schnitzler/Bahr",
 "idno":
 "https://schnitzler-bahr.acdh.oeaw.ac.at/L041449.html",
 "head":
 "Schnitzler an Hofmannsthal, 24. 9. 1904",
 "desc":
{"listPerson":
  [
{
 "persName":
 "Hugo von Hofmannsthal",
 "ref":
 "pmb11740"},
 {
 "persName":
 "Jakob Wassermann",
 "ref":
 "pmb13055"},
 {
 "persName":
 "Richard Beer-Hofmann",
 "ref":
 "pmb10863"},
 {
 "persName":
 "Hermann Bahr",
 "ref":
 "pmb10815"},
 {
 "persName":
 "Edgar von Karg-Bebenburg",
 "ref":
 "pmb2219"},
 {
 "persName":
 "Gertrude von Hofmannsthal",
 "ref":
 "pmb2292"},
 {
 "persName":
 "?? [Italienischlehrerin in Wien]",
 "ref":
 "pmb27705"},
 {
 "persName":
 "Hans Bernhard Schlesinger",
 "ref":
 "pmb24239"},
 {
 "persName":
 "Olga Schnitzler",
 "ref":
 "pmb2173"}],
 "listBibl":
  [
 {
 "title":
 "Die Jagd nach Liebe",
 "ref":
 "pmb31981"}
 ,  {
 "title":
 "Die Göttinnen oder Die drei Romane der Herzogin von Assy",
 "ref":
 "pmb31983"}
 ],
 "listPlace":
  [
 {
 "placeName":
 "Wien",
 "ref":
 "pmb50"}
 ,  {
 "placeName":
 "Badgasse",
 "ref":
 "pmb1006"}
 ,  {
 "placeName":
 "Rodaun",
 "ref":
 "pmb173"}
 ,  {
 "placeName":
 "XVIII., Währing",
 "ref":
 "pmb68"}
 ,  {
 "placeName":
 "Thüringen",
 "ref":
 "pmb432"}
 ,  {
 "placeName":
 "Hotel de l’Europe",
 "ref":
 "pmb34050"}
 ,  {
 "placeName":
 "Salzburg",
 "ref":
 "pmb30"}
 ,  {
 "placeName":
 "Hotel Hammerand",
 "ref":
 "pmb585"}
 ,  {
 "placeName":
 "Hütteldorf",
 "ref":
 "pmb271"}
 ,  {
 "placeName":
 "Neuwaldegg",
 "ref":
 "pmb170"}
 ]
}
}] 