[{
 "type":
 "schnitzler-tagebuch",
 "color":
 "#037a33",
 "filename":
 "entry__1904-09-07",
 "caption":
 "Tagebuch",
 "idno":
 "https://schnitzler-tagebuch.acdh.oeaw.ac.at/entry__1904-09-07.html",
 "head":
 "Tagebuch, 7. September 1904",
 "desc":
{"listPerson":
  [
{
 "persName":
 "Richard Beer-Hofmann",
 "ref":
 "person_13551"},
 {
 "persName":
 "Heinrich Mann",
 "ref":
 "person_17834"},
 {
 "persName":
 "Paula Beer-Hofmann",
 "ref":
 "person_13550"},
 {
 "persName":
 "Hugo von Hofmannsthal",
 "ref":
 "person_16293"}],
 "listBibl":
  [
 {
 "title":
 "Der Graf von Charolais. Ein Trauerspiel",
 "ref":
 "pmb30233"}
 ,  {
 "title":
 "Das gerettete Venedig. Trauerspiel in fünf Aufzügen",
 "ref":
 "pmb31091"}
 ,  {
 "title":
 "Die Jagd nach Liebe",
 "ref":
 "pmb31981"}
 ],
 "listPlace":
  [
 {
 "placeName":
 "Pass Lueg",
 "ref":
 "pmb91173"}
 ,  {
 "placeName":
 "Bad Aussee",
 "ref":
 "pmb415"}
 ,  {
 "placeName":
 "Südtirol",
 "ref":
 "pmb969"}
 ,  {
 "placeName":
 "Venedig",
 "ref":
 "pmb462"}
 ]
}
}, {
 "type":
 "schnitzler-briefe",
 "color":
 "#A63437",
 "filename":
 "L01438",
 "caption":
 "Briefe mit Autorinnen und Autoren",
 "idno":
 "https://schnitzler-briefe.acdh.oeaw.ac.at/L01438.html",
 "head":
 "Arthur Schnitzler, Olga Schnitzler, Hugo von (sen.) Hofmannsthal, Hugo Hofmannsthal, Max Burckhard, Gerty Hofmannsthal an Hermann Bahr, 7. 9. 1904",
 "desc":
{"listPerson":
  [
{
 "persName":
 "Olga Schnitzler",
 "ref":
 "pmb2173"},
 {
 "persName":
 "Hugo August von Hofmannsthal",
 "ref":
 "pmb11737"},
 {
 "persName":
 "Hugo von Hofmannsthal",
 "ref":
 "pmb11740"},
 {
 "persName":
 "Max Eugen Burckhard",
 "ref":
 "pmb11036"},
 {
 "persName":
 "Gertrude von Hofmannsthal",
 "ref":
 "pmb2292"},
 {
 "persName":
 "Hermann Bahr",
 "ref":
 "pmb10815"}],
 "listOrg":
  [
 {
 "orgName":
 "Stiegl-Brauerei",
 "ref":
 "pmb29547"}
 ],
 "listPlace":
  [
 {
 "placeName":
 "St. Gilgen",
 "ref":
 "pmb33"}
 ,  {
 "placeName":
 "Wien",
 "ref":
 "pmb50"}
 ,  {
 "placeName":
 "XIII., Hietzing",
 "ref":
 "pmb63"}
 ,  {
 "placeName":
 "Ober Sankt Veit",
 "ref":
 "pmb165"}
 ,  {
 "placeName":
 "Veitlissengasse",
 "ref":
 "pmb220"}
 ,  {
 "placeName":
 "Hotel und Pension Lueg",
 "ref":
 "pmb824"}
 ,  {
 "placeName":
 "Salzburg",
 "ref":
 "pmb30"}
 ]
}
}, {
 "type":
 "schnitzler-briefe",
 "color":
 "#A63437",
 "filename":
 "L01439",
 "caption":
 "Briefe mit Autorinnen und Autoren",
 "idno":
 "https://schnitzler-briefe.acdh.oeaw.ac.at/L01439.html",
 "head":
 "Arthur Schnitzler, Olga Schnitzler, Hugo von (sen.) Hofmannsthal, Hugo Hofmannsthal, Max Burckhard, Gerty Hofmannsthal an Gerhart Hauptmann, 7. 9. 1904",
 "desc":
{"listPerson":
  [
{
 "persName":
 "Olga Schnitzler",
 "ref":
 "pmb2173"},
 {
 "persName":
 "Hugo August von Hofmannsthal",
 "ref":
 "pmb11737"},
 {
 "persName":
 "Hugo von Hofmannsthal",
 "ref":
 "pmb11740"},
 {
 "persName":
 "Max Eugen Burckhard",
 "ref":
 "pmb11036"},
 {
 "persName":
 "Gertrude von Hofmannsthal",
 "ref":
 "pmb2292"},
 {
 "persName":
 "Gerhart Hauptmann",
 "ref":
 "pmb11617"}],
 "listOrg":
  [
 {
 "orgName":
 "Stiegl-Brauerei",
 "ref":
 "pmb29547"}
 ],
 "listPlace":
  [
 {
 "placeName":
 "St. Gilgen",
 "ref":
 "pmb33"}
 ,  {
 "placeName":
 "Agnetendorf",
 "ref":
 "pmb735"}
 ,  {
 "placeName":
 "Schlesien",
 "ref":
 "pmb1122"}
 ,  {
 "placeName":
 "Hotel und Pension Lueg",
 "ref":
 "pmb824"}
 ,  {
 "placeName":
 "Salzburg",
 "ref":
 "pmb30"}
 ,  {
 "placeName":
 "Bahn- und Dampfschiffstation",
 "ref":
 "pmb1150"}
 ]
}
}, {
 "type":
 "schnitzler-orte",
 "color":
 "#045344",
 "filename":
 "entity/91173/",
 "caption":
 "Aufenthaltsorte",
 "idno":
 "https://pmb.acdh.oeaw.ac.at/entity/91173/",
 "head":
 "Pass Lueg"
}, {
 "type":
 "schnitzler-orte",
 "color":
 "#045344",
 "filename":
 "entity/824/",
 "caption":
 "Aufenthaltsorte",
 "idno":
 "https://pmb.acdh.oeaw.ac.at/entity/824/",
 "head":
 "Hotel und Pension Lueg"
}, {
 "type":
 "schnitzler-bahr",
 "color":
 "#F9BD63",
 "filename":
 "L041073",
 "caption":
 "Schnitzler/Bahr",
 "idno":
 "https://schnitzler-bahr.acdh.oeaw.ac.at/L041073.html",
 "head":
 "Schnitzler u. a. an Bahr, 7. 9. 1904",
 "desc":
{"listPerson":
  [
{
 "persName":
 "Olga Schnitzler",
 "ref":
 "pmb2173"},
 {
 "persName":
 "Hugo August von Hofmannsthal",
 "ref":
 "pmb11737"},
 {
 "persName":
 "Hugo von Hofmannsthal",
 "ref":
 "pmb11740"},
 {
 "persName":
 "Max Eugen Burckhard",
 "ref":
 "pmb11036"},
 {
 "persName":
 "Hermann Bahr",
 "ref":
 "pmb10815"},
 {
 "persName":
 "Gertrude von Hofmannsthal",
 "ref":
 "pmb2292"}],
 "listPlace":
  [
 {
 "placeName":
 "St. Gilgen",
 "ref":
 "pmb33"}
 ,  {
 "placeName":
 "Wien",
 "ref":
 "pmb50"}
 ,  {
 "placeName":
 "Hotel und Pension Lueg",
 "ref":
 "pmb824"}
 ,  {
 "placeName":
 "Ober Sankt Veit",
 "ref":
 "pmb165"}
 ,  {
 "placeName":
 "Veitlissengasse",
 "ref":
 "pmb220"}
 ]
}
}, {
 "type":
 "schnitzler-cmif",
 "subtype":
 "#l25eefe1-afeb-4a14-b13f-25d15ae20e34",
 "color":
 "#654321",
 "caption":
 "Gedruckte Briefwechsel",
 "head":
 "Arthur Schnitzler, Olga Schnitzler, Hugo von
                  (sen.) Hofmannsthal, Hugo Hofmannsthal, Max Burckhard, Gerty Hofmannsthal an Hermann Bahr, 7. 9. 1904",
 "source":
 "Hugo und Gerty von Hofmannsthal - Hermann Bahr: Briefwechsel. 1891-1934. Hg. und kommentiert von Elsbeth Dangel-Pelloquin. Göttingen: Wallstein 2013."
}, {
 "type":
 "kalliope-verbund",
 "color":
 "#003574",
 "caption":
 "Kalliope Verbundkatalog",
 "idno":
 "http://kalliope-verbund.info/DE-611-HS-1912794",
 "head":
 "Brief von Hugo von Hofmannsthal, Gerty von Hofmannsthal, Hugo August Peter von Hofmannsthal, Arthur Schnitzler, Olga Schnitzler und Unbekannt an Gerhart Hauptmann",
 "text":
 "1 Postkarte, 1 Bl.",
 "desc":
{"listPerson":
  [
{
 "persName":
 "Hugo von (1874-1929) Hofmannsthal",
 "ref":
 "http://d-nb.info/gnd/118552759"},
 {
 "persName":
 "Gerhart (1862-1946) Hauptmann",
 "ref":
 "http://d-nb.info/gnd/118546937"},
 {
 "persName":
 "Gerty von (1880-1959) Hofmannsthal",
 "ref":
 "http://d-nb.info/gnd/116952199"},
 {
 "persName":
 "Hugo August Peter von (1841-1915) Hofmannsthal",
 "ref":
 "http://d-nb.info/gnd/116952202"},
 {
 "persName":
 "Arthur (1862-1931) Schnitzler",
 "ref":
 "http://d-nb.info/gnd/126794855"},
 {
 "persName":
 "Olga Schnitzler",
 "ref":
 "http://d-nb.info/gnd/116848723"},
 {
 "persName":
 "Unbekannt",
 "ref":
 "http://d-nb.info/gnd/128972920"}]
}
}] 