[{
 "type":
 "schnitzler-tagebuch",
 "color":
 "#037a33",
 "filename":
 "entry__1904-01-08",
 "caption":
 "Tagebuch",
 "idno":
 "https://schnitzler-tagebuch.acdh.oeaw.ac.at/entry__1904-01-08.html",
 "head":
 "Tagebuch, 8. Januar 1904"
}, {
 "type":
 "schnitzler-briefe",
 "color":
 "#A63437",
 "filename":
 "L01359",
 "caption":
 "Briefe mit Autorinnen und Autoren",
 "idno":
 "https://schnitzler-briefe.acdh.oeaw.ac.at/L01359.html",
 "head":
 "Arthur Schnitzler an Hermann Bahr, 8. 1. 1904",
 "desc":
{"listPerson":
  [
{
 "persName":
 "Hermann Bahr",
 "ref":
 "pmb10815"},
 {
 "persName":
 "Stephan Epstein",
 "ref":
 "pmb2199"},
 {
 "persName":
 "André Antoine",
 "ref":
 "pmb2211"},
 {
 "persName":
 "Henriette Estelle Epstein",
 "ref":
 "pmb15946"},
 {
 "persName":
 "Bernhard Hoetger",
 "ref":
 "pmb11723"},
 {
 "persName":
 "Olga Schnitzler",
 "ref":
 "pmb2173"}],
 "listPlace":
  [
 {
 "placeName":
 "Wien",
 "ref":
 "pmb50"}
 ,  {
 "placeName":
 "Edmund-Weiß-Gasse",
 "ref":
 "pmb133"}
 ,  {
 "placeName":
 "rue de l’Assomption",
 "ref":
 "pmb450"}
 ,  {
 "placeName":
 "Secession",
 "ref":
 "pmb7"}
 ,  {
 "placeName":
 "Paris",
 "ref":
 "pmb182"}
 ,  {
 "placeName":
 "Semmering",
 "ref":
 "pmb189"}
 ]
}
}, {
 "type":
 "schnitzler-briefe",
 "color":
 "#A63437",
 "filename":
 "L01360",
 "caption":
 "Briefe mit Autorinnen und Autoren",
 "idno":
 "https://schnitzler-briefe.acdh.oeaw.ac.at/L01360.html",
 "head":
 "Arthur Schnitzler an Franz Blei, 8. 1. 1904",
 "desc":
{"listPerson":
  [
{
 "persName":
 "Franz Blei",
 "ref":
 "pmb10955"},
 {
 "persName":
 "Alfred Bates",
 "ref":
 "pmb29140"}],
 "listBibl":
  [
 {
 "title":
 "Der grüne Kakadu. Groteske in einem Akt",
 "ref":
 "pmb29843"}
 ],
 "listOrg":
  [
 {
 "orgName":
 "William Heinemann Ltd",
 "ref":
 "pmb29553"}
 ,  {
 "orgName":
 "Die elf Scharfrichter",
 "ref":
 "pmb29779"}
 ],
 "listPlace":
  [
 {
 "placeName":
 "Wien",
 "ref":
 "pmb50"}
 ,  {
 "placeName":
 "Edmund-Weiß-Gasse",
 "ref":
 "pmb133"}
 ,  {
 "placeName":
 "England",
 "ref":
 "pmb254"}
 ,  {
 "placeName":
 "Hotel Savoy",
 "ref":
 "pmb1164"}
 ]
}
}, {
 "type":
 "schnitzler-briefe",
 "color":
 "#A63437",
 "filename":
 "L01361",
 "caption":
 "Briefe mit Autorinnen und Autoren",
 "idno":
 "https://schnitzler-briefe.acdh.oeaw.ac.at/L01361.html",
 "head":
 "Hugo von Hofmannsthal an Arthur Schnitzler, [8.–9. 1. 1904]",
 "desc":
{"listPerson":
  [
{
 "persName":
 "Hugo von Hofmannsthal",
 "ref":
 "pmb11740"},
 {
 "persName":
 "Hermann Bahr",
 "ref":
 "pmb10815"},
 {
 "persName":
 "Norbert von Ortner-Rodenstätt",
 "ref":
 "pmb2216"},
 {
 "persName":
 "Rosa Bahr",
 "ref":
 "pmb13682"},
 {
 "persName":
 "Julius Schnitzler",
 "ref":
 "pmb12698"},
 {
 "persName":
 "Gertrude von Hofmannsthal",
 "ref":
 "pmb2292"}],
 "listPlace":
  [
 {
 "placeName":
 "Wien",
 "ref":
 "pmb50"}
 ,  {
 "placeName":
 "Sanatorium Schloss Marbach am Bodensee",
 "ref":
 "pmb219"}
 ,  {
 "placeName":
 "Edlach",
 "ref":
 "pmb470"}
 ]
}
}, {
 "type":
 "schnitzler-orte",
 "color":
 "#045344",
 "filename":
 "entity/50/",
 "caption":
 "Aufenthaltsorte",
 "idno":
 "https://pmb.acdh.oeaw.ac.at/entity/50/",
 "head":
 "Wien"
}, {
 "type":
 "schnitzler-bahr",
 "color":
 "#F9BD63",
 "filename":
 "L041068",
 "caption":
 "Schnitzler/Bahr",
 "idno":
 "https://schnitzler-bahr.acdh.oeaw.ac.at/L041068.html",
 "head":
 "Schnitzler an Bahr, 8. 1. 1904",
 "desc":
{"listPerson":
  [
{
 "persName":
 "Hermann Bahr",
 "ref":
 "pmb10815"},
 {
 "persName":
 "Stephan Epstein",
 "ref":
 "pmb2199"},
 {
 "persName":
 "André Antoine",
 "ref":
 "pmb2211"},
 {
 "persName":
 "Henriette Estelle Epstein",
 "ref":
 "pmb15946"},
 {
 "persName":
 "Bernhard Hoetger",
 "ref":
 "pmb11723"},
 {
 "persName":
 "Olga Schnitzler",
 "ref":
 "pmb2173"}],
 "listPlace":
  [
 {
 "placeName":
 "Wien",
 "ref":
 "pmb50"}
 ,  {
 "placeName":
 "Edmund-Weiß-Gasse",
 "ref":
 "pmb133"}
 ,  {
 "placeName":
 "rue de l’Assomption",
 "ref":
 "pmb450"}
 ,  {
 "placeName":
 "Secession",
 "ref":
 "pmb7"}
 ,  {
 "placeName":
 "Paris",
 "ref":
 "pmb182"}
 ,  {
 "placeName":
 "Semmering",
 "ref":
 "pmb189"}
 ]
}
}, {
 "type":
 "schnitzler-bahr",
 "color":
 "#F9BD63",
 "filename":
 "L041446",
 "caption":
 "Schnitzler/Bahr",
 "idno":
 "https://schnitzler-bahr.acdh.oeaw.ac.at/L041446.html",
 "head":
 "Hofmannsthal an Schnitzler, [8.–9. 1. 1904]",
 "desc":
{"listPerson":
  [
{
 "persName":
 "Hugo von Hofmannsthal",
 "ref":
 "pmb11740"},
 {
 "persName":
 "Hermann Bahr",
 "ref":
 "pmb10815"},
 {
 "persName":
 "Norbert von Ortner-Rodenstätt",
 "ref":
 "pmb2216"},
 {
 "persName":
 "Rosa Bahr",
 "ref":
 "pmb13682"},
 {
 "persName":
 "Julius Schnitzler",
 "ref":
 "pmb12698"}],
 "listPlace":
  [
 {
 "placeName":
 "Wien",
 "ref":
 "pmb50"}
 ,  {
 "placeName":
 "Sanatorium Schloss Marbach am Bodensee",
 "ref":
 "pmb219"}
 ,  {
 "placeName":
 "Edlach",
 "ref":
 "pmb470"}
 ]
}
}] 