[{
 "type":
 "schnitzler-tagebuch",
 "color":
 "#037a33",
 "filename":
 "entry__1904-02-10",
 "caption":
 "Tagebuch",
 "idno":
 "https://schnitzler-tagebuch.acdh.oeaw.ac.at/entry__1904-02-10.html",
 "head":
 "Tagebuch, 10. Februar 1904",
 "desc":
{"listPerson":
  [
{
 "persName":
 "Paul Goldmann",
 "ref":
 "person_15529"},
 {
 "persName":
 "Alfred Kerr",
 "ref":
 "person_16819"},
 {
 "persName":
 "Paul Marx",
 "ref":
 "person_17958"},
 {
 "persName":
 "Elisabeth Steinrück",
 "ref":
 "person_20386"},
 {
 "persName":
 "Samuel Fischer",
 "ref":
 "person_15009"}],
 "listBibl":
  [
 {
 "title":
 "Der einsame Weg. Schauspiel in fünf Akten",
 "ref":
 "pmb29985"}
 ,  {
 "title":
 "Rose Bernd. Schauspiel in fünf Akten",
 "ref":
 "pmb31317"}
 ]
}
}, {
 "type":
 "schnitzler-briefe",
 "color":
 "#A63437",
 "filename":
 "L01371",
 "caption":
 "Briefe mit Autorinnen und Autoren",
 "idno":
 "https://schnitzler-briefe.acdh.oeaw.ac.at/L01371.html",
 "head":
 "Arthur Schnitzler an Hermann Bahr, [10.] 2. 1904",
 "desc":
{"listPerson":
  [
{
 "persName":
 "Hermann Bahr",
 "ref":
 "pmb10815"}],
 "listBibl":
  [
 {
 "title":
 "Der einsame Weg. Schauspiel in fünf Akten",
 "ref":
 "pmb29985"}
 ],
 "listOrg":
  [
 {
 "orgName":
 "S. Fischer Verlag",
 "ref":
 "pmb29639"}
 ],
 "listPlace":
  [
 {
 "placeName":
 "Berlin",
 "ref":
 "pmb168"}
 ,  {
 "placeName":
 "Wien",
 "ref":
 "pmb50"}
 ]
}
}, {
 "type":
 "schnitzler-orte",
 "color":
 "#045344",
 "filename":
 "entity/168/",
 "caption":
 "Aufenthaltsorte",
 "idno":
 "https://pmb.acdh.oeaw.ac.at/entity/168/",
 "head":
 "Berlin"
}, {
 "type":
 "schnitzler-bahr",
 "color":
 "#F9BD63",
 "filename":
 "L041685",
 "caption":
 "Schnitzler/Bahr",
 "idno":
 "https://schnitzler-bahr.acdh.oeaw.ac.at/L041685.html",
 "head":
 "Schnitzler: Widmungsexemplar Der einsame Weg, [10.] 2. 1904",
 "desc":
{"listPerson":
  [
{
 "persName":
 "Hermann Bahr",
 "ref":
 "pmb10815"}],
 "listBibl":
  [
 {
 "title":
 "Der einsame Weg. Schauspiel in fünf Akten",
 "ref":
 "pmb29985"}
 ],
 "listPlace":
  [
 {
 "placeName":
 "Berlin",
 "ref":
 "pmb168"}
 ],
 "listOrg":
  [
 {
 "orgName":
 "S. Fischer Verlag",
 "ref":
 "pmb29639"}
 ]
}
}, {
 "type":
 "schnitzler-bahr",
 "color":
 "#F9BD63",
 "filename":
 "L041696",
 "caption":
 "Schnitzler/Bahr",
 "idno":
 "https://schnitzler-bahr.acdh.oeaw.ac.at/L041696.html",
 "head":
 "W. Fred an Bahr, 10. 2. 1904",
 "desc":
{"listPerson":
  [
{
 "persName":
 "W. Fred",
 "ref":
 "pmb2226"},
 {
 "persName":
 "Hermann Bahr",
 "ref":
 "pmb10815"},
 {
 "persName":
 "Norbert von Ortner-Rodenstätt",
 "ref":
 "pmb2216"},
 {
 "persName":
 "Hugo von Hofmannsthal",
 "ref":
 "pmb11740"},
 {
 "persName":
 "Jenny Rauch",
 "ref":
 "pmb28205"},
 {
 "persName":
 "Maria Dörmann",
 "ref":
 "pmb20522"},
 {
 "persName":
 "Felix Dörmann",
 "ref":
 "pmb2425"},
 {
 "persName":
 "Ernst Hardt",
 "ref":
 "pmb11585"},
 {
 "persName":
 "Napoleon Bonaparte",
 "ref":
 "pmb4769"}],
 "listPlace":
  [
 {
 "placeName":
 "Berlin",
 "ref":
 "pmb168"}
 ,  {
 "placeName":
 "Marbach am Bodensee",
 "ref":
 "pmb218"}
 ,  {
 "placeName":
 "Meierottostraße",
 "ref":
 "pmb1009"}
 ,  {
 "placeName":
 "Wien",
 "ref":
 "pmb50"}
 ,  {
 "placeName":
 "Opatija",
 "ref":
 "pmb38096"}
 ,  {
 "placeName":
 "Capri",
 "ref":
 "pmb919"}
 ,  {
 "placeName":
 "Amalfi",
 "ref":
 "pmb1010"}
 ,  {
 "placeName":
 "Sorrent",
 "ref":
 "pmb629"}
 ,  {
 "placeName":
 "Spanien",
 "ref":
 "pmb388"}
 ,  {
 "placeName":
 "Sizilien",
 "ref":
 "pmb451"}
 ,  {
 "placeName":
 "Istanbul",
 "ref":
 "pmb966"}
 ,  {
 "placeName":
 "Italien",
 "ref":
 "pmb40306"}
 ]
}
}, {
 "type":
 "pmb",
 "color":
 "#9B5F98",
 "filename":
 "entity/63365/",
 "caption":
 "PMB",
 "idno":
 "https://pmb.acdh.oeaw.ac.at/entity/63365/",
 "head":
 "Aufführung von Rose Bernd, 10.2.1904",
 "desc":
{"listBibl":
  [
 {
 "title":
 "Rose Bernd. Schauspiel in fünf Akten",
 "ref":
 "pmb31317"}
 ],
 "listPerson":
  [
{
 "persName":
 "Olga Schnitzler",
 "ref":
 "pmb2173"},
 {
 "persName":
 "Elisabeth Steinrück",
 "ref":
 "pmb2315"}],
 "listPlace":
  [
 {
 "placeName":
 "Deutsches Theater Berlin",
 "ref":
 "pmb3"}
 ],
 "listOrg":
  [
 {
 "orgName":
 "Deutsches Theater Berlin",
 "ref":
 "pmb35597"}
 ]
}
}] 