[{
 "type":
 "schnitzler-tagebuch",
 "color":
 "#037a33",
 "filename":
 "entry__1904-10-02",
 "caption":
 "Tagebuch",
 "idno":
 "https://schnitzler-tagebuch.acdh.oeaw.ac.at/entry__1904-10-02.html",
 "head":
 "Tagebuch, 2. Oktober 1904",
 "desc":
{"listPerson":
  [
{
 "persName":
 "George Gordon Noël Lord Byron",
 "ref":
 "person_14101"},
 {
 "persName":
 "Heinrich Schnitzler",
 "ref":
 "person_19822"},
 {
 "persName":
 "Louise Schnitzler",
 "ref":
 "person_19831"},
 {
 "persName":
 "Leo Van-Jung",
 "ref":
 "person_20925"},
 {
 "persName":
 "Anna Donath",
 "ref":
 "person_14481"},
 {
 "persName":
 "Fanny Lubelsky",
 "ref":
 "person_17709"}],
 "listBibl":
  [
 {
 "title":
 "Zwischenspiel. Komödie in drei Akten",
 "ref":
 "pmb29903"}
 ,  {
 "title":
 "Tagebücher und Briefe",
 "ref":
 "pmb77466"}
 ],
 "listPlace":
  [
 {
 "placeName":
 "Döbling",
 "ref":
 "pmb64219"}
 ]
}
}, {
 "type":
 "schnitzler-briefe",
 "color":
 "#A63437",
 "filename":
 "L01451",
 "caption":
 "Briefe mit Autorinnen und Autoren",
 "idno":
 "https://schnitzler-briefe.acdh.oeaw.ac.at/L01451.html",
 "head":
 "Arthur Schnitzler an Hugo von Hofmannsthal, 2. 10. 1904",
 "desc":
{"listPerson":
  [
{
 "persName":
 "Hugo von Hofmannsthal",
 "ref":
 "pmb11740"},
 {
 "persName":
 "Eleonora Duse",
 "ref":
 "pmb11201"},
 {
 "persName":
 "Georges Feydeau",
 "ref":
 "pmb2931"}],
 "listBibl":
  [
 {
 "title":
 "Die Kameliendame. Drama in fünf Akten",
 "ref":
 "pmb30641"}
 ,  {
 "title":
 "Heinrich V.",
 "ref":
 "pmb41439"}
 ,  {
 "title":
 "Herzogin Crevette. Schauspiel in fünf Acten",
 "ref":
 "pmb30643"}
 ,  {
 "title":
 "Entweder – Oder",
 "ref":
 "pmb39937"}
 ,  {
 "title":
 "Kunst und Künstler",
 "ref":
 "pmb39939"}
 ],
 "listOrg":
  [
 {
 "orgName":
 "Theater an der Wien",
 "ref":
 "pmb36996"}
 ],
 "listPlace":
  [
 {
 "placeName":
 "XVIII., Währing",
 "ref":
 "pmb68"}
 ,  {
 "placeName":
 "Rodaun",
 "ref":
 "pmb173"}
 ,  {
 "placeName":
 "Wien",
 "ref":
 "pmb50"}
 ,  {
 "placeName":
 "Badgasse",
 "ref":
 "pmb1006"}
 ,  {
 "placeName":
 "Burgtheater",
 "ref":
 "pmb14"}
 ,  {
 "placeName":
 "Theater in der Josefstadt",
 "ref":
 "pmb40"}
 ,  {
 "placeName":
 "XIII., Hietzing",
 "ref":
 "pmb63"}
 ]
}
}, {
 "type":
 "schnitzler-orte",
 "color":
 "#045344",
 "filename":
 "entity/50/",
 "caption":
 "Aufenthaltsorte",
 "idno":
 "https://pmb.acdh.oeaw.ac.at/entity/50/",
 "head":
 "Wien"
}] 