[{
 "type":
 "schnitzler-tagebuch",
 "color":
 "#037a33",
 "filename":
 "entry__1904-06-02",
 "caption":
 "Tagebuch",
 "idno":
 "https://schnitzler-tagebuch.acdh.oeaw.ac.at/entry__1904-06-02.html",
 "head":
 "Tagebuch, 2. Juni 1904",
 "desc":
{"listPerson":
  [
{
 "persName":
 "Oskar Hornung",
 "ref":
 "person_16376"},
 {
 "persName":
 "Karl Kraus",
 "ref":
 "person_17108"},
 {
 "persName":
 "Detlev von Liliencron",
 "ref":
 "person_17547"},
 {
 "persName":
 "Helene Schnitzler",
 "ref":
 "person_19823"},
 {
 "persName":
 "Hermann Bahr",
 "ref":
 "person_13374"},
 {
 "persName":
 "Adolph Donath",
 "ref":
 "person_14480"},
 {
 "persName":
 "Hugo von Hofmannsthal",
 "ref":
 "person_16293"}],
 "listBibl":
  [
 {
 "title":
 "Der einsame Weg. Schauspiel in fünf Akten",
 "ref":
 "pmb29985"}
 ,  {
 "title":
 "Österreichische Dichter zum 60. Geburtstage Detlev von Liliencrons",
 "ref":
 "pmb32840"}
 ,  {
 "title":
 "Die Fackel",
 "ref":
 "pmb41244"}
 ],
 "listPlace":
  [
 {
 "placeName":
 "Ober-Sankt-Veit",
 "ref":
 "pmb91377"}
 ,  {
 "placeName":
 "Marbach an der Donau",
 "ref":
 "pmb91203"}
 ,  {
 "placeName":
 "Athen",
 "ref":
 "pmb505"}
 ,  {
 "placeName":
 "Rodaun",
 "ref":
 "pmb173"}
 ]
}
}, {
 "type":
 "schnitzler-briefe",
 "color":
 "#A63437",
 "filename":
 "L01404",
 "caption":
 "Briefe mit Autorinnen und Autoren",
 "idno":
 "https://schnitzler-briefe.acdh.oeaw.ac.at/L01404.html",
 "head":
 "Arthur Schnitzler an Richard Beer-Hofmann, 2. 6. 1904",
 "desc":
{"listPerson":
  [
{
 "persName":
 "Richard Beer-Hofmann",
 "ref":
 "pmb10863"},
 {
 "persName":
 "Hermann Bahr",
 "ref":
 "pmb10815"}],
 "listPlace":
  [
 {
 "placeName":
 "Rodaun",
 "ref":
 "pmb173"}
 ,  {
 "placeName":
 "Wien",
 "ref":
 "pmb50"}
 ,  {
 "placeName":
 "Liesingerstraße",
 "ref":
 "pmb40101"}
 ,  {
 "placeName":
 "XIII., Hietzing",
 "ref":
 "pmb63"}
 ,  {
 "placeName":
 "Ottakringer Bräu",
 "ref":
 "pmb304"}
 ]
}
}, {
 "type":
 "schnitzler-orte",
 "color":
 "#045344",
 "filename":
 "entity/50/",
 "caption":
 "Aufenthaltsorte",
 "idno":
 "https://pmb.acdh.oeaw.ac.at/entity/50/",
 "head":
 "Wien"
}, {
 "type":
 "schnitzler-bahr",
 "color":
 "#F9BD63",
 "filename":
 "D041460",
 "caption":
 "Schnitzler/Bahr",
 "idno":
 "https://schnitzler-bahr.acdh.oeaw.ac.at/D041460.html",
 "head":
 "Aufzeichnung von Bahr, 2. 6. 1904",
 "desc":
{"listPerson":
  [
{
 "persName":
 "Hermann Bahr",
 "ref":
 "pmb10815"},
 {
 "persName":
 "Richard Specht",
 "ref":
 "pmb2456"},
 {
 "persName":
 "Friedrich Hebbel",
 "ref":
 "pmb2404"}],
 "listBibl":
  [
 {
 "title":
 "Ausgewählte Werke in sechs Bänden",
 "ref":
 "pmb31135"}
 ]
}
}, {
 "type":
 "schnitzler-bahr",
 "color":
 "#F9BD63",
 "filename":
 "D041229",
 "caption":
 "Schnitzler/Bahr",
 "idno":
 "https://schnitzler-bahr.acdh.oeaw.ac.at/D041229.html",
 "head":
 "Tagebuch von Schnitzler, 2. 6. 1904",
 "desc":
{"listPerson":
  [
{
 "persName":
 "Hermann Bahr",
 "ref":
 "pmb10815"},
 {
 "persName":
 "Oskar Hornung",
 "ref":
 "pmb18548"},
 {
 "persName":
 "Hugo von Hofmannsthal",
 "ref":
 "pmb11740"},
 {
 "persName":
 "Adolph Donath",
 "ref":
 "pmb2968"},
 {
 "persName":
 "Detlev von Liliencron",
 "ref":
 "pmb12071"},
 {
 "persName":
 "Karl Kraus",
 "ref":
 "pmb11988"},
 {
 "persName":
 "Olga Schnitzler",
 "ref":
 "pmb2173"},
 {
 "persName":
 "Helene Schnitzler",
 "ref":
 "pmb24423"}],
 "listBibl":
  [
 {
 "title":
 "Zur Liliencron-Feier",
 "ref":
 "pmb32750"}
 ,  {
 "title":
 "Der einsame Weg. Schauspiel in fünf Akten",
 "ref":
 "pmb29985"}
 ],
 "listPlace":
  [
 {
 "placeName":
 "Ober Sankt Veit",
 "ref":
 "pmb165"}
 ,  {
 "placeName":
 "Marbach am Bodensee",
 "ref":
 "pmb218"}
 ,  {
 "placeName":
 "Athen",
 "ref":
 "pmb505"}
 ,  {
 "placeName":
 "Rodaun",
 "ref":
 "pmb173"}
 ],
 "listOrg":
  [
 {
 "orgName":
 "Die Fackel",
 "ref":
 "pmb29308"}
 ]
}
}, {
 "type":
 "schnitzler-cmif",
 "subtype":
 "#j7685005-64da-4e31-99b6-b4641aa1628c",
 "color":
 "#654321",
 "caption":
 "Gedruckte Briefwechsel",
 "head":
 "Arthur Schnitzler an Karl Vollmoeller, 2. 6. 1904",
 "source":
 "Arthur Schnitzler: Briefe 1875–1912. Hrsg. v. Therese Nickl u. Heinrich Schnitzler. Frankfurt am Main: S. Fischer 1981."
}] 