[{
 "type":
 "schnitzler-tagebuch",
 "color":
 "#037a33",
 "filename":
 "entry__1904-02-29",
 "caption":
 "Tagebuch",
 "idno":
 "https://schnitzler-tagebuch.acdh.oeaw.ac.at/entry__1904-02-29.html",
 "head":
 "Tagebuch, 29. Februar 1904",
 "desc":
{"listPerson":
  [
{
 "persName":
 "Gisela Hajek",
 "ref":
 "person_15854"}],
 "listBibl":
  [
 {
 "title":
 "Die seltsame Umarmung",
 "ref":
 "pmb33800"}
 ]
}
}, {
 "type":
 "schnitzler-orte",
 "color":
 "#045344",
 "filename":
 "entity/50/",
 "caption":
 "Aufenthaltsorte",
 "idno":
 "https://pmb.acdh.oeaw.ac.at/entity/50/",
 "head":
 "Wien"
}, {
 "type":
 "schnitzler-bahr",
 "color":
 "#F9BD63",
 "filename":
 "L041568",
 "caption":
 "Schnitzler/Bahr",
 "idno":
 "https://schnitzler-bahr.acdh.oeaw.ac.at/L041568.html",
 "head":
 "Josef Redlich an Bahr, 29. 2. 1904",
 "desc":
{"listPerson":
  [
{
 "persName":
 "Josef Redlich",
 "ref":
 "pmb12481"},
 {
 "persName":
 "Hermann Bahr",
 "ref":
 "pmb10815"},
 {
 "persName":
 "Rudolf Lothar",
 "ref":
 "pmb2570"},
 {
 "persName":
 "Alice Leo",
 "ref":
 "pmb28111"},
 {
 "persName":
 "Siegfried Trebitsch",
 "ref":
 "pmb12968"},
 {
 "persName":
 "Sigmund Trebitsch",
 "ref":
 "pmb4544"},
 {
 "persName":
 "Henrik Ibsen",
 "ref":
 "pmb11798"},
 {
 "persName":
 "Moriz Benedikt",
 "ref":
 "pmb10875"},
 {
 "persName":
 "Wilhelm Singer",
 "ref":
 "pmb2202"},
 {
 "persName":
 "Friedrich III. von Preussen",
 "ref":
 "pmb4680"},
 {
 "persName":
 "Rosa Bahr",
 "ref":
 "pmb13682"}],
 "listBibl":
  [
 {
 "title":
 "Rose Bernd. Schauspiel in fünf Akten",
 "ref":
 "pmb31317"}
 ,  {
 "title":
 "Das Gitterbett",
 "ref":
 "pmb31715"}
 ,  {
 "title":
 "Der einsame Weg. Schauspiel in fünf Akten",
 "ref":
 "pmb29985"}
 ,  {
 "title":
 "Anatol",
 "ref":
 "pmb29935"}
 ],
 "listPlace":
  [
 {
 "placeName":
 "Wien",
 "ref":
 "pmb50"}
 ,  {
 "placeName":
 "Rooseveltplatz",
 "ref":
 "pmb721"}
 ,  {
 "placeName":
 "Opatija",
 "ref":
 "pmb38096"}
 ,  {
 "placeName":
 "Korfu",
 "ref":
 "pmb41212"}
 ,  {
 "placeName":
 "England",
 "ref":
 "pmb254"}
 ,  {
 "placeName":
 "Rom",
 "ref":
 "pmb445"}
 ,  {
 "placeName":
 "Actium",
 "ref":
 "pmb961"}
 ,  {
 "placeName":
 "Venedig",
 "ref":
 "pmb462"}
 ,  {
 "placeName":
 "Berlin",
 "ref":
 "pmb168"}
 ,  {
 "placeName":
 "Fichtegasse",
 "ref":
 "pmb716"}
 ,  {
 "placeName":
 "Japan",
 "ref":
 "pmb318"}
 ,  {
 "placeName":
 "Europa",
 "ref":
 "pmb468"}
 ,  {
 "placeName":
 "Paris",
 "ref":
 "pmb182"}
 ,  {
 "placeName":
 "London",
 "ref":
 "pmb224"}
 ],
 "listOrg":
  [
 {
 "orgName":
 "Die Zeit",
 "ref":
 "pmb29626"}
 ]
}
}, {
 "type":
 "kalliope-verbund",
 "color":
 "#003574",
 "caption":
 "Kalliope Verbundkatalog",
 "idno":
 "http://kalliope-verbund.info/DE-2498-HS00071966",
 "head":
 "Schultz, Grete an Schnitzler, Arthur [Briefe]",
 "text":
 "2 Bl."
}] 