[{
 "type":
 "schnitzler-tagebuch",
 "color":
 "#037a33",
 "filename":
 "entry__1904-09-03",
 "caption":
 "Tagebuch",
 "idno":
 "https://schnitzler-tagebuch.acdh.oeaw.ac.at/entry__1904-09-03.html",
 "head":
 "Tagebuch, 3. September 1904",
 "desc":
{"listPerson":
  [
{
 "persName":
 "Gertrude von Hofmannsthal",
 "ref":
 "person_16292"},
 {
 "persName":
 "Felix Salten",
 "ref":
 "person_19542"},
 {
 "persName":
 "Hugo August von Hofmannsthal",
 "ref":
 "person_16294"},
 {
 "persName":
 "Hugo von Hofmannsthal",
 "ref":
 "person_16293"},
 {
 "persName":
 "Géza von Mattachich",
 "ref":
 "person_17976"},
 {
 "persName":
 "Luise von Sachsen-Coburg und Gotha",
 "ref":
 "person_19513"}],
 "listPlace":
  [
 {
 "placeName":
 "Bad Ischl",
 "ref":
 "pmb213"}
 ,  {
 "placeName":
 "Paris",
 "ref":
 "pmb182"}
 ,  {
 "placeName":
 "Elster",
 "ref":
 "pmb90583"}
 ]
}
}, {
 "type":
 "schnitzler-briefe",
 "color":
 "#A63437",
 "filename":
 "L01434",
 "caption":
 "Briefe mit Autorinnen und Autoren",
 "idno":
 "https://schnitzler-briefe.acdh.oeaw.ac.at/L01434.html",
 "head":
 "Richard Beer-Hofmann an Arthur Schnitzler, 3. 9. 1904",
 "desc":
{"listPerson":
  [
{
 "persName":
 "Richard Beer-Hofmann",
 "ref":
 "pmb10863"},
 {
 "persName":
 "Olga Schnitzler",
 "ref":
 "pmb2173"}],
 "listBibl":
  [
 {
 "title":
 "Der Graf von Charolais. Ein Trauerspiel",
 "ref":
 "pmb30233"}
 ],
 "listPlace":
  [
 {
 "placeName":
 "Bad Aussee",
 "ref":
 "pmb415"}
 ,  {
 "placeName":
 "Bad Ischl",
 "ref":
 "pmb213"}
 ,  {
 "placeName":
 "Lueg am Wolfgangsee",
 "ref":
 "pmb186"}
 ]
}
}, {
 "type":
 "schnitzler-briefe",
 "color":
 "#A63437",
 "filename":
 "L01435",
 "caption":
 "Briefe mit Autorinnen und Autoren",
 "idno":
 "https://schnitzler-briefe.acdh.oeaw.ac.at/L01435.html",
 "head":
 "Arthur Schnitzler an Richard Beer-Hofmann, 3. 9. 1904",
 "desc":
{"listPerson":
  [
{
 "persName":
 "Richard Beer-Hofmann",
 "ref":
 "pmb10863"},
 {
 "persName":
 "Johann Georg Haager",
 "ref":
 "pmb17660"},
 {
 "persName":
 "Hugo von Hofmannsthal",
 "ref":
 "pmb11740"},
 {
 "persName":
 "Gertrude von Hofmannsthal",
 "ref":
 "pmb2292"},
 {
 "persName":
 "Olga Schnitzler",
 "ref":
 "pmb2173"}],
 "listBibl":
  [
 {
 "title":
 "Der Graf von Charolais. Ein Trauerspiel",
 "ref":
 "pmb30233"}
 ],
 "listOrg":
  [
 {
 "orgName":
 "Anton Drehers Brauereien",
 "ref":
 "pmb47692"}
 ],
 "listPlace":
  [
 {
 "placeName":
 "Bad Ischl",
 "ref":
 "pmb213"}
 ,  {
 "placeName":
 "Bad Aussee",
 "ref":
 "pmb415"}
 ,  {
 "placeName":
 "Hotel Kaiserkrone",
 "ref":
 "pmb655"}
 ,  {
 "placeName":
 "Villa Frühling",
 "ref":
 "pmb47674"}
 ,  {
 "placeName":
 "Kaiservilla",
 "ref":
 "pmb47678"}
 ,  {
 "placeName":
 "Schwechat",
 "ref":
 "pmb42535"}
 ,  {
 "placeName":
 "Lueg am Wolfgangsee",
 "ref":
 "pmb186"}
 ,  {
 "placeName":
 "Salzburg",
 "ref":
 "pmb30"}
 ,  {
 "placeName":
 "Bade-Hotel Elisabeth",
 "ref":
 "pmb45036"}
 ,  {
 "placeName":
 "Hotel und Pension Lueg",
 "ref":
 "pmb824"}
 ,  {
 "placeName":
 "St. Gilgen",
 "ref":
 "pmb33"}
 ]
}
}, {
 "type":
 "schnitzler-orte",
 "color":
 "#045344",
 "filename":
 "entity/50/",
 "caption":
 "Aufenthaltsorte",
 "idno":
 "https://pmb.acdh.oeaw.ac.at/entity/50/",
 "head":
 "Wien"
}, {
 "type":
 "schnitzler-orte",
 "color":
 "#045344",
 "filename":
 "entity/213/",
 "caption":
 "Aufenthaltsorte",
 "idno":
 "https://pmb.acdh.oeaw.ac.at/entity/213/",
 "head":
 "Bad Ischl"
}, {
 "type":
 "schnitzler-orte",
 "color":
 "#045344",
 "filename":
 "entity/655/",
 "caption":
 "Aufenthaltsorte",
 "idno":
 "https://pmb.acdh.oeaw.ac.at/entity/655/",
 "head":
 "Hotel Kaiserkrone"
}, {
 "type":
 "schnitzler-bahr",
 "color":
 "#F9BD63",
 "filename":
 "L041493",
 "caption":
 "Schnitzler/Bahr",
 "idno":
 "https://schnitzler-bahr.acdh.oeaw.ac.at/L041493.html",
 "head":
 "Bahr an Gerty von Hofmannsthal, 3. 9. 1904",
 "desc":
{"listPerson":
  [
{
 "persName":
 "Hermann Bahr",
 "ref":
 "pmb10815"},
 {
 "persName":
 "Gertrude von Hofmannsthal",
 "ref":
 "pmb2292"},
 {
 "persName":
 "Hugo von Hofmannsthal",
 "ref":
 "pmb11740"},
 {
 "persName":
 "Olga Schnitzler",
 "ref":
 "pmb2173"}],
 "listBibl":
  [
 {
 "title":
 "Das gerettete Venedig. Trauerspiel in fünf Aufzügen",
 "ref":
 "pmb31091"}
 ],
 "listPlace":
  [
 {
 "placeName":
 "Wien",
 "ref":
 "pmb50"}
 ,  {
 "placeName":
 "Linz",
 "ref":
 "pmb332"}
 ,  {
 "placeName":
 "Ottakringer Bräu",
 "ref":
 "pmb304"}
 ]
}
}, {
 "type":
 "schnitzler-traeume",
 "subtype":
 "#ISBN978-3-8353-1029-2",
 "color":
 "#1193CC",
 "caption":
 "Traumtagebuch",
 "head":
 "Traum vom 03. September 1904",
 "source":
 "Arthur Schnitzler: Träume. Das Traumtagebuch 1875–1931. Herausgegeben von Peter Michael Braunwarth und Leo A. Lensing. Göttingen: Wallstein 2012 (Bibliothek Janowitz, Bd. 20)"
}] 