[{
 "type":
 "schnitzler-tagebuch",
 "color":
 "#037a33",
 "filename":
 "entry__1905-10-03",
 "caption":
 "Tagebuch",
 "idno":
 "https://schnitzler-tagebuch.acdh.oeaw.ac.at/entry__1905-10-03.html",
 "head":
 "Tagebuch, 3. Oktober 1905",
 "desc":
{"listPerson":
  [
{
 "persName":
 "Johann Sebastian Bach",
 "ref":
 "person_13344"},
 {
 "persName":
 "Josef Kainz",
 "ref":
 "person_16646"},
 {
 "persName":
 "Johann Ress",
 "ref":
 "person_19197"},
 {
 "persName":
 "Louise Schnitzler",
 "ref":
 "person_19831"},
 {
 "persName":
 "Otto Tressler",
 "ref":
 "person_20803"},
 {
 "persName":
 "Lotte Witt",
 "ref":
 "person_21403"},
 {
 "persName":
 "Franziska Mütter",
 "ref":
 "person_18320"}],
 "listBibl":
  [
 {
 "title":
 "Zwischenspiel. Komödie in drei Akten",
 "ref":
 "pmb29903"}
 ],
 "listPlace":
  [
 {
 "placeName":
 "VIII., Josefstadt",
 "ref":
 "pmb58"}
 ]
}
}, {
 "type":
 "schnitzler-briefe",
 "color":
 "#A63437",
 "filename":
 "L01554",
 "caption":
 "Briefe mit Autorinnen und Autoren",
 "idno":
 "https://schnitzler-briefe.acdh.oeaw.ac.at/L01554.html",
 "head":
 "Arthur Schnitzler an Hermann Bahr, 3. 10. 1905",
 "desc":
{"listPerson":
  [
{
 "persName":
 "Hermann Bahr",
 "ref":
 "pmb10815"}],
 "listBibl":
  [
 {
 "title":
 "Der Ruf des Lebens. Schauspiel in drei Akten",
 "ref":
 "pmb29905"}
 ],
 "listPlace":
  [
 {
 "placeName":
 "XVIII., Währing",
 "ref":
 "pmb68"}
 ,  {
 "placeName":
 "XIII., Hietzing",
 "ref":
 "pmb63"}
 ,  {
 "placeName":
 "Wien",
 "ref":
 "pmb50"}
 ,  {
 "placeName":
 "Ober Sankt Veit",
 "ref":
 "pmb165"}
 ,  {
 "placeName":
 "Veitlissengasse",
 "ref":
 "pmb220"}
 ]
}
}, {
 "type":
 "schnitzler-briefe",
 "color":
 "#A63437",
 "filename":
 "L01555",
 "caption":
 "Briefe mit Autorinnen und Autoren",
 "idno":
 "https://schnitzler-briefe.acdh.oeaw.ac.at/L01555.html",
 "head":
 "Arthur Schnitzler an Hugo von Hofmannsthal, 3. 10. 1905",
 "desc":
{"listPerson":
  [
{
 "persName":
 "Hugo von Hofmannsthal",
 "ref":
 "pmb11740"},
 {
 "persName":
 "Josef Kainz",
 "ref":
 "pmb11851"},
 {
 "persName":
 "Otto Brahm",
 "ref":
 "pmb10986"},
 {
 "persName":
 "Gertrude von Hofmannsthal",
 "ref":
 "pmb2292"},
 {
 "persName":
 "Richard Beer-Hofmann",
 "ref":
 "pmb10863"}],
 "listBibl":
  [
 {
 "title":
 "Der Ruf des Lebens. Schauspiel in drei Akten",
 "ref":
 "pmb29905"}
 ,  {
 "title":
 "Zwischenspiel. Komödie in drei Akten",
 "ref":
 "pmb29903"}
 ,  {
 "title":
 "Jedermann. Das Spiel vom Sterben des reichen Mannes",
 "ref":
 "pmb30129"}
 ,  {
 "title":
 "Der grüne Kakadu. Groteske in einem Akt",
 "ref":
 "pmb29843"}
 ],
 "listPlace":
  [
 {
 "placeName":
 "Wien",
 "ref":
 "pmb50"}
 ]
}
}, {
 "type":
 "schnitzler-orte",
 "color":
 "#045344",
 "filename":
 "entity/50/",
 "caption":
 "Aufenthaltsorte",
 "idno":
 "https://pmb.acdh.oeaw.ac.at/entity/50/",
 "head":
 "Wien"
}, {
 "type":
 "schnitzler-bahr",
 "color":
 "#F9BD63",
 "filename":
 "L041086",
 "caption":
 "Schnitzler/Bahr",
 "idno":
 "https://schnitzler-bahr.acdh.oeaw.ac.at/L041086.html",
 "head":
 "Schnitzler an Bahr, 3. 10. 1905",
 "desc":
{"listPerson":
  [
{
 "persName":
 "Hermann Bahr",
 "ref":
 "pmb10815"}],
 "listBibl":
  [
 {
 "title":
 "Der Ruf des Lebens. Schauspiel in drei Akten",
 "ref":
 "pmb29905"}
 ],
 "listPlace":
  [
 {
 "placeName":
 "Wien",
 "ref":
 "pmb50"}
 ,  {
 "placeName":
 "XVIII., Währing",
 "ref":
 "pmb68"}
 ,  {
 "placeName":
 "XIII., Hietzing",
 "ref":
 "pmb63"}
 ,  {
 "placeName":
 "Ober Sankt Veit",
 "ref":
 "pmb165"}
 ,  {
 "placeName":
 "Veitlissengasse",
 "ref":
 "pmb220"}
 ]
}
}] 