[{
 "type":
 "schnitzler-tagebuch",
 "color":
 "#037a33",
 "filename":
 "entry__1905-08-03",
 "caption":
 "Tagebuch",
 "idno":
 "https://schnitzler-tagebuch.acdh.oeaw.ac.at/entry__1905-08-03.html",
 "head":
 "Tagebuch, 3. August 1905",
 "desc":
{"listPerson":
  [
{
 "persName":
 "Felix Salten",
 "ref":
 "person_19542"}],
 "listBibl":
  [
 {
 "title":
 "Zwischenspiel. Komödie in drei Akten",
 "ref":
 "pmb29903"}
 ,  {
 "title":
 "Briefwechsel zwischen Goethe und Reinhard in den Jahren 1807 bis 1832",
 "ref":
 "pmb76790"}
 ]
}
}, {
 "type":
 "schnitzler-briefe",
 "color":
 "#A63437",
 "filename":
 "L01535",
 "caption":
 "Briefe mit Autorinnen und Autoren",
 "idno":
 "https://schnitzler-briefe.acdh.oeaw.ac.at/L01535.html",
 "head":
 "Hermann Bahr an Arthur Schnitzler, 3. 8. 1905",
 "desc":
{"listPerson":
  [
{
 "persName":
 "Hermann Bahr",
 "ref":
 "pmb10815"},
 {
 "persName":
 "Franz Kneuer",
 "ref":
 "pmb28317"},
 {
 "persName":
 "Olga Schnitzler",
 "ref":
 "pmb2173"}],
 "listPlace":
  [
 {
 "placeName":
 "Würzburg",
 "ref":
 "pmb852"}
 ,  {
 "placeName":
 "Wien",
 "ref":
 "pmb50"}
 ,  {
 "placeName":
 "XVIII., Währing",
 "ref":
 "pmb68"}
 ,  {
 "placeName":
 "Edmund-Weiß-Gasse",
 "ref":
 "pmb133"}
 ,  {
 "placeName":
 "Platz’scher Garten",
 "ref":
 "pmb459"}
 ]
}
}, {
 "type":
 "schnitzler-briefe",
 "color":
 "#A63437",
 "filename":
 "L01536",
 "caption":
 "Briefe mit Autorinnen und Autoren",
 "idno":
 "https://schnitzler-briefe.acdh.oeaw.ac.at/L01536.html",
 "head":
 "Hugo von Hofmannsthal an Arthur Schnitzler, [3. 8. 1905?]",
 "desc":
{"listPerson":
  [
{
 "persName":
 "Hugo von Hofmannsthal",
 "ref":
 "pmb11740"}],
 "listPlace":
  [
 {
 "placeName":
 "Rodaun",
 "ref":
 "pmb173"}
 ,  {
 "placeName":
 "Wien",
 "ref":
 "pmb50"}
 ]
}
}, {
 "type":
 "schnitzler-orte",
 "color":
 "#045344",
 "filename":
 "entity/50/",
 "caption":
 "Aufenthaltsorte",
 "idno":
 "https://pmb.acdh.oeaw.ac.at/entity/50/",
 "head":
 "Wien"
}, {
 "type":
 "schnitzler-bahr",
 "color":
 "#F9BD63",
 "filename":
 "L041291",
 "caption":
 "Schnitzler/Bahr",
 "idno":
 "https://schnitzler-bahr.acdh.oeaw.ac.at/L041291.html",
 "head":
 "Bahr an Schnitzler, 3. 8. 1905",
 "desc":
{"listPerson":
  [
{
 "persName":
 "Hermann Bahr",
 "ref":
 "pmb10815"},
 {
 "persName":
 "Franz Kneuer",
 "ref":
 "pmb28317"},
 {
 "persName":
 "Olga Schnitzler",
 "ref":
 "pmb2173"}],
 "listPlace":
  [
 {
 "placeName":
 "Würzburg",
 "ref":
 "pmb852"}
 ,  {
 "placeName":
 "Wien",
 "ref":
 "pmb50"}
 ,  {
 "placeName":
 "Platz’scher Garten",
 "ref":
 "pmb459"}
 ,  {
 "placeName":
 "XVIII., Währing",
 "ref":
 "pmb68"}
 ,  {
 "placeName":
 "Edmund-Weiß-Gasse",
 "ref":
 "pmb133"}
 ]
}
}] 