[{
 "type":
 "schnitzler-tagebuch",
 "color":
 "#037a33",
 "filename":
 "entry__1905-03-13",
 "caption":
 "Tagebuch",
 "idno":
 "https://schnitzler-tagebuch.acdh.oeaw.ac.at/entry__1905-03-13.html",
 "head":
 "Tagebuch, 13. März 1905",
 "desc":
{"listPerson":
  [
{
 "persName":
 "Ferdinand Baruch",
 "ref":
 "person_13449"},
 {
 "persName":
 "Friedrich Hebbel",
 "ref":
 "person_16009"},
 {
 "persName":
 "Emanuel Spiro",
 "ref":
 "person_20270"},
 {
 "persName":
 "Fritz Werner",
 "ref":
 "person_21250"}],
 "listBibl":
  [
 {
 "title":
 "Die Nibelungen",
 "ref":
 "pmb34235"}
 ],
 "listPlace":
  [
 {
 "placeName":
 "Korfu",
 "ref":
 "pmb41212"}
 ]
}
}, {
 "type":
 "schnitzler-briefe",
 "color":
 "#A63437",
 "filename":
 "L01507",
 "caption":
 "Briefe mit Autorinnen und Autoren",
 "idno":
 "https://schnitzler-briefe.acdh.oeaw.ac.at/L01507.html",
 "head":
 "Arthur Schnitzler an Richard Beer-Hofmann, 13. 3. 1905",
 "desc":
{"listPerson":
  [
{
 "persName":
 "Richard Beer-Hofmann",
 "ref":
 "pmb10863"}],
 "listPlace":
  [
 {
 "placeName":
 "Korfu",
 "ref":
 "pmb41212"}
 ,  {
 "placeName":
 "Rodaun",
 "ref":
 "pmb173"}
 ,  {
 "placeName":
 "Wien",
 "ref":
 "pmb50"}
 ,  {
 "placeName":
 "Liesingerstraße",
 "ref":
 "pmb40101"}
 ,  {
 "placeName":
 "Österreich",
 "ref":
 "pmb41240"}
 ,  {
 "placeName":
 "Angelokastro",
 "ref":
 "pmb46931"}
 ,  {
 "placeName":
 "Anemomylos (Leuchtturm)",
 "ref":
 "pmb49280"}
 ]
}
}, {
 "type":
 "schnitzler-orte",
 "color":
 "#045344",
 "filename":
 "entity/41212/",
 "caption":
 "Aufenthaltsorte",
 "idno":
 "https://pmb.acdh.oeaw.ac.at/entity/41212/",
 "head":
 "Korfu"
}] 