[{
 "type":
 "schnitzler-tagebuch",
 "color":
 "#037a33",
 "filename":
 "entry__1906-03-28",
 "caption":
 "Tagebuch",
 "idno":
 "https://schnitzler-tagebuch.acdh.oeaw.ac.at/entry__1906-03-28.html",
 "head":
 "Tagebuch, 28. März 1906",
 "desc":
{"listPerson":
  [
{
 "persName":
 "Siegfried Jacobsohn",
 "ref":
 "person_16477"},
 {
 "persName":
 "Siegfried Trebitsch",
 "ref":
 "person_20796"},
 {
 "persName":
 "Jakob Wassermann",
 "ref":
 "person_21107"},
 {
 "persName":
 "Arthur Kaufmann",
 "ref":
 "person_16770"}],
 "listBibl":
  [
 {
 "title":
 "Der Weg ins Freie. Roman",
 "ref":
 "pmb29923"}
 ]
}
}, {
 "type":
 "schnitzler-orte",
 "color":
 "#045344",
 "filename":
 "entity/50/",
 "caption":
 "Aufenthaltsorte",
 "idno":
 "https://pmb.acdh.oeaw.ac.at/entity/50/",
 "head":
 "Wien"
}, {
 "type":
 "schnitzler-bahr",
 "color":
 "#F9BD63",
 "filename":
 "L041373",
 "caption":
 "Schnitzler/Bahr",
 "idno":
 "https://schnitzler-bahr.acdh.oeaw.ac.at/L041373.html",
 "head":
 "Salten an Schnitzler, 28. 3. 1906",
 "desc":
{"listPerson":
  [
{
 "persName":
 "Felix Salten",
 "ref":
 "pmb2167"},
 {
 "persName":
 "Siegfried Trebitsch",
 "ref":
 "pmb12968"},
 {
 "persName":
 "George Bernard Shaw",
 "ref":
 "pmb2381"},
 {
 "persName":
 "Hermann Bahr",
 "ref":
 "pmb10815"},
 {
 "persName":
 "Maximilian Harden",
 "ref":
 "pmb11581"},
 {
 "persName":
 "Helene Schnitzler",
 "ref":
 "pmb24423"},
 {
 "persName":
 "Elisabeth Steinrück",
 "ref":
 "pmb2315"}],
 "listBibl":
  [
 {
 "title":
 "Bühnenvertrieb",
 "ref":
 "pmb32516"}
 ,  {
 "title":
 "Theater",
 "ref":
 "pmb32518"}
 ,  {
 "title":
 "Russisches Theater. II",
 "ref":
 "pmb32428"}
 ,  {
 "title":
 "»Kater Lampe«",
 "ref":
 "pmb32430"}
 ,  {
 "title":
 "Kater Lampe",
 "ref":
 "pmb32514"}
 ],
 "listPlace":
  [
 {
 "placeName":
 "Berlin",
 "ref":
 "pmb168"}
 ,  {
 "placeName":
 "Wien",
 "ref":
 "pmb50"}
 ,  {
 "placeName":
 "Kochstraße",
 "ref":
 "pmb855"}
 ,  {
 "placeName":
 "Thüringen",
 "ref":
 "pmb432"}
 ,  {
 "placeName":
 "Tirol",
 "ref":
 "pmb423"}
 ,  {
 "placeName":
 "Schweiz",
 "ref":
 "pmb43435"}
 ,  {
 "placeName":
 "Lugano",
 "ref":
 "pmb885"}
 ,  {
 "placeName":
 "Magdeburg",
 "ref":
 "pmb918"}
 ,  {
 "placeName":
 "Genthin",
 "ref":
 "pmb37728"}
 ,  {
 "placeName":
 "Niederlande",
 "ref":
 "pmb44016"}
 ,  {
 "placeName":
 "Kiel",
 "ref":
 "pmb907"}
 ,  {
 "placeName":
 "Rothenburg ob der Tauber",
 "ref":
 "pmb856"}
 ,  {
 "placeName":
 "Bayreuth",
 "ref":
 "pmb734"}
 ,  {
 "placeName":
 "Marienlyst",
 "ref":
 "pmb959"}
 ,  {
 "placeName":
 "Dänemark",
 "ref":
 "pmb43570"}
 ],
 "listOrg":
  [
 {
 "orgName":
 "B.Z. am Mittag",
 "ref":
 "pmb29702"}
 ,  {
 "orgName":
 "Neue Freie Presse",
 "ref":
 "pmb29351"}
 ,  {
 "orgName":
 "Die Zukunft",
 "ref":
 "pmb29631"}
 ,  {
 "orgName":
 "Die Schaubühne / Die Weltbühne",
 "ref":
 "pmb29348"}
 ]
}
}, {
 "type":
 "schnitzler-cmif",
 "subtype":
 "#hbas_0a380dfe-61d4-4b9e-8641-01eba8e50777",
 "color":
 "#654321",
 "caption":
 "Gedruckte Briefwechsel",
 "head":
 "Felix Salten an Arthur Schnitzler, 28.3.1906",
 "source":
 "Hermann Bahr, Arthur Schnitzler. Briefwechsel, Aufzeichnungen, Dokumente 1891–1931. Herausgegeben von Kurt Ifkovits, Martin Anton Müller. Göttingen: Wallstein Verlag 2018"
}] 