[{
 "type":
 "schnitzler-tagebuch",
 "color":
 "#037a33",
 "filename":
 "entry__1907-08-03",
 "caption":
 "Tagebuch",
 "idno":
 "https://schnitzler-tagebuch.acdh.oeaw.ac.at/entry__1907-08-03.html",
 "head":
 "Tagebuch, 3. August 1907",
 "desc":
{"listPerson":
  [
{
 "persName":
 "Marie Epstein",
 "ref":
 "person_14778"}],
 "listBibl":
  [
 {
 "title":
 "Der Weg ins Freie. Roman",
 "ref":
 "pmb29923"}
 ]
}
}, {
 "type":
 "schnitzler-briefe",
 "color":
 "#A63437",
 "filename":
 "L01698",
 "caption":
 "Briefe mit Autorinnen und Autoren",
 "idno":
 "https://schnitzler-briefe.acdh.oeaw.ac.at/L01698.html",
 "head":
 "Max Mell, Mary Mell an Arthur Schnitzler, 3. 8. 1907",
 "desc":
{"listPerson":
  [
{
 "persName":
 "Max Mell",
 "ref":
 "pmb12225"},
 {
 "persName":
 "Maria Mell",
 "ref":
 "pmb5765"}],
 "listPlace":
  [
 {
 "placeName":
 "Peggau",
 "ref":
 "pmb54762"}
 ,  {
 "placeName":
 "Deutschfeistritz",
 "ref":
 "pmb50963"}
 ,  {
 "placeName":
 "Wien",
 "ref":
 "pmb50"}
 ,  {
 "placeName":
 "XVIII., Währing",
 "ref":
 "pmb68"}
 ,  {
 "placeName":
 "Edmund-Weiß-Gasse",
 "ref":
 "pmb133"}
 ,  {
 "placeName":
 "Schloss Thinnfeld",
 "ref":
 "pmb50844"}
 ]
}
}, {
 "type":
 "schnitzler-orte",
 "color":
 "#045344",
 "filename":
 "entity/428/",
 "caption":
 "Aufenthaltsorte",
 "idno":
 "https://pmb.acdh.oeaw.ac.at/entity/428/",
 "head":
 "Welsberg-Taisten"
}, {
 "type":
 "schnitzler-orte",
 "color":
 "#045344",
 "filename":
 "entity/723/",
 "caption":
 "Aufenthaltsorte",
 "idno":
 "https://pmb.acdh.oeaw.ac.at/entity/723/",
 "head":
 "Wildbad Waldbrunn"
}, {
 "type":
 "schnitzler-bahr",
 "color":
 "#F9BD63",
 "filename":
 "L041372",
 "caption":
 "Schnitzler/Bahr",
 "idno":
 "https://schnitzler-bahr.acdh.oeaw.ac.at/L041372.html",
 "head":
 "Felix und Ottilie Salten an Schnitzler, 3. 8. 1907",
 "desc":
{"listPerson":
  [
{
 "persName":
 "Felix Salten",
 "ref":
 "pmb2167"},
 {
 "persName":
 "Ottilie Salten",
 "ref":
 "pmb23918"},
 {
 "persName":
 "Paul Salten",
 "ref":
 "pmb2922"},
 {
 "persName":
 "Hermann Bahr",
 "ref":
 "pmb10815"},
 {
 "persName":
 "Eduard Pötzl",
 "ref":
 "pmb12460"},
 {
 "persName":
 "Adalbert Franz Seligmann",
 "ref":
 "pmb12769"},
 {
 "persName":
 "Hugo Ganz",
 "ref":
 "pmb2618"},
 {
 "persName":
 "Anna Bahr-Mildenburg",
 "ref":
 "pmb10818"},
 {
 "persName":
 "Robert Hirschfeld",
 "ref":
 "pmb11707"},
 {
 "persName":
 "Gustav Schwarzkopf",
 "ref":
 "pmb12740"},
 {
 "persName":
 "Friedrich Viktor Spitzer",
 "ref":
 "pmb3073"}],
 "listBibl":
  [
 {
 "title":
 "Das gelobte Wien",
 "ref":
 "pmb31713"}
 ,  {
 "title":
 "Wien",
 "ref":
 "pmb30715"}
 ,  {
 "title":
 "Der Wiener Korrespondent",
 "ref":
 "pmb31293"}
 ],
 "listPlace":
  [
 {
 "placeName":
 "Wien",
 "ref":
 "pmb50"}
 ,  {
 "placeName":
 "Welsberg-Taisten",
 "ref":
 "pmb428"}
 ,  {
 "placeName":
 "XIII., Hietzing",
 "ref":
 "pmb63"}
 ,  {
 "placeName":
 "Heiligenstadt",
 "ref":
 "pmb159"}
 ,  {
 "placeName":
 "Wildbad Waldbrunn",
 "ref":
 "pmb723"}
 ,  {
 "placeName":
 "Marienbad",
 "ref":
 "pmb772"}
 ,  {
 "placeName":
 "Karlsbad",
 "ref":
 "pmb842"}
 ,  {
 "placeName":
 "Hotel Quisisana",
 "ref":
 "pmb509"}
 ,  {
 "placeName":
 "Hotel Waldmühle",
 "ref":
 "pmb510"}
 ,  {
 "placeName":
 "Athen",
 "ref":
 "pmb505"}
 ,  {
 "placeName":
 "Lido",
 "ref":
 "pmb259"}
 ,  {
 "placeName":
 "Oper",
 "ref":
 "pmb15"}
 ],
 "listOrg":
  [
 {
 "orgName":
 "Neues Wiener Tagblatt",
 "ref":
 "pmb29414"}
 ,  {
 "orgName":
 "Der Morgen. Wiener Montagsblatt",
 "ref":
 "pmb29398"}
 ]
}
}, {
 "type":
 "schnitzler-cmif",
 "subtype":
 "#hbas_0a380dfe-61d4-4b9e-8641-01eba8e50777",
 "color":
 "#654321",
 "caption":
 "Gedruckte Briefwechsel",
 "head":
 "Felix Salten, Ottilie Salten an Arthur Schnitzler, 3.8.1907",
 "source":
 "Hermann Bahr, Arthur Schnitzler. Briefwechsel, Aufzeichnungen, Dokumente 1891–1931. Herausgegeben von Kurt Ifkovits, Martin Anton Müller. Göttingen: Wallstein Verlag 2018"
}] 