[{
 "type":
 "schnitzler-tagebuch",
 "color":
 "#037a33",
 "filename":
 "entry__1908-11-22",
 "caption":
 "Tagebuch",
 "idno":
 "https://schnitzler-tagebuch.acdh.oeaw.ac.at/entry__1908-11-22.html",
 "head":
 "Tagebuch, 22. November 1908",
 "desc":
{"listPerson":
  [
{
 "persName":
 "Ernst von Dohnányi",
 "ref":
 "person_14473"},
 {
 "persName":
 "Louise Schnitzler",
 "ref":
 "person_19831"},
 {
 "persName":
 "Oscar Straus",
 "ref":
 "person_20490"},
 {
 "persName":
 "Richard Tennhardt",
 "ref":
 "person_20669"},
 {
 "persName":
 "Hermann Bahr",
 "ref":
 "person_13374"},
 {
 "persName":
 "Franz Peter Schubert",
 "ref":
 "person_19902"}],
 "listBibl":
  [
 {
 "title":
 "Der tapfere Kassian. Singspiel",
 "ref":
 "pmb46124"}
 ,  {
 "title":
 "Der Schleier der Pierrette",
 "ref":
 "pmb30215"}
 ,  {
 "title":
 "Die Rahl. Roman",
 "ref":
 "pmb30619"}
 ,  {
 "title":
 "Streichquartett Nr. 13 a-Moll op. 29 D 804",
 "ref":
 "pmb30739"}
 ],
 "listPlace":
  [
 {
 "placeName":
 "Halle an der Saale",
 "ref":
 "pmb140"}
 ,  {
 "placeName":
 "Wien",
 "ref":
 "pmb50"}
 ,  {
 "placeName":
 "Assuan",
 "ref":
 "pmb923"}
 ,  {
 "placeName":
 "Ägypten",
 "ref":
 "pmb211"}
 ]
}
}, {
 "type":
 "schnitzler-orte",
 "color":
 "#045344",
 "filename":
 "entity/50/",
 "caption":
 "Aufenthaltsorte",
 "idno":
 "https://pmb.acdh.oeaw.ac.at/entity/50/",
 "head":
 "Wien"
}, {
 "type":
 "schnitzler-bahr",
 "color":
 "#F9BD63",
 "filename":
 "D041296",
 "caption":
 "Schnitzler/Bahr",
 "idno":
 "https://schnitzler-bahr.acdh.oeaw.ac.at/D041296.html",
 "head":
 "Tagebuch von Schnitzler, 22. 11. 1908",
 "desc":
{"listPerson":
  [
{
 "persName":
 "Oscar Straus",
 "ref":
 "pmb12861"},
 {
 "persName":
 "Ernst von Dohnányi",
 "ref":
 "pmb11165"},
 {
 "persName":
 "Louise Schnitzler",
 "ref":
 "pmb12701"},
 {
 "persName":
 "Franz Peter Schubert",
 "ref":
 "pmb12729"},
 {
 "persName":
 "Fritz Tennhardt",
 "ref":
 "pmb27957"},
 {
 "persName":
 "Hermann Bahr",
 "ref":
 "pmb10815"}],
 "listBibl":
  [
 {
 "title":
 "Der tapfere Cassian. Puppenspiel in einem Akt",
 "ref":
 "pmb30217"}
 ,  {
 "title":
 "Der Schleier der Pierrette",
 "ref":
 "pmb30215"}
 ,  {
 "title":
 "Streichquartett Nr. 13 a-Moll op. 29 D 804",
 "ref":
 "pmb30739"}
 ,  {
 "title":
 "Die Rahl. Roman",
 "ref":
 "pmb30619"}
 ],
 "listPlace":
  [
 {
 "placeName":
 "Halle an der Saale",
 "ref":
 "pmb140"}
 ,  {
 "placeName":
 "Wien",
 "ref":
 "pmb50"}
 ,  {
 "placeName":
 "Assuan",
 "ref":
 "pmb923"}
 ,  {
 "placeName":
 "Sachsen",
 "ref":
 "pmb209"}
 ,  {
 "placeName":
 "Colmar",
 "ref":
 "pmb210"}
 ,  {
 "placeName":
 "Ägypten",
 "ref":
 "pmb211"}
 ]
}
}] 