[{
 "type":
 "schnitzler-tagebuch",
 "color":
 "#037a33",
 "filename":
 "entry__1908-11-10",
 "caption":
 "Tagebuch",
 "idno":
 "https://schnitzler-tagebuch.acdh.oeaw.ac.at/entry__1908-11-10.html",
 "head":
 "Tagebuch, 10. November 1908",
 "desc":
{"listPerson":
  [
{
 "persName":
 "Johannes Brahms",
 "ref":
 "person_13914"},
 {
 "persName":
 "Gisela Hajek",
 "ref":
 "person_15854"},
 {
 "persName":
 "Hansi Niese",
 "ref":
 "person_18450"},
 {
 "persName":
 "Louise Schnitzler",
 "ref":
 "person_19831"},
 {
 "persName":
 "Irene Mandl",
 "ref":
 "person_17822"}],
 "listBibl":
  [
 {
 "title":
 "Der junge Medardus. Dramatische Historie in einem Vorspiel und fünf Aufzügen",
 "ref":
 "pmb29937"}
 ,  {
 "title":
 "Das Vermächtnis. Schauspiel in drei Akten",
 "ref":
 "pmb30219"}
 ,  {
 "title":
 "Variationen über ein Thema von Joseph Haydn op. 56a",
 "ref":
 "pmb78225"}
 ]
}
}, {
 "type":
 "schnitzler-briefe",
 "color":
 "#A63437",
 "filename":
 "L01800",
 "caption":
 "Briefe mit Autorinnen und Autoren",
 "idno":
 "https://schnitzler-briefe.acdh.oeaw.ac.at/L01800.html",
 "head":
 "Hermann Bahr an Arthur Schnitzler, 10. 11. 1908",
 "desc":
{"listPerson":
  [
{
 "persName":
 "Hermann Bahr",
 "ref":
 "pmb10815"},
 {
 "persName":
 "Olga Schnitzler",
 "ref":
 "pmb2173"}],
 "listBibl":
  [
 {
 "title":
 "Die Toten schweigen",
 "ref":
 "pmb29833"}
 ,  {
 "title":
 "Morgen. Wochenschrift für deutsche Kultur",
 "ref":
 "pmb41630"}
 ,  {
 "title":
 "Tagebuch. 10. Juni [1908]",
 "ref":
 "pmb30089"}
 ,  {
 "title":
 "Der Weg ins Freie. Roman",
 "ref":
 "pmb29923"}
 ],
 "listOrg":
  [
 {
 "orgName":
 "Lesezirkel Hottingen",
 "ref":
 "pmb29322"}
 ],
 "listPlace":
  [
 {
 "placeName":
 "Bahnhof",
 "ref":
 "pmb853"}
 ,  {
 "placeName":
 "Lindau",
 "ref":
 "pmb986"}
 ,  {
 "placeName":
 "Wien",
 "ref":
 "pmb50"}
 ,  {
 "placeName":
 "XVIII., Währing",
 "ref":
 "pmb68"}
 ,  {
 "placeName":
 "Edmund-Weiß-Gasse",
 "ref":
 "pmb133"}
 ,  {
 "placeName":
 "Bayerischer Hof",
 "ref":
 "pmb135"}
 ,  {
 "placeName":
 "Mangturm",
 "ref":
 "pmb684"}
 ,  {
 "placeName":
 "Frankfurt am Main",
 "ref":
 "pmb146"}
 ,  {
 "placeName":
 "Zürich",
 "ref":
 "pmb484"}
 ,  {
 "placeName":
 "Mannheim",
 "ref":
 "pmb881"}
 ]
}
}, {
 "type":
 "schnitzler-orte",
 "color":
 "#045344",
 "filename":
 "entity/50/",
 "caption":
 "Aufenthaltsorte",
 "idno":
 "https://pmb.acdh.oeaw.ac.at/entity/50/",
 "head":
 "Wien"
}, {
 "type":
 "schnitzler-bahr",
 "color":
 "#F9BD63",
 "filename":
 "L041322",
 "caption":
 "Schnitzler/Bahr",
 "idno":
 "https://schnitzler-bahr.acdh.oeaw.ac.at/L041322.html",
 "head":
 "Bahr an Schnitzler, 10. 11. 1908",
 "desc":
{"listPerson":
  [
{
 "persName":
 "Hermann Bahr",
 "ref":
 "pmb10815"},
 {
 "persName":
 "Olga Schnitzler",
 "ref":
 "pmb2173"}],
 "listBibl":
  [
 {
 "title":
 "Tagebuch. 10. Juni [1908]",
 "ref":
 "pmb30089"}
 ,  {
 "title":
 "Der Weg ins Freie. Roman",
 "ref":
 "pmb29923"}
 ],
 "listPlace":
  [
 {
 "placeName":
 "Lindau",
 "ref":
 "pmb986"}
 ,  {
 "placeName":
 "Wien",
 "ref":
 "pmb50"}
 ,  {
 "placeName":
 "Bayerischer Hof",
 "ref":
 "pmb135"}
 ,  {
 "placeName":
 "Mangturm",
 "ref":
 "pmb684"}
 ,  {
 "placeName":
 "Bahnhof",
 "ref":
 "pmb853"}
 ,  {
 "placeName":
 "XVIII., Währing",
 "ref":
 "pmb68"}
 ,  {
 "placeName":
 "Edmund-Weiß-Gasse",
 "ref":
 "pmb133"}
 ,  {
 "placeName":
 "Frankfurt am Main",
 "ref":
 "pmb146"}
 ,  {
 "placeName":
 "Zürich",
 "ref":
 "pmb484"}
 ,  {
 "placeName":
 "Mannheim",
 "ref":
 "pmb881"}
 ],
 "listOrg":
  [
 {
 "orgName":
 "Der Morgen. Wiener Montagsblatt",
 "ref":
 "pmb29398"}
 ]
}
}, {
 "type":
 "kalliope-verbund",
 "color":
 "#003574",
 "caption":
 "Kalliope Verbundkatalog",
 "idno":
 "http://kalliope-verbund.info/DE-2498-HS00031610",
 "head":
 "Akademischer Verband für Literatur und Musik &lt;Wien&gt; an Schnitzler, Arthur [Briefe]",
 "text":
 "2 Bl.",
 "desc":
{"listPerson":
  [
{
 "persName":
 "Akademischer Verband für Literatur und Musik &lt;Wien&gt;",
 "ref":
 "http://d-nb.info/gnd/42927-2"}]
}
}, {
 "type":
 "kalliope-verbund",
 "color":
 "#003574",
 "caption":
 "Kalliope Verbundkatalog",
 "idno":
 "http://kalliope-verbund.info/DE-2498-HS00082501",
 "head":
 "Schnitzler, Arthur: Der junge Medardus [Dramatisches] (Drucktitel)",
 "text":
 "Erstes Objekt aus der Mappe. ca 350 Bl."
}] 