[{
 "type":
 "schnitzler-tagebuch",
 "color":
 "#037a33",
 "filename":
 "entry__1908-11-28",
 "caption":
 "Tagebuch",
 "idno":
 "https://schnitzler-tagebuch.acdh.oeaw.ac.at/entry__1908-11-28.html",
 "head":
 "Tagebuch, 28. November 1908",
 "desc":
{"listPerson":
  [
{
 "persName":
 "Richard Beer-Hofmann",
 "ref":
 "person_13551"},
 {
 "persName":
 "Ernst von Dohnányi",
 "ref":
 "person_14473"},
 {
 "persName":
 "Alfred Kerr",
 "ref":
 "person_16819"},
 {
 "persName":
 "Heinrich Schnitzler",
 "ref":
 "person_19822"}],
 "listBibl":
  [
 {
 "title":
 "Der junge Medardus. Dramatische Historie in einem Vorspiel und fünf Aufzügen",
 "ref":
 "pmb29937"}
 ],
 "listPlace":
  [
 {
 "placeName":
 "Pötzleinsdorf",
 "ref":
 "pmb169"}
 ,  {
 "placeName":
 "Meissl &amp; Schadn",
 "ref":
 "pmb96"}
 ]
}
}, {
 "type":
 "schnitzler-briefe",
 "color":
 "#A63437",
 "filename":
 "L01811",
 "caption":
 "Briefe mit Autorinnen und Autoren",
 "idno":
 "https://schnitzler-briefe.acdh.oeaw.ac.at/L01811.html",
 "head":
 "Arthur Schnitzler an Richard Beer-Hofmann, 28. 11. 1908",
 "desc":
{"listPerson":
  [
{
 "persName":
 "Richard Beer-Hofmann",
 "ref":
 "pmb10863"},
 {
 "persName":
 "Alfred Kerr",
 "ref":
 "pmb11910"},
 {
 "persName":
 "Heinrich Heine",
 "ref":
 "pmb11640"},
 {
 "persName":
 "Ernst von Dohnányi",
 "ref":
 "pmb11165"}],
 "listOrg":
  [
 {
 "orgName":
 "Verein für Kunst und Kultur",
 "ref":
 "pmb47586"}
 ],
 "listPlace":
  [
 {
 "placeName":
 "Wien",
 "ref":
 "pmb50"}
 ,  {
 "placeName":
 "Edmund-Weiß-Gasse",
 "ref":
 "pmb133"}
 ,  {
 "placeName":
 "Bösendorfer-Saal",
 "ref":
 "pmb4"}
 ,  {
 "placeName":
 "Meissl &amp; Schadn",
 "ref":
 "pmb96"}
 ,  {
 "placeName":
 "Semmering",
 "ref":
 "pmb189"}
 ]
}
}, {
 "type":
 "schnitzler-briefe",
 "color":
 "#A63437",
 "filename":
 "L01812",
 "caption":
 "Briefe mit Autorinnen und Autoren",
 "idno":
 "https://schnitzler-briefe.acdh.oeaw.ac.at/L01812.html",
 "head":
 "Olga Schnitzler an Richard Beer-Hofmann, [28. 11. 1908?]",
 "desc":
{"listPerson":
  [
{
 "persName":
 "Olga Schnitzler",
 "ref":
 "pmb2173"},
 {
 "persName":
 "Richard Beer-Hofmann",
 "ref":
 "pmb10863"},
 {
 "persName":
 "Alfred Kerr",
 "ref":
 "pmb11910"},
 {
 "persName":
 "Paula Beer-Hofmann",
 "ref":
 "pmb10860"}],
 "listPlace":
  [
 {
 "placeName":
 "Wien",
 "ref":
 "pmb50"}
 ,  {
 "placeName":
 "Meissl &amp; Schadn",
 "ref":
 "pmb96"}
 ]
}
}, {
 "type":
 "schnitzler-briefe",
 "color":
 "#A63437",
 "filename":
 "L01813",
 "caption":
 "Briefe mit Autorinnen und Autoren",
 "idno":
 "https://schnitzler-briefe.acdh.oeaw.ac.at/L01813.html",
 "head":
 "Arthur Schnitzler an Richard Beer-Hofmann, 28. 11. 1908",
 "desc":
{"listPerson":
  [
{
 "persName":
 "Richard Beer-Hofmann",
 "ref":
 "pmb10863"},
 {
 "persName":
 "Ernst von Dohnányi",
 "ref":
 "pmb11165"},
 {
 "persName":
 "Alfred Kerr",
 "ref":
 "pmb11910"},
 {
 "persName":
 "Olga Schnitzler",
 "ref":
 "pmb2173"},
 {
 "persName":
 "Naëmah Beer-Hofmann",
 "ref":
 "pmb2534"}],
 "listPlace":
  [
 {
 "placeName":
 "Wien",
 "ref":
 "pmb50"}
 ,  {
 "placeName":
 "Edmund-Weiß-Gasse",
 "ref":
 "pmb133"}
 ,  {
 "placeName":
 "XVIII., Währing",
 "ref":
 "pmb68"}
 ,  {
 "placeName":
 "Hasenauerstraße",
 "ref":
 "pmb383"}
 ,  {
 "placeName":
 "Semmering",
 "ref":
 "pmb189"}
 ,  {
 "placeName":
 "Meissl &amp; Schadn",
 "ref":
 "pmb96"}
 ]
}
}, {
 "type":
 "schnitzler-briefe",
 "color":
 "#A63437",
 "filename":
 "L01814",
 "caption":
 "Briefe mit Autorinnen und Autoren",
 "idno":
 "https://schnitzler-briefe.acdh.oeaw.ac.at/L01814.html",
 "head":
 "Arthur Schnitzler an Richard Beer-Hofmann, 2[8]. 11. 1908",
 "desc":
{"listPerson":
  [
{
 "persName":
 "Richard Beer-Hofmann",
 "ref":
 "pmb10863"},
 {
 "persName":
 "Alfred Kerr",
 "ref":
 "pmb11910"},
 {
 "persName":
 "Ernst von Dohnányi",
 "ref":
 "pmb11165"},
 {
 "persName":
 "Oscar Straus",
 "ref":
 "pmb12861"},
 {
 "persName":
 "Bernhard Herzmansky",
 "ref":
 "pmb7823"}],
 "listPlace":
  [
 {
 "placeName":
 "Wien",
 "ref":
 "pmb50"}
 ,  {
 "placeName":
 "Edmund-Weiß-Gasse",
 "ref":
 "pmb133"}
 ,  {
 "placeName":
 "XVIII., Währing",
 "ref":
 "pmb68"}
 ,  {
 "placeName":
 "Meissl &amp; Schadn",
 "ref":
 "pmb96"}
 ]
}
}, {
 "type":
 "schnitzler-orte",
 "color":
 "#045344",
 "filename":
 "entity/50/",
 "caption":
 "Aufenthaltsorte",
 "idno":
 "https://pmb.acdh.oeaw.ac.at/entity/50/",
 "head":
 "Wien"
}, {
 "type":
 "kalliope-verbund",
 "color":
 "#003574",
 "caption":
 "Kalliope Verbundkatalog",
 "idno":
 "http://kalliope-verbund.info/DE-611-HS-149467",
 "head":
 "Brief von Arthur Schnitzler an Richard Kühn",
 "text":
 "1 Br., 1/2 S., 8'"
}] 