[{
 "type":
 "schnitzler-tagebuch",
 "color":
 "#037a33",
 "filename":
 "entry__1908-07-06",
 "caption":
 "Tagebuch",
 "idno":
 "https://schnitzler-tagebuch.acdh.oeaw.ac.at/entry__1908-07-06.html",
 "head":
 "Tagebuch, 6. Juli 1908",
 "desc":
{"listBibl":
  [
 {
 "title":
 "Die Hirtenflöte. Novelle",
 "ref":
 "pmb30213"}
 ,  {
 "title":
 "Das weite Land. Tragikomödie in fünf Akten",
 "ref":
 "pmb30207"}
 ]
}
}, {
 "type":
 "schnitzler-briefe",
 "color":
 "#A63437",
 "filename":
 "L01780",
 "caption":
 "Briefe mit Autorinnen und Autoren",
 "idno":
 "https://schnitzler-briefe.acdh.oeaw.ac.at/L01780.html",
 "head":
 "Olga Schnitzler, Arthur Schnitzler an Hermann Bahr, 6. 7. 1908",
 "desc":
{"listPerson":
  [
{
 "persName":
 "Olga Schnitzler",
 "ref":
 "pmb2173"},
 {
 "persName":
 "Hermann Bahr",
 "ref":
 "pmb10815"},
 {
 "persName":
 "Franz August Carl Maria Reisch",
 "ref":
 "pmb27687"},
 {
 "persName":
 "Katharina Selma Hartleben",
 "ref":
 "pmb2309"},
 {
 "persName":
 "Otto Erich Hartleben",
 "ref":
 "pmb11605"}],
 "listBibl":
  [
 {
 "title":
 "Partie in Seis am Schlern",
 "ref":
 "pmb51884"}
 ,  {
 "title":
 "Moppchen",
 "ref":
 "pmb30023"}
 ,  {
 "title":
 "Neue Freie Presse",
 "ref":
 "pmb36374"}
 ],
 "listPlace":
  [
 {
 "placeName":
 "Seis am Schlern",
 "ref":
 "pmb988"}
 ,  {
 "placeName":
 "Wien",
 "ref":
 "pmb50"}
 ,  {
 "placeName":
 "Ober Sankt Veit",
 "ref":
 "pmb165"}
 ,  {
 "placeName":
 "Veitlissengasse",
 "ref":
 "pmb220"}
 ,  {
 "placeName":
 "Villa Heufler",
 "ref":
 "pmb467"}
 ,  {
 "placeName":
 "Meran",
 "ref":
 "pmb43520"}
 ]
}
}, {
 "type":
 "schnitzler-briefe",
 "color":
 "#A63437",
 "filename":
 "L01781",
 "caption":
 "Briefe mit Autorinnen und Autoren",
 "idno":
 "https://schnitzler-briefe.acdh.oeaw.ac.at/L01781.html",
 "head":
 "Richard Beer-Hofmann an Arthur Schnitzler, 6. [7. 1908]",
 "desc":
{"listPerson":
  [
{
 "persName":
 "Richard Beer-Hofmann",
 "ref":
 "pmb10863"}],
 "listPlace":
  [
 {
 "placeName":
 "IX., Alsergrund",
 "ref":
 "pmb59"}
 ,  {
 "placeName":
 "Wien",
 "ref":
 "pmb50"}
 ,  {
 "placeName":
 "Seis am Schlern",
 "ref":
 "pmb988"}
 ,  {
 "placeName":
 "Villa Heufler",
 "ref":
 "pmb467"}
 ,  {
 "placeName":
 "Südtirol",
 "ref":
 "pmb969"}
 ,  {
 "placeName":
 "Türkenschanzpark",
 "ref":
 "pmb113"}
 ,  {
 "placeName":
 "Strobl",
 "ref":
 "pmb895"}
 ,  {
 "placeName":
 "Hotel am See",
 "ref":
 "pmb51516"}
 ]
}
}, {
 "type":
 "schnitzler-orte",
 "color":
 "#045344",
 "filename":
 "entity/988/",
 "caption":
 "Aufenthaltsorte",
 "idno":
 "https://pmb.acdh.oeaw.ac.at/entity/988/",
 "head":
 "Seis am Schlern"
}, {
 "type":
 "schnitzler-orte",
 "color":
 "#045344",
 "filename":
 "entity/467/",
 "caption":
 "Aufenthaltsorte",
 "idno":
 "https://pmb.acdh.oeaw.ac.at/entity/467/",
 "head":
 "Villa Heufler"
}, {
 "type":
 "schnitzler-bahr",
 "color":
 "#F9BD63",
 "filename":
 "L041107",
 "caption":
 "Schnitzler/Bahr",
 "idno":
 "https://schnitzler-bahr.acdh.oeaw.ac.at/L041107.html",
 "head":
 "Olga und Arthur Schnitzler an Bahr, 6. 7. 1908",
 "desc":
{"listPerson":
  [
{
 "persName":
 "Olga Schnitzler",
 "ref":
 "pmb2173"},
 {
 "persName":
 "Hermann Bahr",
 "ref":
 "pmb10815"},
 {
 "persName":
 "Franz August Carl Maria Reisch",
 "ref":
 "pmb27687"},
 {
 "persName":
 "Katharina Selma Hartleben",
 "ref":
 "pmb2309"}],
 "listBibl":
  [
 {
 "title":
 "Moppchen",
 "ref":
 "pmb30023"}
 ],
 "listPlace":
  [
 {
 "placeName":
 "Seis am Schlern",
 "ref":
 "pmb988"}
 ,  {
 "placeName":
 "Wien",
 "ref":
 "pmb50"}
 ,  {
 "placeName":
 "Villa Heufler",
 "ref":
 "pmb467"}
 ,  {
 "placeName":
 "Ober Sankt Veit",
 "ref":
 "pmb165"}
 ,  {
 "placeName":
 "Veitlissengasse",
 "ref":
 "pmb220"}
 ]
}
}] 