[{
 "type":
 "schnitzler-tagebuch",
 "color":
 "#037a33",
 "filename":
 "entry__1908-11-12",
 "caption":
 "Tagebuch",
 "idno":
 "https://schnitzler-tagebuch.acdh.oeaw.ac.at/entry__1908-11-12.html",
 "head":
 "Tagebuch, 12. November 1908",
 "desc":
{"listPerson":
  [
{
 "persName":
 "Giovanni Grasso",
 "ref":
 "person_15630"},
 {
 "persName":
 "Oskar Nedbal",
 "ref":
 "person_18374"},
 {
 "persName":
 "Carl Rössler",
 "ref":
 "person_19326"},
 {
 "persName":
 "Karl Gustav Vollmoeller",
 "ref":
 "person_20986"}],
 "listBibl":
  [
 {
 "title":
 "Der reiche Jüngling",
 "ref":
 "pmb32045"}
 ,  {
 "title":
 "Der deutsche Graf",
 "ref":
 "pmb77116"}
 ],
 "listPlace":
  [
 {
 "placeName":
 "VIII., Josefstadt",
 "ref":
 "pmb58"}
 ,  {
 "placeName":
 "Berlin",
 "ref":
 "pmb168"}
 ]
}
}, {
 "type":
 "schnitzler-orte",
 "color":
 "#045344",
 "filename":
 "entity/50/",
 "caption":
 "Aufenthaltsorte",
 "idno":
 "https://pmb.acdh.oeaw.ac.at/entity/50/",
 "head":
 "Wien"
}, {
 "type":
 "schnitzler-bahr",
 "color":
 "#F9BD63",
 "filename":
 "T030026",
 "caption":
 "Schnitzler/Bahr",
 "idno":
 "https://schnitzler-bahr.acdh.oeaw.ac.at/T030026.html",
 "head":
 "Bahr: Tagebuch. 10. Juni, 6. 11. 1908; mit Anmerkungen von Schnitzler,
                     [11.–13.] 11. 1908",
 "desc":
{"listPerson":
  [
{
 "persName":
 "Hermann Bahr",
 "ref":
 "pmb10815"},
 {
 "persName":
 "Maria Theresia von Österreich",
 "ref":
 "pmb4255"},
 {
 "persName":
 "Franz Karl Weidlich",
 "ref":
 "pmb27680"},
 {
 "persName":
 "Wilhelmine Bahr",
 "ref":
 "pmb27667"},
 {
 "persName":
 "Leopold von Andrian-Werburg",
 "ref":
 "pmb10765"},
 {
 "persName":
 "Cäcilia von Andrian-Werburg",
 "ref":
 "pmb29012"},
 {
 "persName":
 "René Schickele",
 "ref":
 "pmb12640"},
 {
 "persName":
 "Schalom Asch",
 "ref":
 "pmb13522"}],
 "listBibl":
  [
 {
 "title":
 "Der Weg ins Freie. Roman",
 "ref":
 "pmb29923"}
 ,  {
 "title":
 "Tagebuch. 10. Juni [1908]",
 "ref":
 "pmb30089"}
 ,  {
 "title":
 "Morgen. Wochenschrift für deutsche Kultur",
 "ref":
 "pmb41630"}
 ,  {
 "title":
 "Tagebuch [Berlin: Paul Cassirer]",
 "ref":
 "pmb29929"}
 ],
 "listPlace":
  [
 {
 "placeName":
 "Österreich",
 "ref":
 "pmb41240"}
 ,  {
 "placeName":
 "Deutschland",
 "ref":
 "pmb151"}
 ,  {
 "placeName":
 "Salzburg",
 "ref":
 "pmb30"}
 ,  {
 "placeName":
 "Akademisches Gymnasium Salzburg",
 "ref":
 "pmb558"}
 ,  {
 "placeName":
 "Stiftsgymnasium Kremsmünster",
 "ref":
 "pmb556"}
 ,  {
 "placeName":
 "Schottengymnasium",
 "ref":
 "pmb557"}
 ,  {
 "placeName":
 "Berlin",
 "ref":
 "pmb168"}
 ,  {
 "placeName":
 "Hotel Savoy",
 "ref":
 "pmb545"}
 ,  {
 "placeName":
 "Kalksburg",
 "ref":
 "pmb555"}
 ,  {
 "placeName":
 "Tschechoslowakei",
 "ref":
 "pmb38444"}
 ,  {
 "placeName":
 "Kroatien",
 "ref":
 "pmb34494"}
 ,  {
 "placeName":
 "Rumänien",
 "ref":
 "pmb378"}
 ,  {
 "placeName":
 "Slowenien",
 "ref":
 "pmb544"}
 ,  {
 "placeName":
 "Italien",
 "ref":
 "pmb40306"}
 ],
 "listOrg":
  [
 {
 "orgName":
 "Der Morgen. Wiener Montagsblatt",
 "ref":
 "pmb29398"}
 ,  {
 "orgName":
 "Jesuiten (Gesellschaft Jesu)",
 "ref":
 "pmb29297"}
 ]
}
}] 