[{
 "type":
 "schnitzler-tagebuch",
 "color":
 "#037a33",
 "filename":
 "entry__1908-04-29",
 "caption":
 "Tagebuch",
 "idno":
 "https://schnitzler-tagebuch.acdh.oeaw.ac.at/entry__1908-04-29.html",
 "head":
 "Tagebuch, 29. April 1908",
 "desc":
{"listPerson":
  [
{
 "persName":
 "George Meredith",
 "ref":
 "person_18085"}],
 "listBibl":
  [
 {
 "title":
 "Der Egoist",
 "ref":
 "pmb79705"}
 ],
 "listPlace":
  [
 {
 "placeName":
 "Riva del Garda",
 "ref":
 "pmb465"}
 ,  {
 "placeName":
 "Salò",
 "ref":
 "pmb39611"}
 ,  {
 "placeName":
 "Toscolano-Maderno",
 "ref":
 "pmb91185"}
 ]
}
}, {
 "type":
 "schnitzler-briefe",
 "color":
 "#A63437",
 "filename":
 "L01767",
 "caption":
 "Briefe mit Autorinnen und Autoren",
 "idno":
 "https://schnitzler-briefe.acdh.oeaw.ac.at/L01767.html",
 "head":
 "Arthur Schnitzler, Olga Schnitzler an Hermann Bahr, 29. 4. 1908",
 "desc":
{"listPerson":
  [
{
 "persName":
 "Olga Schnitzler",
 "ref":
 "pmb2173"},
 {
 "persName":
 "Hermann Bahr",
 "ref":
 "pmb10815"}],
 "listPlace":
  [
 {
 "placeName":
 "Riva del Garda",
 "ref":
 "pmb465"}
 ,  {
 "placeName":
 "Wien",
 "ref":
 "pmb50"}
 ,  {
 "placeName":
 "Ober Sankt Veit",
 "ref":
 "pmb165"}
 ,  {
 "placeName":
 "Veitlissengasse",
 "ref":
 "pmb220"}
 ,  {
 "placeName":
 "Lago di Garda",
 "ref":
 "pmb39975"}
 ]
}
}, {
 "type":
 "schnitzler-briefe",
 "color":
 "#A63437",
 "filename":
 "L01768",
 "caption":
 "Briefe mit Autorinnen und Autoren",
 "idno":
 "https://schnitzler-briefe.acdh.oeaw.ac.at/L01768.html",
 "head":
 "Arthur Schnitzler, Olga Schnitzler an Richard Beer-Hofmann, 29. 4. 1908",
 "desc":
{"listPerson":
  [
{
 "persName":
 "Olga Schnitzler",
 "ref":
 "pmb2173"},
 {
 "persName":
 "Richard Beer-Hofmann",
 "ref":
 "pmb10863"}],
 "listPlace":
  [
 {
 "placeName":
 "Riva del Garda",
 "ref":
 "pmb465"}
 ,  {
 "placeName":
 "Wien",
 "ref":
 "pmb50"}
 ,  {
 "placeName":
 "XVIII., Währing",
 "ref":
 "pmb68"}
 ,  {
 "placeName":
 "Hasenauerstraße",
 "ref":
 "pmb383"}
 ,  {
 "placeName":
 "Strada del Ponale",
 "ref":
 "pmb51882"}
 ,  {
 "placeName":
 "Lago di Garda",
 "ref":
 "pmb39975"}
 ]
}
}, {
 "type":
 "schnitzler-orte",
 "color":
 "#045344",
 "filename":
 "entity/465/",
 "caption":
 "Aufenthaltsorte",
 "idno":
 "https://pmb.acdh.oeaw.ac.at/entity/465/",
 "head":
 "Riva del Garda"
}, {
 "type":
 "schnitzler-orte",
 "color":
 "#045344",
 "filename":
 "entity/40812/",
 "caption":
 "Aufenthaltsorte",
 "idno":
 "https://pmb.acdh.oeaw.ac.at/entity/40812/",
 "head":
 "Hotel du Lac"
}, {
 "type":
 "schnitzler-bahr",
 "color":
 "#F9BD63",
 "filename":
 "L041105",
 "caption":
 "Schnitzler/Bahr",
 "idno":
 "https://schnitzler-bahr.acdh.oeaw.ac.at/L041105.html",
 "head":
 "Arthur und Olga Schnitzler an Bahr, 29. 4. 1908",
 "desc":
{"listPerson":
  [
{
 "persName":
 "Olga Schnitzler",
 "ref":
 "pmb2173"},
 {
 "persName":
 "Hermann Bahr",
 "ref":
 "pmb10815"}],
 "listPlace":
  [
 {
 "placeName":
 "Riva del Garda",
 "ref":
 "pmb465"}
 ,  {
 "placeName":
 "Wien",
 "ref":
 "pmb50"}
 ,  {
 "placeName":
 "Ober Sankt Veit",
 "ref":
 "pmb165"}
 ,  {
 "placeName":
 "Veitlissengasse",
 "ref":
 "pmb220"}
 ]
}
}] 