[{
 "type":
 "schnitzler-briefe",
 "color":
 "#A63437",
 "filename":
 "L01754",
 "caption":
 "Briefe mit Autorinnen und Autoren",
 "idno":
 "https://schnitzler-briefe.acdh.oeaw.ac.at/L01754.html",
 "head":
 "Karl Kraus an Arthur Schnitzler, 20. 1. 1908",
 "desc":
{"listPerson":
  [
{
 "persName":
 "Karl Kraus",
 "ref":
 "pmb11988"},
 {
 "persName":
 "Kete Fox",
 "ref":
 "pmb5693"},
 {
 "persName":
 "Albert Claughten Fox",
 "ref":
 "pmb29168"}],
 "listBibl":
  [
 {
 "title":
 "Salomé. Drame en une acte",
 "ref":
 "pmb33554"}
 ,  {
 "title":
 "Rausch",
 "ref":
 "pmb30597"}
 ,  {
 "title":
 "Nachtasyl. Szenen aus der Tiefe in vier Aufzügen",
 "ref":
 "pmb33556"}
 ,  {
 "title":
 "Der Schleier der Beatrice. Schauspiel in fünf Akten",
 "ref":
 "pmb29857"}
 ],
 "listOrg":
  [
 {
 "orgName":
 "Franz-Grillparzer-Preis",
 "ref":
 "pmb29677"}
 ],
 "listPlace":
  [
 {
 "placeName":
 "Wien",
 "ref":
 "pmb50"}
 ,  {
 "placeName":
 "New York City",
 "ref":
 "pmb44053"}
 ,  {
 "placeName":
 "Kleines Theater",
 "ref":
 "pmb208"}
 ,  {
 "placeName":
 "England",
 "ref":
 "pmb254"}
 ,  {
 "placeName":
 "New Jersey",
 "ref":
 "pmb44261"}
 ,  {
 "placeName":
 "Vereinigte Staaten von Amerika (USA)",
 "ref":
 "pmb43406"}
 ,  {
 "placeName":
 "Addison Street",
 "ref":
 "pmb1230"}
 ,  {
 "placeName":
 "Schwindgasse",
 "ref":
 "pmb1227"}
 ]
}
}, {
 "type":
 "schnitzler-orte",
 "color":
 "#045344",
 "filename":
 "entity/50/",
 "caption":
 "Aufenthaltsorte",
 "idno":
 "https://pmb.acdh.oeaw.ac.at/entity/50/",
 "head":
 "Wien"
}, {
 "type":
 "schnitzler-cmif",
 "subtype":
 "#u02092b4-47df-42e7-a68c-556d17f8d217",
 "color":
 "#654321",
 "caption":
 "Gedruckte Briefwechsel",
 "head":
 "Franz Nabl an Arthur Schnitzler, 20.1.1908",
 "source":
 "Reinhard Urbach: Arthur Schnitzler – Franz Nabl. Briefwechsel. In: Studium Generale, Jg. 24, 1971, S. 1256-1270."
}, {
 "type":
 "schnitzler-cmif",
 "subtype":
 "#ya489e21-54d5-40de-a56d-f4548e894428",
 "color":
 "#654321",
 "caption":
 "Gedruckte Briefwechsel",
 "head":
 "Arthur Schnitzler an Otto Brahm, 20.1.1908",
 "source":
 "Der Briefwechsel Arthur Schnitzler – Otto Brahm. Vollständige Ausgabe. Hg., eingel. und erl. von Oskar Seidlin. Tübingen: Niemeyer, 1975."
}] 