[{
 "type":
 "schnitzler-tagebuch",
 "color":
 "#037a33",
 "filename":
 "entry__1908-07-20",
 "caption":
 "Tagebuch",
 "idno":
 "https://schnitzler-tagebuch.acdh.oeaw.ac.at/entry__1908-07-20.html",
 "head":
 "Tagebuch, 20. Juli 1908"
}, {
 "type":
 "schnitzler-briefe",
 "color":
 "#A63437",
 "filename":
 "L01784",
 "caption":
 "Briefe mit Autorinnen und Autoren",
 "idno":
 "https://schnitzler-briefe.acdh.oeaw.ac.at/L01784.html",
 "head":
 "Arthur Schnitzler, Olga Schnitzler an Richard Beer-Hofmann, 20. 7. 1908",
 "desc":
{"listPerson":
  [
{
 "persName":
 "Olga Schnitzler",
 "ref":
 "pmb2173"},
 {
 "persName":
 "Richard Beer-Hofmann",
 "ref":
 "pmb10863"},
 {
 "persName":
 "Franz August Carl Maria Reisch",
 "ref":
 "pmb27687"},
 {
 "persName":
 "Otto Brahm",
 "ref":
 "pmb10986"}],
 "listBibl":
  [
 {
 "title":
 "Partie in Seis am Schlern",
 "ref":
 "pmb51884"}
 ],
 "listPlace":
  [
 {
 "placeName":
 "Seis am Schlern",
 "ref":
 "pmb988"}
 ,  {
 "placeName":
 "Strobl",
 "ref":
 "pmb895"}
 ,  {
 "placeName":
 "Hotel am See",
 "ref":
 "pmb51516"}
 ,  {
 "placeName":
 "Salzkammergut",
 "ref":
 "pmb429"}
 ,  {
 "placeName":
 "Südtirol",
 "ref":
 "pmb969"}
 ,  {
 "placeName":
 "Meran",
 "ref":
 "pmb43520"}
 ,  {
 "placeName":
 "San Martino di Castrozza",
 "ref":
 "pmb44311"}
 ,  {
 "placeName":
 "Madonna di Campiglio",
 "ref":
 "pmb427"}
 ,  {
 "placeName":
 "Engadin",
 "ref":
 "pmb1061"}
 ]
}
}, {
 "type":
 "schnitzler-orte",
 "color":
 "#045344",
 "filename":
 "entity/988/",
 "caption":
 "Aufenthaltsorte",
 "idno":
 "https://pmb.acdh.oeaw.ac.at/entity/988/",
 "head":
 "Seis am Schlern"
}, {
 "type":
 "schnitzler-orte",
 "color":
 "#045344",
 "filename":
 "entity/467/",
 "caption":
 "Aufenthaltsorte",
 "idno":
 "https://pmb.acdh.oeaw.ac.at/entity/467/",
 "head":
 "Villa Heufler"
}] 