[{
 "type":
 "schnitzler-tagebuch",
 "color":
 "#037a33",
 "filename":
 "entry__1909-07-12",
 "caption":
 "Tagebuch",
 "idno":
 "https://schnitzler-tagebuch.acdh.oeaw.ac.at/entry__1909-07-12.html",
 "head":
 "Tagebuch, 12. Juli 1909",
 "desc":
{"listPerson":
  [
{
 "persName":
 "Raoul Auernheimer",
 "ref":
 "person_13305"},
 {
 "persName":
 "Max Reinhardt",
 "ref":
 "person_19154"},
 {
 "persName":
 "Siegfried Trebitsch",
 "ref":
 "person_20796"}],
 "listBibl":
  [
 {
 "title":
 "Der junge Medardus. Dramatische Historie in einem Vorspiel und fünf Aufzügen",
 "ref":
 "pmb29937"}
 ],
 "listPlace":
  [
 {
 "placeName":
 "Hirschwang an der Rax",
 "ref":
 "pmb90885"}
 ,  {
 "placeName":
 "München",
 "ref":
 "pmb45258"}
 ]
}
}, {
 "type":
 "schnitzler-briefe",
 "color":
 "#A63437",
 "filename":
 "L01855",
 "caption":
 "Briefe mit Autorinnen und Autoren",
 "idno":
 "https://schnitzler-briefe.acdh.oeaw.ac.at/L01855.html",
 "head":
 "Richard Beer-Hofmann an Arthur Schnitzler, 12. 7. 1909",
 "desc":
{"listPerson":
  [
{
 "persName":
 "Richard Beer-Hofmann",
 "ref":
 "pmb10863"},
 {
 "persName":
 "Olga Schnitzler",
 "ref":
 "pmb2173"}],
 "listPlace":
  [
 {
 "placeName":
 "Pichl am See",
 "ref":
 "pmb41102"}
 ,  {
 "placeName":
 "Edlach",
 "ref":
 "pmb470"}
 ,  {
 "placeName":
 "Reichenau an der Rax",
 "ref":
 "pmb483"}
 ,  {
 "placeName":
 "Lido",
 "ref":
 "pmb259"}
 ,  {
 "placeName":
 "Wien",
 "ref":
 "pmb50"}
 ]
}
}, {
 "type":
 "schnitzler-briefe",
 "color":
 "#A63437",
 "filename":
 "L01856",
 "caption":
 "Briefe mit Autorinnen und Autoren",
 "idno":
 "https://schnitzler-briefe.acdh.oeaw.ac.at/L01856.html",
 "head":
 "Max Burckhard an Arthur Schnitzler, 12. 7. 1909",
 "desc":
{"listPerson":
  [
{
 "persName":
 "Max Eugen Burckhard",
 "ref":
 "pmb11036"},
 {
 "persName":
 "Heinrich Schnitzler",
 "ref":
 "pmb12692"},
 {
 "persName":
 "Olga Schnitzler",
 "ref":
 "pmb2173"}],
 "listPlace":
  [
 {
 "placeName":
 "Lueg am Wolfgangsee",
 "ref":
 "pmb186"}
 ,  {
 "placeName":
 "Salzburg",
 "ref":
 "pmb30"}
 ,  {
 "placeName":
 "St. Gilgen",
 "ref":
 "pmb33"}
 ,  {
 "placeName":
 "Wien",
 "ref":
 "pmb50"}
 ,  {
 "placeName":
 "Edmund-Weiß-Gasse",
 "ref":
 "pmb133"}
 ,  {
 "placeName":
 "Franzosenschanze",
 "ref":
 "pmb44453"}
 ]
}
}, {
 "type":
 "schnitzler-orte",
 "color":
 "#045344",
 "filename":
 "entity/470/",
 "caption":
 "Aufenthaltsorte",
 "idno":
 "https://pmb.acdh.oeaw.ac.at/entity/470/",
 "head":
 "Edlach"
}, {
 "type":
 "schnitzler-orte",
 "color":
 "#045344",
 "filename":
 "entity/714/",
 "caption":
 "Aufenthaltsorte",
 "idno":
 "https://pmb.acdh.oeaw.ac.at/entity/714/",
 "head":
 "Hotel Edlacherhof"
}] 