[{
 "type":
 "schnitzler-tagebuch",
 "color":
 "#037a33",
 "filename":
 "entry__1909-04-19",
 "caption":
 "Tagebuch",
 "idno":
 "https://schnitzler-tagebuch.acdh.oeaw.ac.at/entry__1909-04-19.html",
 "head":
 "Tagebuch, 19. April 1909",
 "desc":
{"listPerson":
  [
{
 "persName":
 "Gertrude von Hofmannsthal",
 "ref":
 "person_16292"},
 {
 "persName":
 "Josef Kainz",
 "ref":
 "person_16646"},
 {
 "persName":
 "Alfred Kerr",
 "ref":
 "person_16819"},
 {
 "persName":
 "Felix Salten",
 "ref":
 "person_19542"},
 {
 "persName":
 "Ottilie Salten",
 "ref":
 "person_19543"},
 {
 "persName":
 "Hugo von Hofmannsthal",
 "ref":
 "person_16293"}],
 "listBibl":
  [
 {
 "title":
 "Der junge Medardus. Dramatische Historie in einem Vorspiel und fünf Aufzügen",
 "ref":
 "pmb29937"}
 ]
}
}, {
 "type":
 "schnitzler-briefe",
 "color":
 "#A63437",
 "filename":
 "L02593",
 "caption":
 "Briefe mit Autorinnen und Autoren",
 "idno":
 "https://schnitzler-briefe.acdh.oeaw.ac.at/L02593.html",
 "head":
 "Marie Herzfeld an Arthur Schnitzler, 19. 4. 1909",
 "desc":
{"listPerson":
  [
{
 "persName":
 "Marie Herzfeld",
 "ref":
 "pmb11666"},
 {
 "persName":
 "Anna Rotenstern-Tesi",
 "ref":
 "pmb23640"},
 {
 "persName":
 "Sophus Michaëlis",
 "ref":
 "pmb12251"},
 {
 "persName":
 "Peter Rotenstern",
 "ref":
 "pmb2992"}],
 "listBibl":
  [
 {
 "title":
 "Revolutionsbryllup. Skuespil i tre Akter",
 "ref":
 "pmb65638"}
 ,  {
 "title":
 "Revolutionshochzeit. Schauspiel in drei Aufzügen",
 "ref":
 "pmb65368"}
 ],
 "listOrg":
  [
 {
 "orgName":
 "Erich-Reiss-Verlag",
 "ref":
 "pmb65371"}
 ,  {
 "orgName":
 "Société des Auteurs et Compositeurs Dramatiques",
 "ref":
 "pmb29397"}
 ,  {
 "orgName":
 "Verein dramatischer und musikalischer Autoren",
 "ref":
 "pmb57787"}
 ],
 "listPlace":
  [
 {
 "placeName":
 "Wien",
 "ref":
 "pmb50"}
 ,  {
 "placeName":
 "Lichtenauergasse",
 "ref":
 "pmb65358"}
 ,  {
 "placeName":
 "Berlin",
 "ref":
 "pmb168"}
 ,  {
 "placeName":
 "Frankreich",
 "ref":
 "pmb166"}
 ,  {
 "placeName":
 "Russland",
 "ref":
 "pmb34438"}
 ,  {
 "placeName":
 "Paris",
 "ref":
 "pmb182"}
 ,  {
 "placeName":
 "Moskau",
 "ref":
 "pmb869"}
 ,  {
 "placeName":
 "Sankt Petersburg",
 "ref":
 "pmb433"}
 ]
}
}, {
 "type":
 "schnitzler-orte",
 "color":
 "#045344",
 "filename":
 "entity/50/",
 "caption":
 "Aufenthaltsorte",
 "idno":
 "https://pmb.acdh.oeaw.ac.at/entity/50/",
 "head":
 "Wien"
}] 