[{
 "type":
 "schnitzler-tagebuch",
 "color":
 "#037a33",
 "filename":
 "entry__1910-07-23",
 "caption":
 "Tagebuch",
 "idno":
 "https://schnitzler-tagebuch.acdh.oeaw.ac.at/entry__1910-07-23.html",
 "head":
 "Tagebuch, 23. Juli 1910"
}, {
 "type":
 "schnitzler-briefe",
 "color":
 "#A63437",
 "filename":
 "L01950",
 "caption":
 "Briefe mit Autorinnen und Autoren",
 "idno":
 "https://schnitzler-briefe.acdh.oeaw.ac.at/L01950.html",
 "head":
 "Arthur Schnitzler an Richard Beer-Hofmann, 23. 7. 1910",
 "desc":
{"listPerson":
  [
{
 "persName":
 "Richard Beer-Hofmann",
 "ref":
 "pmb10863"},
 {
 "persName":
 "Grethe Hoffmann",
 "ref":
 "pmb18378"},
 {
 "persName":
 "Frieda Pollak",
 "ref":
 "pmb22728"},
 {
 "persName":
 "Otto Brahm",
 "ref":
 "pmb10986"},
 {
 "persName":
 "Josef Kainz",
 "ref":
 "pmb11851"},
 {
 "persName":
 "Alfred von Berger",
 "ref":
 "pmb10883"}],
 "listBibl":
  [
 {
 "title":
 "Schlaflied für Mirjam",
 "ref":
 "pmb39783"}
 ,  {
 "title":
 "Das weite Land. Tragikomödie in fünf Akten",
 "ref":
 "pmb30207"}
 ],
 "listPlace":
  [
 {
 "placeName":
 "XVIII., Währing",
 "ref":
 "pmb68"}
 ,  {
 "placeName":
 "Wien",
 "ref":
 "pmb50"}
 ,  {
 "placeName":
 "Bad Ischl",
 "ref":
 "pmb213"}
 ,  {
 "placeName":
 "Edmund-Weiß-Gasse",
 "ref":
 "pmb133"}
 ,  {
 "placeName":
 "Steinfeld",
 "ref":
 "pmb405"}
 ,  {
 "placeName":
 "Sternwartestraße",
 "ref":
 "pmb150"}
 ,  {
 "placeName":
 "Semmering",
 "ref":
 "pmb189"}
 ,  {
 "placeName":
 "Salzkammergut",
 "ref":
 "pmb429"}
 ]
}
}, {
 "type":
 "schnitzler-briefe",
 "color":
 "#A63437",
 "filename":
 "L01951",
 "caption":
 "Briefe mit Autorinnen und Autoren",
 "idno":
 "https://schnitzler-briefe.acdh.oeaw.ac.at/L01951.html",
 "head":
 "Hugo von Hofmannsthal, Louis Friedmann, Gerty von Hofmannsthal, Rose Friedmann an Arthur Schnitzler, 23. 7. 1910",
 "desc":
{"listPerson":
  [
{
 "persName":
 "Hugo von Hofmannsthal",
 "ref":
 "pmb11740"},
 {
 "persName":
 "Louis Philipp Friedmann",
 "ref":
 "pmb16658"},
 {
 "persName":
 "Gertrude von Hofmannsthal",
 "ref":
 "pmb2292"},
 {
 "persName":
 "Rose Friedmann",
 "ref":
 "pmb16670"},
 {
 "persName":
 "Moritz von Schwind",
 "ref":
 "pmb9814"},
 {
 "persName":
 "Eduard von Bauernfeld",
 "ref":
 "pmb10854"},
 {
 "persName":
 "Heinrich Schnitzler",
 "ref":
 "pmb12692"}],
 "listBibl":
  [
 {
 "title":
 "Die Landpartie. Schwind und Bauernfeld auf einem Leiterwagen",
 "ref":
 "pmb46835"}
 ],
 "listPlace":
  [
 {
 "placeName":
 "München",
 "ref":
 "pmb45258"}
 ,  {
 "placeName":
 "Wien",
 "ref":
 "pmb50"}
 ,  {
 "placeName":
 "Edmund-Weiß-Gasse",
 "ref":
 "pmb133"}
 ,  {
 "placeName":
 "Salzburg",
 "ref":
 "pmb30"}
 ]
}
}, {
 "type":
 "schnitzler-orte",
 "color":
 "#045344",
 "filename":
 "entity/50/",
 "caption":
 "Aufenthaltsorte",
 "idno":
 "https://pmb.acdh.oeaw.ac.at/entity/50/",
 "head":
 "Wien"
}, {
 "type":
 "schnitzler-bahr",
 "color":
 "#F9BD63",
 "filename":
 "L041555",
 "caption":
 "Schnitzler/Bahr",
 "idno":
 "https://schnitzler-bahr.acdh.oeaw.ac.at/L041555.html",
 "head":
 "Brahm an Schnitzler, 23. 7. 1910",
 "desc":
{"listPerson":
  [
{
 "persName":
 "Otto Brahm",
 "ref":
 "pmb10986"},
 {
 "persName":
 "Heinrich von Kleist",
 "ref":
 "pmb11933"},
 {
 "persName":
 "Paul Jonas",
 "ref":
 "pmb4532"},
 {
 "persName":
 "Hermann Bahr",
 "ref":
 "pmb10815"}],
 "listPlace":
  [
 {
 "placeName":
 "Semmering",
 "ref":
 "pmb189"}
 ,  {
 "placeName":
 "Wien",
 "ref":
 "pmb50"}
 ,  {
 "placeName":
 "Würzburg",
 "ref":
 "pmb852"}
 ,  {
 "placeName":
 "Berlin",
 "ref":
 "pmb168"}
 ]
}
}, {
 "type":
 "schnitzler-cmif",
 "subtype":
 "#hbas_0a380dfe-61d4-4b9e-8641-01eba8e50777",
 "color":
 "#654321",
 "caption":
 "Gedruckte Briefwechsel",
 "head":
 "Otto Brahm an Arthur Schnitzler, 23.7.1910",
 "source":
 "Hermann Bahr, Arthur Schnitzler. Briefwechsel, Aufzeichnungen, Dokumente 1891–1931. Herausgegeben von Kurt Ifkovits, Martin Anton Müller. Göttingen: Wallstein Verlag 2018"
}, {
 "type":
 "schnitzler-cmif",
 "subtype":
 "#ya489e21-54d5-40de-a56d-f4548e894428",
 "color":
 "#654321",
 "caption":
 "Gedruckte Briefwechsel",
 "head":
 "Otto Brahm an Arthur Schnitzler, 23.7.1910",
 "source":
 "Der Briefwechsel Arthur Schnitzler – Otto Brahm. Vollständige Ausgabe. Hg., eingel. und erl. von Oskar Seidlin. Tübingen: Niemeyer, 1975."
}] 