[{
 "type":
 "schnitzler-tagebuch",
 "color":
 "#037a33",
 "filename":
 "entry__1910-10-08",
 "caption":
 "Tagebuch",
 "idno":
 "https://schnitzler-tagebuch.acdh.oeaw.ac.at/entry__1910-10-08.html",
 "head":
 "Tagebuch, 8. Oktober 1910",
 "desc":
{"listBibl":
  [
 {
 "title":
 "Komödianten-Zyklus",
 "ref":
 "pmb36097"}
 ,  {
 "title":
 "Der Komödiant",
 "ref":
 "pmb30319"}
 ,  {
 "title":
 "Komödiantin",
 "ref":
 "pmb36101"}
 ]
}
}, {
 "type":
 "schnitzler-briefe",
 "color":
 "#A63437",
 "filename":
 "L01963",
 "caption":
 "Briefe mit Autorinnen und Autoren",
 "idno":
 "https://schnitzler-briefe.acdh.oeaw.ac.at/L01963.html",
 "head":
 "Arthur Schnitzler an Hermann Bahr, 8. 10. 1910",
 "desc":
{"listPerson":
  [
{
 "persName":
 "Hermann Bahr",
 "ref":
 "pmb10815"},
 {
 "persName":
 "Cesare Levi",
 "ref":
 "pmb2242"}],
 "listBibl":
  [
 {
 "title":
 "Das Konzert. Lustspiel in drei Akten",
 "ref":
 "pmb29933"}
 ,  {
 "title":
 "Anatols Hochzeitsmorgen",
 "ref":
 "pmb30033"}
 ,  {
 "title":
 "Abschiedssouper",
 "ref":
 "pmb30005"}
 ,  {
 "title":
 "Literatur",
 "ref":
 "pmb29869"}
 ,  {
 "title":
 "Der Puppenspieler",
 "ref":
 "pmb29873"}
 ,  {
 "title":
 "Die letzten Masken",
 "ref":
 "pmb29877"}
 ,  {
 "title":
 "Der junge Medardus. Dramatische Historie in einem Vorspiel und fünf Aufzügen",
 "ref":
 "pmb29937"}
 ],
 "listPlace":
  [
 {
 "placeName":
 "London",
 "ref":
 "pmb224"}
 ,  {
 "placeName":
 "Wien",
 "ref":
 "pmb50"}
 ,  {
 "placeName":
 "Sternwartestraße",
 "ref":
 "pmb150"}
 ,  {
 "placeName":
 "Victoria Embankment",
 "ref":
 "pmb660"}
 ,  {
 "placeName":
 "De Keysers Royal Hotel",
 "ref":
 "pmb16"}
 ,  {
 "placeName":
 "England",
 "ref":
 "pmb254"}
 ,  {
 "placeName":
 "Italien",
 "ref":
 "pmb40306"}
 ]
}
}, {
 "type":
 "schnitzler-orte",
 "color":
 "#045344",
 "filename":
 "entity/50/",
 "caption":
 "Aufenthaltsorte",
 "idno":
 "https://pmb.acdh.oeaw.ac.at/entity/50/",
 "head":
 "Wien"
}, {
 "type":
 "schnitzler-bahr",
 "color":
 "#F9BD63",
 "filename":
 "L041118",
 "caption":
 "Schnitzler/Bahr",
 "idno":
 "https://schnitzler-bahr.acdh.oeaw.ac.at/L041118.html",
 "head":
 "Schnitzler an Bahr, 8. 10. 1910",
 "desc":
{"listPerson":
  [
{
 "persName":
 "Hermann Bahr",
 "ref":
 "pmb10815"},
 {
 "persName":
 "Cesare Levi",
 "ref":
 "pmb2242"}],
 "listBibl":
  [
 {
 "title":
 "Das Konzert. Lustspiel in drei Akten",
 "ref":
 "pmb29933"}
 ,  {
 "title":
 "Anatols Hochzeitsmorgen",
 "ref":
 "pmb30033"}
 ,  {
 "title":
 "Der Puppenspieler",
 "ref":
 "pmb29873"}
 ,  {
 "title":
 "Abschiedssouper",
 "ref":
 "pmb30005"}
 ,  {
 "title":
 "Die letzten Masken",
 "ref":
 "pmb29877"}
 ,  {
 "title":
 "Literatur",
 "ref":
 "pmb29869"}
 ,  {
 "title":
 "Der junge Medardus. Dramatische Historie in einem Vorspiel und fünf Aufzügen",
 "ref":
 "pmb29937"}
 ],
 "listPlace":
  [
 {
 "placeName":
 "Wien",
 "ref":
 "pmb50"}
 ,  {
 "placeName":
 "London",
 "ref":
 "pmb224"}
 ,  {
 "placeName":
 "Sternwartestraße",
 "ref":
 "pmb150"}
 ,  {
 "placeName":
 "Victoria Embankment",
 "ref":
 "pmb660"}
 ,  {
 "placeName":
 "De Keysers Royal Hotel",
 "ref":
 "pmb16"}
 ,  {
 "placeName":
 "England",
 "ref":
 "pmb254"}
 ,  {
 "placeName":
 "Italien",
 "ref":
 "pmb40306"}
 ]
}
}, {
 "type":
 "kalliope-verbund",
 "color":
 "#003574",
 "caption":
 "Kalliope Verbundkatalog",
 "idno":
 "http://kalliope-verbund.info/DE-2498-HS00892254",
 "head":
 "Schnitzler, Arthur an Kutscher, Artur [Briefe]",
 "text":
 "1 Bl.",
 "desc":
{"listPerson":
  [
{
 "persName":
 "Artur (1878-1960) Kutscher",
 "ref":
 "http://d-nb.info/gnd/118725645"}]
}
}, {
 "type":
 "kalliope-verbund",
 "color":
 "#003574",
 "caption":
 "Kalliope Verbundkatalog",
 "idno":
 "http://kalliope-verbund.info/DE-2498-HS00080103",
 "head":
 "Schnitzler, Arthur: Der Komödiant [Dramatisches] (Manuskripttitel)",
 "text":
 "5 Bl."
}] 