[{
 "type":
 "schnitzler-tagebuch",
 "color":
 "#037a33",
 "filename":
 "entry__1910-09-18",
 "caption":
 "Tagebuch",
 "idno":
 "https://schnitzler-tagebuch.acdh.oeaw.ac.at/entry__1910-09-18.html",
 "head":
 "Tagebuch, 18. September 1910",
 "desc":
{"listPerson":
  [
{
 "persName":
 "Karl Gentner",
 "ref":
 "person_15390"},
 {
 "persName":
 "Paul Goldmann",
 "ref":
 "person_15529"},
 {
 "persName":
 "Franz Neumann",
 "ref":
 "person_18417"},
 {
 "persName":
 "Ludwig Rottenberg",
 "ref":
 "person_19433"},
 {
 "persName":
 "Lisbeth Sellin",
 "ref":
 "person_20052"},
 {
 "persName":
 "Theodore Rottenberg",
 "ref":
 "person_19434"}],
 "listBibl":
  [
 {
 "title":
 "Liebelei. Oper in drei Akten",
 "ref":
 "pmb31311"}
 ],
 "listPlace":
  [
 {
 "placeName":
 "Darmstadt",
 "ref":
 "pmb834"}
 ,  {
 "placeName":
 "Frankfurt am Main",
 "ref":
 "pmb146"}
 ,  {
 "placeName":
 "Riva del Garda",
 "ref":
 "pmb465"}
 ,  {
 "placeName":
 "Lavarone",
 "ref":
 "pmb461"}
 ]
}
}, {
 "type":
 "schnitzler-briefe",
 "color":
 "#A63437",
 "filename":
 "L01956",
 "caption":
 "Briefe mit Autorinnen und Autoren",
 "idno":
 "https://schnitzler-briefe.acdh.oeaw.ac.at/L01956.html",
 "head":
 "Arthur Schnitzler, Olga Schnitzler an Hermann Bahr, 18. 9. 1910",
 "desc":
{"listPerson":
  [
{
 "persName":
 "Olga Schnitzler",
 "ref":
 "pmb2173"},
 {
 "persName":
 "Hermann Bahr",
 "ref":
 "pmb10815"},
 {
 "persName":
 "Anna Bahr-Mildenburg",
 "ref":
 "pmb10818"}],
 "listPlace":
  [
 {
 "placeName":
 "Darmstadt",
 "ref":
 "pmb834"}
 ,  {
 "placeName":
 "Wien",
 "ref":
 "pmb50"}
 ,  {
 "placeName":
 "Ober Sankt Veit",
 "ref":
 "pmb165"}
 ,  {
 "placeName":
 "Veitlissengasse",
 "ref":
 "pmb220"}
 ]
}
}, {
 "type":
 "schnitzler-orte",
 "color":
 "#045344",
 "filename":
 "entity/146/",
 "caption":
 "Aufenthaltsorte",
 "idno":
 "https://pmb.acdh.oeaw.ac.at/entity/146/",
 "head":
 "Frankfurt am Main"
}, {
 "type":
 "schnitzler-orte",
 "color":
 "#045344",
 "filename":
 "entity/834/",
 "caption":
 "Aufenthaltsorte",
 "idno":
 "https://pmb.acdh.oeaw.ac.at/entity/834/",
 "head":
 "Darmstadt"
}, {
 "type":
 "schnitzler-bahr",
 "color":
 "#F9BD63",
 "filename":
 "L041116",
 "caption":
 "Schnitzler/Bahr",
 "idno":
 "https://schnitzler-bahr.acdh.oeaw.ac.at/L041116.html",
 "head":
 "Arthur und Olga Schnitzler an Bahr, 18. 9. 1910",
 "desc":
{"listPerson":
  [
{
 "persName":
 "Olga Schnitzler",
 "ref":
 "pmb2173"},
 {
 "persName":
 "Hermann Bahr",
 "ref":
 "pmb10815"},
 {
 "persName":
 "Anna Bahr-Mildenburg",
 "ref":
 "pmb10818"}],
 "listPlace":
  [
 {
 "placeName":
 "Darmstadt",
 "ref":
 "pmb834"}
 ,  {
 "placeName":
 "Wien",
 "ref":
 "pmb50"}
 ,  {
 "placeName":
 "Ober Sankt Veit",
 "ref":
 "pmb165"}
 ,  {
 "placeName":
 "Veitlissengasse",
 "ref":
 "pmb220"}
 ]
}
}, {
 "type":
 "pmb",
 "color":
 "#9B5F98",
 "filename":
 "entity/46947/",
 "caption":
 "PMB",
 "idno":
 "https://pmb.acdh.oeaw.ac.at/entity/46947/",
 "head":
 "Uraufführung von Liebelei. Oper in drei Akten, 18.9.1910",
 "desc":
{"listBibl":
  [
 {
 "title":
 "Liebelei. Oper in drei Akten",
 "ref":
 "pmb31311"}
 ],
 "listPerson":
  [
{
 "persName":
 "Olga Schnitzler",
 "ref":
 "pmb2173"},
 {
 "persName":
 "Lisbeth Sellin",
 "ref":
 "pmb24821"},
 {
 "persName":
 "Karl Gentner",
 "ref":
 "pmb16990"}],
 "listPlace":
  [
 {
 "placeName":
 "Frankfurt am Main",
 "ref":
 "pmb146"}
 ],
 "listOrg":
  [
 {
 "orgName":
 "Frankfurter Opernhaus",
 "ref":
 "pmb46954"}
 ]
}
}] 