[{
 "type":
 "schnitzler-tagebuch",
 "color":
 "#037a33",
 "filename":
 "entry__1910-04-08",
 "caption":
 "Tagebuch",
 "idno":
 "https://schnitzler-tagebuch.acdh.oeaw.ac.at/entry__1910-04-08.html",
 "head":
 "Tagebuch, 8. April 1910",
 "desc":
{"listPerson":
  [
{
 "persName":
 "Robert von Balajthy",
 "ref":
 "person_13383"},
 {
 "persName":
 "Richard Beer-Hofmann",
 "ref":
 "person_13551"},
 {
 "persName":
 "Max Devrient",
 "ref":
 "person_14434"},
 {
 "persName":
 "Arnold Korff",
 "ref":
 "person_17046"},
 {
 "persName":
 "Carl von Zeska",
 "ref":
 "person_21543"}],
 "listBibl":
  [
 {
 "title":
 "Liebelei. Schauspiel in drei Akten",
 "ref":
 "pmb29917"}
 ,  {
 "title":
 "Die Schule der Frauen",
 "ref":
 "pmb76775"}
 ],
 "listPlace":
  [
 {
 "placeName":
 "VIII., Josefstadt",
 "ref":
 "pmb58"}
 ]
}
}, {
 "type":
 "schnitzler-briefe",
 "color":
 "#A63437",
 "filename":
 "L01922",
 "caption":
 "Briefe mit Autorinnen und Autoren",
 "idno":
 "https://schnitzler-briefe.acdh.oeaw.ac.at/L01922.html",
 "head":
 "Max Burckhard an Arthur Schnitzler, 8. 4. 1910",
 "desc":
{"listPerson":
  [
{
 "persName":
 "Max Eugen Burckhard",
 "ref":
 "pmb11036"}],
 "listBibl":
  [
 {
 "title":
 "Trinacria",
 "ref":
 "pmb33516"}
 ],
 "listPlace":
  [
 {
 "placeName":
 "St. Gilgen",
 "ref":
 "pmb33"}
 ,  {
 "placeName":
 "Wien",
 "ref":
 "pmb50"}
 ,  {
 "placeName":
 "Porzellangasse",
 "ref":
 "pmb436"}
 ,  {
 "placeName":
 "Portofino",
 "ref":
 "pmb44269"}
 ,  {
 "placeName":
 "Sizilien",
 "ref":
 "pmb451"}
 ]
}
}, {
 "type":
 "schnitzler-briefe",
 "color":
 "#A63437",
 "filename":
 "L01923",
 "caption":
 "Briefe mit Autorinnen und Autoren",
 "idno":
 "https://schnitzler-briefe.acdh.oeaw.ac.at/L01923.html",
 "head":
 "Hugo von Hofmannsthal an Arthur Schnitzler, 8. 4. 1910",
 "desc":
{"listPerson":
  [
{
 "persName":
 "Hugo von Hofmannsthal",
 "ref":
 "pmb11740"},
 {
 "persName":
 "Gertrude von Hofmannsthal",
 "ref":
 "pmb2292"},
 {
 "persName":
 "Olga Schnitzler",
 "ref":
 "pmb2173"}],
 "listPlace":
  [
 {
 "placeName":
 "IX., Alsergrund",
 "ref":
 "pmb59"}
 ,  {
 "placeName":
 "Wien",
 "ref":
 "pmb50"}
 ,  {
 "placeName":
 "Edmund-Weiß-Gasse",
 "ref":
 "pmb133"}
 ,  {
 "placeName":
 "Sanatorium Loew",
 "ref":
 "pmb89"}
 ,  {
 "placeName":
 "Pelikangasse",
 "ref":
 "pmb198"}
 ]
}
}, {
 "type":
 "schnitzler-orte",
 "color":
 "#045344",
 "filename":
 "entity/50/",
 "caption":
 "Aufenthaltsorte",
 "idno":
 "https://pmb.acdh.oeaw.ac.at/entity/50/",
 "head":
 "Wien"
}, {
 "type":
 "schnitzler-cmif",
 "subtype":
 "#m5ca120f-450d-4a59-9a44-d5822a34aee9",
 "color":
 "#654321",
 "caption":
 "Gedruckte Briefwechsel",
 "head":
 "Arthur Schnitzler an Gustaf Linden, 8.4.1910",
 "source":
 "Arthur Schnitzler, Gustaf Linden: Ein Briefwechsel. 1907–1929, Wien: Edition Praesens 2005 (Wechselbeziehungen Österreich-Norden, Band 7)."
}, {
 "type":
 "kalliope-verbund",
 "color":
 "#003574",
 "caption":
 "Kalliope Verbundkatalog",
 "idno":
 "http://kalliope-verbund.info/DE-2498-HS00044862",
 "head":
 "Schnitzler, Arthur an Breitkopf &amp; Härtel (Leipzig) [Briefe]",
 "text":
 "1 Bl.Durchschl.",
 "desc":
{"listPerson":
  [
{
 "persName":
 "Breitkopf &amp; Härtel (Leipzig) (1796-1945)",
 "ref":
 "http://d-nb.info/gnd/64766-4"}]
}
}] 