[{
 "type":
 "schnitzler-tagebuch",
 "color":
 "#037a33",
 "filename":
 "entry__1911-10-06",
 "caption":
 "Tagebuch",
 "idno":
 "https://schnitzler-tagebuch.acdh.oeaw.ac.at/entry__1911-10-06.html",
 "head":
 "Tagebuch, 6. Oktober 1911",
 "desc":
{"listPerson":
  [
{
 "persName":
 "Stefanie Bachrach",
 "ref":
 "person_13359"},
 {
 "persName":
 "Moriz Benedikt",
 "ref":
 "person_13595"},
 {
 "persName":
 "Felix Hollaender",
 "ref":
 "person_16326"},
 {
 "persName":
 "Otto von Bismarck",
 "ref":
 "person_13749"},
 {
 "persName":
 "Maximilian Harden",
 "ref":
 "person_15919"}],
 "listBibl":
  [
 {
 "title":
 "Das letzte Glück",
 "ref":
 "pmb76932"}
 ,  {
 "title":
 "Der goldene Spiegel",
 "ref":
 "pmb76939"}
 ]
}
}, {
 "type":
 "schnitzler-briefe",
 "color":
 "#A63437",
 "filename":
 "L02033",
 "caption":
 "Briefe mit Autorinnen und Autoren",
 "idno":
 "https://schnitzler-briefe.acdh.oeaw.ac.at/L02033.html",
 "head":
 "Georg Brandes an Arthur Schnitzler, 6. 10. 1911",
 "desc":
{"listPerson":
  [
{
 "persName":
 "Georg Brandes",
 "ref":
 "pmb10992"},
 {
 "persName":
 "Moritz Prozor",
 "ref":
 "pmb5485"},
 {
 "persName":
 "Henrik Ibsen",
 "ref":
 "pmb11798"},
 {
 "persName":
 "Märta Margareta Prozor",
 "ref":
 "pmb29113"},
 {
 "persName":
 "Grete Prozor",
 "ref":
 "pmb29117"},
 {
 "persName":
 "Suzanne Desprès",
 "ref":
 "pmb3659"},
 {
 "persName":
 "Théodore Barrière",
 "ref":
 "pmb13763"},
 {
 "persName":
 "Henri Murger",
 "ref":
 "pmb8987"}],
 "listBibl":
  [
 {
 "title":
 "Hedda Gabler",
 "ref":
 "pmb29915"}
 ,  {
 "title":
 "Das Leben der Bohème",
 "ref":
 "pmb36400"}
 ,  {
 "title":
 "Nora oder ein Puppenheim",
 "ref":
 "pmb31395"}
 ],
 "listOrg":
  [
 {
 "orgName":
 "Neue Freie Presse",
 "ref":
 "pmb29351"}
 ],
 "listPlace":
  [
 {
 "placeName":
 "Dänemark",
 "ref":
 "pmb43570"}
 ,  {
 "placeName":
 "Kopenhagen",
 "ref":
 "pmb36300"}
 ,  {
 "placeName":
 "Frankreich",
 "ref":
 "pmb166"}
 ,  {
 "placeName":
 "Wien",
 "ref":
 "pmb50"}
 ,  {
 "placeName":
 "Carl-Theater",
 "ref":
 "pmb118"}
 ,  {
 "placeName":
 "Italien",
 "ref":
 "pmb40306"}
 ,  {
 "placeName":
 "Schottland",
 "ref":
 "pmb576"}
 ,  {
 "placeName":
 "University of St. Andrews",
 "ref":
 "pmb1130"}
 ,  {
 "placeName":
 "Edinburgh",
 "ref":
 "pmb44234"}
 ]
}
}, {
 "type":
 "schnitzler-orte",
 "color":
 "#045344",
 "filename":
 "entity/91735/",
 "caption":
 "Aufenthaltsorte",
 "idno":
 "https://pmb.acdh.oeaw.ac.at/entity/91735/",
 "head":
 "Semmering"
}, {
 "type":
 "kalliope-verbund",
 "color":
 "#003574",
 "caption":
 "Kalliope Verbundkatalog",
 "idno":
 "http://kalliope-verbund.info/DE-2498-HS00036393",
 "head":
 "Heller, Hugo an Polgar, Alfred [Briefe]",
 "text":
 "1 Bl.",
 "desc":
{"listPerson":
  [
{
 "persName":
 "Hugo (1870-1923) Heller",
 "ref":
 "http://d-nb.info/gnd/116686499"},
 {
 "persName":
 "Alfred (1873-1955) Polgar",
 "ref":
 "http://d-nb.info/gnd/118595474"}]
}
}] 