[{
 "type":
 "schnitzler-tagebuch",
 "color":
 "#037a33",
 "filename":
 "entry__1911-04-11",
 "caption":
 "Tagebuch",
 "idno":
 "https://schnitzler-tagebuch.acdh.oeaw.ac.at/entry__1911-04-11.html",
 "head":
 "Tagebuch, 11. April 1911",
 "desc":
{"listPerson":
  [
{
 "persName":
 "Julian Marcuse",
 "ref":
 "person_17863"},
 {
 "persName":
 "Heinrich von Schullern",
 "ref":
 "person_19931"},
 {
 "persName":
 "Elisabeth Steinrück",
 "ref":
 "person_20386"},
 {
 "persName":
 "Albert Steinrück",
 "ref":
 "person_20383"}],
 "listBibl":
  [
 {
 "title":
 "Ärzte",
 "ref":
 "pmb81286"}
 ],
 "listPlace":
  [
 {
 "placeName":
 "Garmisch-Partenkirchen",
 "ref":
 "pmb667"}
 ]
}
}, {
 "type":
 "schnitzler-briefe",
 "color":
 "#A63437",
 "filename":
 "L02016",
 "caption":
 "Briefe mit Autorinnen und Autoren",
 "idno":
 "https://schnitzler-briefe.acdh.oeaw.ac.at/L02016.html",
 "head":
 "Georg Brandes an Arthur Schnitzler, 11. 4. 1911",
 "desc":
{"listPerson":
  [
{
 "persName":
 "Georg Brandes",
 "ref":
 "pmb10992"}],
 "listBibl":
  [
 {
 "title":
 "Det kgl. Teater [Der Schleier der Pierrette]",
 "ref":
 "pmb33360"}
 ,  {
 "title":
 "Der Schleier der Pierrette",
 "ref":
 "pmb30215"}
 ,  {
 "title":
 "Før og nu. To tragiske Skaebner",
 "ref":
 "pmb33358"}
 ],
 "listPlace":
  [
 {
 "placeName":
 "Kopenhagen",
 "ref":
 "pmb36300"}
 ,  {
 "placeName":
 "Menton",
 "ref":
 "pmb36456"}
 ,  {
 "placeName":
 "Sternwartestraße",
 "ref":
 "pmb150"}
 ,  {
 "placeName":
 "XVIII., Währing",
 "ref":
 "pmb68"}
 ,  {
 "placeName":
 "Havnegade",
 "ref":
 "pmb1111"}
 ,  {
 "placeName":
 "Deutschland",
 "ref":
 "pmb151"}
 ,  {
 "placeName":
 "Dänemark",
 "ref":
 "pmb43570"}
 ,  {
 "placeName":
 "Hôtel Lutetia",
 "ref":
 "pmb1095"}
 ,  {
 "placeName":
 "Boulevard Raspail",
 "ref":
 "pmb1094"}
 ]
}
}, {
 "type":
 "schnitzler-orte",
 "color":
 "#045344",
 "filename":
 "entity/667/",
 "caption":
 "Aufenthaltsorte",
 "idno":
 "https://pmb.acdh.oeaw.ac.at/entity/667/",
 "head":
 "Garmisch-Partenkirchen"
}, {
 "type":
 "schnitzler-cmif",
 "subtype":
 "#ya489e21-54d5-40de-a56d-f4548e894428",
 "color":
 "#654321",
 "caption":
 "Gedruckte Briefwechsel",
 "head":
 "Otto Brahm an Arthur Schnitzler, 11.4.1911",
 "source":
 "Der Briefwechsel Arthur Schnitzler – Otto Brahm. Vollständige Ausgabe. Hg., eingel. und erl. von Oskar Seidlin. Tübingen: Niemeyer, 1975."
}] 