[{
 "type":
 "schnitzler-tagebuch",
 "color":
 "#037a33",
 "filename":
 "entry__1911-07-13",
 "caption":
 "Tagebuch",
 "idno":
 "https://schnitzler-tagebuch.acdh.oeaw.ac.at/entry__1911-07-13.html",
 "head":
 "Tagebuch, 13. Juli 1911",
 "desc":
{"listPerson":
  [
{
 "persName":
 "Heinrich Schnitzler",
 "ref":
 "person_19822"},
 {
 "persName":
 "Julius Schnitzler",
 "ref":
 "person_19827"},
 {
 "persName":
 "Johanna Schmidl",
 "ref":
 "person_16852"}],
 "listBibl":
  [
 {
 "title":
 "Professor Bernhardi. Komödie in fünf Akten",
 "ref":
 "pmb30203"}
 ],
 "listPlace":
  [
 {
 "placeName":
 "Wien",
 "ref":
 "pmb50"}
 ]
}
}, {
 "type":
 "schnitzler-orte",
 "color":
 "#045344",
 "filename":
 "entity/50/",
 "caption":
 "Aufenthaltsorte",
 "idno":
 "https://pmb.acdh.oeaw.ac.at/entity/50/",
 "head":
 "Wien"
}, {
 "type":
 "schnitzler-bahr",
 "color":
 "#F9BD63",
 "filename":
 "L041622",
 "caption":
 "Schnitzler/Bahr",
 "idno":
 "https://schnitzler-bahr.acdh.oeaw.ac.at/L041622.html",
 "head":
 "Brahm an Bahr, 13. 7. 1911",
 "desc":
{"listPerson":
  [
{
 "persName":
 "Otto Brahm",
 "ref":
 "pmb10986"},
 {
 "persName":
 "Hermann Bahr",
 "ref":
 "pmb10815"},
 {
 "persName":
 "Emanuel Reicher",
 "ref":
 "pmb12491"},
 {
 "persName":
 "Gerhart Hauptmann",
 "ref":
 "pmb11617"}],
 "listBibl":
  [
 {
 "title":
 "Das Tänzchen. Lustspiel in drei Akten",
 "ref":
 "pmb30085"}
 ,  {
 "title":
 "Komtesse Mizzi oder Der Familientag",
 "ref":
 "pmb29931"}
 ],
 "listPlace":
  [
 {
 "placeName":
 "Semmering",
 "ref":
 "pmb189"}
 ,  {
 "placeName":
 "Wien",
 "ref":
 "pmb50"}
 ,  {
 "placeName":
 "Lessing-Theater",
 "ref":
 "pmb18"}
 ,  {
 "placeName":
 "Berlin",
 "ref":
 "pmb168"}
 ,  {
 "placeName":
 "Bayreuth",
 "ref":
 "pmb734"}
 ,  {
 "placeName":
 "Agnetendorf",
 "ref":
 "pmb735"}
 ,  {
 "placeName":
 "Eremitage",
 "ref":
 "pmb736"}
 ],
 "listOrg":
  [
 {
 "orgName":
 "Bayreuther Festspiele",
 "ref":
 "pmb29811"}
 ]
}
}] 