[{
 "type":
 "schnitzler-tagebuch",
 "color":
 "#037a33",
 "filename":
 "entry__1912-05-10",
 "caption":
 "Tagebuch",
 "idno":
 "https://schnitzler-tagebuch.acdh.oeaw.ac.at/entry__1912-05-10.html",
 "head":
 "Tagebuch, 10. Mai 1912",
 "desc":
{"listPerson":
  [
{
 "persName":
 "Eugenie Bachrach",
 "ref":
 "person_13355"},
 {
 "persName":
 "Else Speidel-Haeberle",
 "ref":
 "person_15833"},
 {
 "persName":
 "Paula Schmidl",
 "ref":
 "person_19756"},
 {
 "persName":
 "Karl Johannes Schwarz",
 "ref":
 "person_19976"},
 {
 "persName":
 "Agnes Ulmann",
 "ref":
 "person_20872"},
 {
 "persName":
 "Richard Specht",
 "ref":
 "person_20238"}]
}
}, {
 "type":
 "schnitzler-briefe",
 "color":
 "#A63437",
 "filename":
 "L02062",
 "caption":
 "Briefe mit Autorinnen und Autoren",
 "idno":
 "https://schnitzler-briefe.acdh.oeaw.ac.at/L02062.html",
 "head":
 "Peter Altenberg an Arthur Schnitzler, [10.? 5. 1912]",
 "desc":
{"listPerson":
  [
{
 "persName":
 "Peter Altenberg",
 "ref":
 "pmb2147"},
 {
 "persName":
 "Anton Bulling",
 "ref":
 "pmb53386"},
 {
 "persName":
 "Franz Ferdinand von Österreich-Este",
 "ref":
 "pmb3287"},
 {
 "persName":
 "Karl I. von Österreich-Ungarn",
 "ref":
 "pmb19126"},
 {
 "persName":
 "Karl Stephan von Österreich",
 "ref":
 "pmb19131"},
 {
 "persName":
 "Bernhard von Bülow",
 "ref":
 "pmb6560"},
 {
 "persName":
 "Franz Panhans",
 "ref":
 "pmb53388"}],
 "listBibl":
  [
 {
 "title":
 "Der Tod des Junggesellen",
 "ref":
 "pmb33758"}
 ,  {
 "title":
 "Tagebuch",
 "ref":
 "pmb33243"}
 ,  {
 "title":
 "Masken und Wunder. Novellen",
 "ref":
 "pmb32816"}
 ],
 "listOrg":
  [
 {
 "orgName":
 "Österreichischer Wintersport-Klub",
 "ref":
 "pmb53383"}
 ],
 "listPlace":
  [
 {
 "placeName":
 "Semmering",
 "ref":
 "pmb189"}
 ,  {
 "placeName":
 "Hotel Panhans",
 "ref":
 "pmb204"}
 ,  {
 "placeName":
 "Hotel Erzherzog Johann",
 "ref":
 "pmb634"}
 ,  {
 "placeName":
 "Kirche zur heiligen Familie",
 "ref":
 "pmb53381"}
 ,  {
 "placeName":
 "Karlsbad",
 "ref":
 "pmb842"}
 ,  {
 "placeName":
 "Marienbad",
 "ref":
 "pmb772"}
 ,  {
 "placeName":
 "Franzensbad",
 "ref":
 "pmb390"}
 ,  {
 "placeName":
 "Teplice",
 "ref":
 "pmb955"}
 ,  {
 "placeName":
 "Opatija",
 "ref":
 "pmb38096"}
 ,  {
 "placeName":
 "Grado",
 "ref":
 "pmb53379"}
 ,  {
 "placeName":
 "Bad Gastein",
 "ref":
 "pmb521"}
 ,  {
 "placeName":
 "Piešťany",
 "ref":
 "pmb50166"}
 ,  {
 "placeName":
 "Davos",
 "ref":
 "pmb892"}
 ,  {
 "placeName":
 "Triest",
 "ref":
 "pmb873"}
 ]
}
}, {
 "type":
 "schnitzler-orte",
 "color":
 "#045344",
 "filename":
 "entity/50/",
 "caption":
 "Aufenthaltsorte",
 "idno":
 "https://pmb.acdh.oeaw.ac.at/entity/50/",
 "head":
 "Wien"
}, {
 "type":
 "kalliope-verbund",
 "color":
 "#003574",
 "caption":
 "Kalliope Verbundkatalog",
 "idno":
 "http://kalliope-verbund.info/DE-2498-HS00070792",
 "head":
 "Braun, Bernhard an Schnitzler, Arthur [Briefe]",
 "text":
 "1 Bl."
}, {
 "type":
 "kalliope-verbund",
 "color":
 "#003574",
 "caption":
 "Kalliope Verbundkatalog",
 "idno":
 "http://kalliope-verbund.info/DE-2498-HS00077066",
 "head":
 "Ginsberg-Plessner, Elsa an Schnitzler, Arthur [Briefe]",
 "text":
 "1 Bl."
}] 