[{
 "type":
 "schnitzler-tagebuch",
 "color":
 "#037a33",
 "filename":
 "entry__1912-06-15",
 "caption":
 "Tagebuch",
 "idno":
 "https://schnitzler-tagebuch.acdh.oeaw.ac.at/entry__1912-06-15.html",
 "head":
 "Tagebuch, 15. Juni 1912",
 "desc":
{"listBibl":
  [
 {
 "title":
 "Anatol",
 "ref":
 "pmb29935"}
 ,  {
 "title":
 "Abschiedssouper",
 "ref":
 "pmb30005"}
 ,  {
 "title":
 "Die Gefährtin. Schauspiel in einem Akt",
 "ref":
 "pmb29845"}
 ,  {
 "title":
 "Der grüne Kakadu. Groteske in einem Akt",
 "ref":
 "pmb29843"}
 ,  {
 "title":
 "Das weite Land. Tragikomödie in fünf Akten",
 "ref":
 "pmb30207"}
 ,  {
 "title":
 "Liebelei. Schauspiel in drei Akten",
 "ref":
 "pmb29917"}
 ,  {
 "title":
 "Das Märchen. Schauspiel in drei Aufzügen",
 "ref":
 "pmb29823"}
 ,  {
 "title":
 "Der Puppenspieler",
 "ref":
 "pmb29873"}
 ,  {
 "title":
 "Paracelsus. Versspiel in einem Akt",
 "ref":
 "pmb30403"}
 ,  {
 "title":
 "Literatur",
 "ref":
 "pmb29869"}
 ,  {
 "title":
 "Die letzten Masken",
 "ref":
 "pmb29877"}
 ],
 "listPlace":
  [
 {
 "placeName":
 "Wien",
 "ref":
 "pmb50"}
 ,  {
 "placeName":
 "Berlin",
 "ref":
 "pmb168"}
 ,  {
 "placeName":
 "Karlsruhe",
 "ref":
 "pmb871"}
 ,  {
 "placeName":
 "Braunschweig",
 "ref":
 "pmb35572"}
 ,  {
 "placeName":
 "Graz",
 "ref":
 "pmb860"}
 ,  {
 "placeName":
 "Mannheim",
 "ref":
 "pmb881"}
 ,  {
 "placeName":
 "Stuttgart",
 "ref":
 "pmb872"}
 ,  {
 "placeName":
 "Zürich",
 "ref":
 "pmb484"}
 ,  {
 "placeName":
 "Charlottenburg",
 "ref":
 "pmb90466"}
 ,  {
 "placeName":
 "Freiburg im Breisgau",
 "ref":
 "pmb631"}
 ,  {
 "placeName":
 "Frankfurt am Main",
 "ref":
 "pmb146"}
 ,  {
 "placeName":
 "Prag",
 "ref":
 "pmb652"}
 ,  {
 "placeName":
 "Arnstadt",
 "ref":
 "pmb90262"}
 ,  {
 "placeName":
 "Düsseldorf",
 "ref":
 "pmb863"}
 ,  {
 "placeName":
 "München",
 "ref":
 "pmb45258"}
 ,  {
 "placeName":
 "Dresden",
 "ref":
 "pmb90550"}
 ,  {
 "placeName":
 "Kaliningrad",
 "ref":
 "pmb42605"}
 ,  {
 "placeName":
 "Poznan",
 "ref":
 "pmb44282"}
 ,  {
 "placeName":
 "Altona",
 "ref":
 "pmb1259"}
 ,  {
 "placeName":
 "Halle an der Saale",
 "ref":
 "pmb140"}
 ,  {
 "placeName":
 "Breslau",
 "ref":
 "pmb677"}
 ,  {
 "placeName":
 "Brünn",
 "ref":
 "pmb833"}
 ,  {
 "placeName":
 "Hamburg",
 "ref":
 "pmb506"}
 ]
}
}, {
 "type":
 "schnitzler-orte",
 "color":
 "#045344",
 "filename":
 "entity/652/",
 "caption":
 "Aufenthaltsorte",
 "idno":
 "https://pmb.acdh.oeaw.ac.at/entity/652/",
 "head":
 "Prag"
}, {
 "type":
 "schnitzler-orte",
 "color":
 "#045344",
 "filename":
 "entity/90/",
 "caption":
 "Aufenthaltsorte",
 "idno":
 "https://pmb.acdh.oeaw.ac.at/entity/90/",
 "head":
 "Palasthotel Prag"
}, {
 "type":
 "schnitzler-orte",
 "color":
 "#045344",
 "filename":
 "entity/50/",
 "caption":
 "Aufenthaltsorte",
 "idno":
 "https://pmb.acdh.oeaw.ac.at/entity/50/",
 "head":
 "Wien"
}, {
 "type":
 "kalliope-verbund",
 "color":
 "#003574",
 "caption":
 "Kalliope Verbundkatalog",
 "idno":
 "http://kalliope-verbund.info/DE-2498-HS00077688",
 "head":
 "Wolf, Louise an Schnitzler, Arthur [Briefe]",
 "text":
 "2 Bl."
}] 