[{
 "type":
 "schnitzler-tagebuch",
 "color":
 "#037a33",
 "filename":
 "entry__1912-04-01",
 "caption":
 "Tagebuch",
 "idno":
 "https://schnitzler-tagebuch.acdh.oeaw.ac.at/entry__1912-04-01.html",
 "head":
 "Tagebuch, 1. April 1912",
 "desc":
{"listPerson":
  [
{
 "persName":
 "Julius von Gans-Ludassy",
 "ref":
 "person_15338"},
 {
 "persName":
 "Malvine Kaufmann",
 "ref":
 "person_16776"},
 {
 "persName":
 "Rainer Maria Rilke",
 "ref":
 "person_19273"},
 {
 "persName":
 "Elisabeth Steinrück",
 "ref":
 "person_20386"},
 {
 "persName":
 "Bernhard von Jacobi",
 "ref":
 "person_16465"},
 {
 "persName":
 "Albert Steinrück",
 "ref":
 "person_20383"},
 {
 "persName":
 "Arthur Kaufmann",
 "ref":
 "person_16770"}],
 "listBibl":
  [
 {
 "title":
 "Baumeister Solness",
 "ref":
 "pmb31157"}
 ,  {
 "title":
 "Die Aufzeichnungen des Malte Laurids Brigge",
 "ref":
 "pmb79053"}
 ],
 "listPlace":
  [
 {
 "placeName":
 "Salzburg",
 "ref":
 "pmb30"}
 ]
}
}, {
 "type":
 "schnitzler-orte",
 "color":
 "#045344",
 "filename":
 "entity/50/",
 "caption":
 "Aufenthaltsorte",
 "idno":
 "https://pmb.acdh.oeaw.ac.at/entity/50/",
 "head":
 "Wien"
}, {
 "type":
 "schnitzler-orte",
 "color":
 "#045344",
 "filename":
 "entity/30/",
 "caption":
 "Aufenthaltsorte",
 "idno":
 "https://pmb.acdh.oeaw.ac.at/entity/30/",
 "head":
 "Salzburg"
}, {
 "type":
 "schnitzler-bahr",
 "color":
 "#F9BD63",
 "filename":
 "T030081",
 "caption":
 "Schnitzler/Bahr",
 "idno":
 "https://schnitzler-bahr.acdh.oeaw.ac.at/T030081.html",
 "head":
 "Schnitzler: Max Burckhard, April 1912",
 "desc":
{"listPerson":
  [
{
 "persName":
 "Max Eugen Burckhard",
 "ref":
 "pmb11036"},
 {
 "persName":
 "Adolf von Sonnenthal",
 "ref":
 "pmb12809"},
 {
 "persName":
 "Max Devrient",
 "ref":
 "pmb2446"},
 {
 "persName":
 "Georg Reimers",
 "ref":
 "pmb12498"},
 {
 "persName":
 "Hugo von Hofmannsthal",
 "ref":
 "pmb11740"},
 {
 "persName":
 "Stella Hohenfels",
 "ref":
 "pmb2850"},
 {
 "persName":
 "Babette Reinhold",
 "ref":
 "pmb4200"},
 {
 "persName":
 "Bernhard Baumeister",
 "ref":
 "pmb6173"},
 {
 "persName":
 "Hermann Bahr",
 "ref":
 "pmb10815"},
 {
 "persName":
 "Ludwig Speidel",
 "ref":
 "pmb12816"},
 {
 "persName":
 "Theodor Gomperz",
 "ref":
 "pmb11497"},
 {
 "persName":
 "Adele Sandrock",
 "ref":
 "pmb12618"},
 {
 "persName":
 "Josef von Bezecný",
 "ref":
 "pmb14179"},
 {
 "persName":
 "Theodor von Taussig",
 "ref":
 "pmb12923"},
 {
 "persName":
 "Rudolf Lothar",
 "ref":
 "pmb2570"},
 {
 "persName":
 "Friedrich Mitterwurzer",
 "ref":
 "pmb12265"},
 {
 "persName":
 "Franz Joseph I. von Österreich-Ungarn",
 "ref":
 "pmb2513"},
 {
 "persName":
 "Leopold Horowitz",
 "ref":
 "pmb28912"},
 {
 "persName":
 "Katharina Schratt",
 "ref":
 "pmb2680"},
 {
 "persName":
 "Isidor Mautner",
 "ref":
 "pmb3744"},
 {
 "persName":
 "Jenny Mautner",
 "ref":
 "pmb12205"},
 {
 "persName":
 "Ernst Hartmann",
 "ref":
 "pmb11610"},
 {
 "persName":
 "Moriz Benedikt",
 "ref":
 "pmb10875"},
 {
 "persName":
 "Adele Benedikt",
 "ref":
 "pmb27790"},
 {
 "persName":
 "Felix Salten",
 "ref":
 "pmb2167"},
 {
 "persName":
 "Jakob Wassermann",
 "ref":
 "pmb13055"},
 {
 "persName":
 "Julie Wassermann",
 "ref":
 "pmb13058"},
 {
 "persName":
 "Norbert von Ortner-Rodenstätt",
 "ref":
 "pmb2216"},
 {
 "persName":
 "Theodor Herzl",
 "ref":
 "pmb11673"}],
 "listBibl":
  [
 {
 "title":
 "Alkandi’s Lied",
 "ref":
 "pmb31637"}
 ,  {
 "title":
 "Das Märchen. Schauspiel in drei Aufzügen",
 "ref":
 "pmb29823"}
 ,  {
 "title":
 "Liebelei. Schauspiel in drei Akten",
 "ref":
 "pmb29917"}
 ,  {
 "title":
 "Freiwild. Schauspiel in 3 Akten",
 "ref":
 "pmb29899"}
 ,  {
 "title":
 "Anatol",
 "ref":
 "pmb29935"}
 ,  {
 "title":
 "Das Vermächtnis. Schauspiel in drei Akten",
 "ref":
 "pmb30219"}
 ,  {
 "title":
 "Lieutenant Gustl. Novelle",
 "ref":
 "pmb29853"}
 ],
 "listPlace":
  [
 {
 "placeName":
 "Burgtheater",
 "ref":
 "pmb14"}
 ,  {
 "placeName":
 "Sofiensäle",
 "ref":
 "pmb107"}
 ,  {
 "placeName":
 "Volkstheater",
 "ref":
 "pmb20"}
 ,  {
 "placeName":
 "Raimund-Theater",
 "ref":
 "pmb77"}
 ,  {
 "placeName":
 "Berlin",
 "ref":
 "pmb168"}
 ,  {
 "placeName":
 "Wien",
 "ref":
 "pmb50"}
 ,  {
 "placeName":
 "Pötzleinsdorf",
 "ref":
 "pmb169"}
 ,  {
 "placeName":
 "Österreich",
 "ref":
 "pmb41240"}
 ,  {
 "placeName":
 "Café Arkaden",
 "ref":
 "pmb104"}
 ,  {
 "placeName":
 "Weidlingbach",
 "ref":
 "pmb44394"}
 ,  {
 "placeName":
 "Salzburg",
 "ref":
 "pmb30"}
 ,  {
 "placeName":
 "Innsbruck",
 "ref":
 "pmb867"}
 ,  {
 "placeName":
 "Rom",
 "ref":
 "pmb445"}
 ,  {
 "placeName":
 "Vatikan",
 "ref":
 "pmb1002"}
 ,  {
 "placeName":
 "St. Gilgen",
 "ref":
 "pmb33"}
 ,  {
 "placeName":
 "Zinkenbach",
 "ref":
 "pmb49106"}
 ,  {
 "placeName":
 "Türkenschanzpark",
 "ref":
 "pmb113"}
 ],
 "listOrg":
  [
 {
 "orgName":
 "»Freie Bühne« Verein für moderne Literatur",
 "ref":
 "pmb29781"}
 ,  {
 "orgName":
 "Allgemeine Bodencreditanstalt",
 "ref":
 "pmb29244"}
 ]
}
}, {
 "type":
 "kalliope-verbund",
 "color":
 "#003574",
 "caption":
 "Kalliope Verbundkatalog",
 "idno":
 "http://kalliope-verbund.info/DE-2498-HS00032557",
 "head":
 "Brandes, Marthe an Schnitzler, Arthur [Briefe]",
 "text":
 "2 Bl."
}, {
 "type":
 "kalliope-verbund",
 "color":
 "#003574",
 "caption":
 "Kalliope Verbundkatalog",
 "idno":
 "http://kalliope-verbund.info/DE-2498-HS00043568",
 "head":
 "Stephenson, Mary L. an Schnitzler, Arthur [Briefe]",
 "text":
 "2 Br. 4 Bl."
}] 