[{
 "type":
 "schnitzler-tagebuch",
 "color":
 "#037a33",
 "filename":
 "entry__1913-04-25",
 "caption":
 "Tagebuch",
 "idno":
 "https://schnitzler-tagebuch.acdh.oeaw.ac.at/entry__1913-04-25.html",
 "head":
 "Tagebuch, 25. April 1913",
 "desc":
{"listPerson":
  [
{
 "persName":
 "Eugenie Bachrach",
 "ref":
 "person_13355"},
 {
 "persName":
 "Robert Adam",
 "ref":
 "person_18893"},
 {
 "persName":
 "Gustav Schwarzkopf",
 "ref":
 "person_19986"},
 {
 "persName":
 "Felix Speidel",
 "ref":
 "person_20242"}],
 "listPlace":
  [
 {
 "placeName":
 "Gentzgasse",
 "ref":
 "pmb40694"}
 ]
}
}, {
 "type":
 "schnitzler-briefe",
 "color":
 "#A63437",
 "filename":
 "L02131",
 "caption":
 "Briefe mit Autorinnen und Autoren",
 "idno":
 "https://schnitzler-briefe.acdh.oeaw.ac.at/L02131.html",
 "head":
 "Georg Engländer an Arthur Schnitzler, 25. 4. 1913",
 "desc":
{"listPerson":
  [
{
 "persName":
 "Georg Engländer",
 "ref":
 "pmb2260"},
 {
 "persName":
 "Franz Hansy",
 "ref":
 "pmb2320"},
 {
 "persName":
 "Peter Altenberg",
 "ref":
 "pmb2147"},
 {
 "persName":
 "Margarethe Engländer",
 "ref":
 "pmb50236"}],
 "listPlace":
  [
 {
 "placeName":
 "Wien",
 "ref":
 "pmb50"}
 ,  {
 "placeName":
 "Seidlgasse",
 "ref":
 "pmb730"}
 ,  {
 "placeName":
 "Semmering",
 "ref":
 "pmb189"}
 ]
}
}, {
 "type":
 "schnitzler-briefe",
 "color":
 "#A63437",
 "filename":
 "L02132",
 "caption":
 "Briefe mit Autorinnen und Autoren",
 "idno":
 "https://schnitzler-briefe.acdh.oeaw.ac.at/L02132.html",
 "head":
 "Arthur Schnitzler an Hermann Bahr, 2[5]. 4. 1913",
 "desc":
{"listPerson":
  [
{
 "persName":
 "Hermann Bahr",
 "ref":
 "pmb10815"},
 {
 "persName":
 "Peter Altenberg",
 "ref":
 "pmb2147"},
 {
 "persName":
 "Georg Engländer",
 "ref":
 "pmb2260"},
 {
 "persName":
 "Franz Hansy",
 "ref":
 "pmb2320"}],
 "listPlace":
  [
 {
 "placeName":
 "Wien",
 "ref":
 "pmb50"}
 ,  {
 "placeName":
 "Sternwartestraße",
 "ref":
 "pmb150"}
 ,  {
 "placeName":
 "Semmering",
 "ref":
 "pmb189"}
 ,  {
 "placeName":
 "Kurhaus Semmering",
 "ref":
 "pmb442"}
 ,  {
 "placeName":
 "Salzburg",
 "ref":
 "pmb30"}
 ]
}
}, {
 "type":
 "schnitzler-orte",
 "color":
 "#045344",
 "filename":
 "entity/50/",
 "caption":
 "Aufenthaltsorte",
 "idno":
 "https://pmb.acdh.oeaw.ac.at/entity/50/",
 "head":
 "Wien"
}, {
 "type":
 "schnitzler-bahr",
 "color":
 "#F9BD63",
 "filename":
 "L041128",
 "caption":
 "Schnitzler/Bahr",
 "idno":
 "https://schnitzler-bahr.acdh.oeaw.ac.at/L041128.html",
 "head":
 "Schnitzler an Bahr, 2[5]. 4. 1913",
 "desc":
{"listPerson":
  [
{
 "persName":
 "Hermann Bahr",
 "ref":
 "pmb10815"},
 {
 "persName":
 "Peter Altenberg",
 "ref":
 "pmb2147"},
 {
 "persName":
 "Georg Engländer",
 "ref":
 "pmb2260"},
 {
 "persName":
 "Franz Hansy",
 "ref":
 "pmb2320"}],
 "listPlace":
  [
 {
 "placeName":
 "Wien",
 "ref":
 "pmb50"}
 ,  {
 "placeName":
 "Sternwartestraße",
 "ref":
 "pmb150"}
 ,  {
 "placeName":
 "Semmering",
 "ref":
 "pmb189"}
 ,  {
 "placeName":
 "Salzburg",
 "ref":
 "pmb30"}
 ]
}
}, {
 "type":
 "kalliope-verbund",
 "color":
 "#003574",
 "caption":
 "Kalliope Verbundkatalog",
 "idno":
 "http://kalliope-verbund.info/DE-2498-HS00050840",
 "head":
 "Schnitzler, Heinrich an Schnitzler, Olga [Briefe]",
 "text":
 "2 Bl.",
 "desc":
{"listPerson":
  [
{
 "persName":
 "Heinrich (1902-1982) Schnitzler",
 "ref":
 "http://d-nb.info/gnd/116848510"},
 {
 "persName":
 "Olga (1882-1970) Schnitzler",
 "ref":
 "http://d-nb.info/gnd/116848723"}]
}
}, {
 "type":
 "kalliope-verbund",
 "color":
 "#003574",
 "caption":
 "Kalliope Verbundkatalog",
 "idno":
 "http://kalliope-verbund.info/DE-2498-HS00050839",
 "head":
 "Jacobus, Elisabeth an Schnitzler, Olga [Briefe]",
 "text":
 "2 Bl. Mit Umschl.",
 "desc":
{"listPerson":
  [
{
 "persName":
 "Olga (1882-1970) Schnitzler",
 "ref":
 "http://d-nb.info/gnd/116848723"}]
}
}] 