[{
 "type":
 "schnitzler-tagebuch",
 "color":
 "#037a33",
 "filename":
 "entry__1913-07-19",
 "caption":
 "Tagebuch",
 "idno":
 "https://schnitzler-tagebuch.acdh.oeaw.ac.at/entry__1913-07-19.html",
 "head":
 "Tagebuch, 19. Juli 1913",
 "desc":
{"listPerson":
  [
{
 "persName":
 "Lili Schnitzler",
 "ref":
 "person_14130"},
 {
 "persName":
 "Hugo Felix",
 "ref":
 "person_14933"},
 {
 "persName":
 "Elisabeth Jacobus",
 "ref":
 "person_16480"},
 {
 "persName":
 "Julius Schnitzler",
 "ref":
 "person_19827"},
 {
 "persName":
 "Otto Zuckerkandl",
 "ref":
 "person_21601"},
 {
 "persName":
 "Hermann Bahr",
 "ref":
 "person_13374"},
 {
 "persName":
 "Mary Halton",
 "ref":
 "person_15877"},
 {
 "persName":
 "Emil Zuckerkandl",
 "ref":
 "person_21596"}],
 "listPlace":
  [
 {
 "placeName":
 "England",
 "ref":
 "pmb90593"}
 ,  {
 "placeName":
 "Hinterbrühl",
 "ref":
 "pmb75"}
 ,  {
 "placeName":
 "Brijuni",
 "ref":
 "pmb45260"}
 ,  {
 "placeName":
 "Maria Josefa Park",
 "ref":
 "pmb92385"}
 ]
}
}, {
 "type":
 "schnitzler-briefe",
 "color":
 "#A63437",
 "filename":
 "L02141",
 "caption":
 "Briefe mit Autorinnen und Autoren",
 "idno":
 "https://schnitzler-briefe.acdh.oeaw.ac.at/L02141.html",
 "head":
 "Arthur Schnitzler an Hermann Bahr, 19. 7. [1913]",
 "desc":
{"listPerson":
  [
{
 "persName":
 "Hermann Bahr",
 "ref":
 "pmb10815"},
 {
 "persName":
 "Olga Schnitzler",
 "ref":
 "pmb2173"}],
 "listPlace":
  [
 {
 "placeName":
 "Wien",
 "ref":
 "pmb50"}
 ,  {
 "placeName":
 "Salzburg",
 "ref":
 "pmb30"}
 ,  {
 "placeName":
 "Schloss Arenberg",
 "ref":
 "pmb160"}
 ]
}
}, {
 "type":
 "schnitzler-briefe",
 "color":
 "#A63437",
 "filename":
 "L02142",
 "caption":
 "Briefe mit Autorinnen und Autoren",
 "idno":
 "https://schnitzler-briefe.acdh.oeaw.ac.at/L02142.html",
 "head":
 "Arthur Schnitzler an Hermann Bahr, [19.] 7. 1913",
 "desc":
{"listPerson":
  [
{
 "persName":
 "Emma Löwenstamm",
 "ref":
 "pmb2327"},
 {
 "persName":
 "Hermann Bahr",
 "ref":
 "pmb10815"}],
 "listBibl":
  [
 {
 "title":
 "Arthur Schnitzler",
 "ref":
 "pmb32656"}
 ],
 "listPlace":
  [
 {
 "placeName":
 "Wien",
 "ref":
 "pmb50"}
 ,  {
 "placeName":
 "Salzburg",
 "ref":
 "pmb30"}
 ]
}
}, {
 "type":
 "schnitzler-briefe",
 "color":
 "#A63437",
 "filename":
 "L02143",
 "caption":
 "Briefe mit Autorinnen und Autoren",
 "idno":
 "https://schnitzler-briefe.acdh.oeaw.ac.at/L02143.html",
 "head":
 "Arthur Schnitzler an Frank Wedekind, 19. 7. 1913",
 "desc":
{"listPerson":
  [
{
 "persName":
 "Frank Wedekind",
 "ref":
 "pmb13068"},
 {
 "persName":
 "Heinrich Schnitzler",
 "ref":
 "pmb12692"},
 {
 "persName":
 "Tilly Wedekind",
 "ref":
 "pmb5405"}],
 "listBibl":
  [
 {
 "title":
 "Franziska",
 "ref":
 "pmb33269"}
 ],
 "listPlace":
  [
 {
 "placeName":
 "Wien",
 "ref":
 "pmb50"}
 ,  {
 "placeName":
 "Sternwartestraße",
 "ref":
 "pmb150"}
 ]
}
}, {
 "type":
 "schnitzler-orte",
 "color":
 "#045344",
 "filename":
 "entity/50/",
 "caption":
 "Aufenthaltsorte",
 "idno":
 "https://pmb.acdh.oeaw.ac.at/entity/50/",
 "head":
 "Wien"
}, {
 "type":
 "schnitzler-bahr",
 "color":
 "#F9BD63",
 "filename":
 "L041129",
 "caption":
 "Schnitzler/Bahr",
 "idno":
 "https://schnitzler-bahr.acdh.oeaw.ac.at/L041129.html",
 "head":
 "Schnitzler an Bahr, 19. 7. [1913]",
 "desc":
{"listPerson":
  [
{
 "persName":
 "Hermann Bahr",
 "ref":
 "pmb10815"},
 {
 "persName":
 "Olga Schnitzler",
 "ref":
 "pmb2173"}],
 "listPlace":
  [
 {
 "placeName":
 "Wien",
 "ref":
 "pmb50"}
 ,  {
 "placeName":
 "Salzburg",
 "ref":
 "pmb30"}
 ,  {
 "placeName":
 "Schloss Arenberg",
 "ref":
 "pmb160"}
 ]
}
}, {
 "type":
 "schnitzler-bahr",
 "color":
 "#F9BD63",
 "filename":
 "L041130",
 "caption":
 "Schnitzler/Bahr",
 "idno":
 "https://schnitzler-bahr.acdh.oeaw.ac.at/L041130.html",
 "head":
 "Schnitzler an Bahr, 19. 7. 1913",
 "desc":
{"listPerson":
  [
{
 "persName":
 "Hermann Bahr",
 "ref":
 "pmb10815"},
 {
 "persName":
 "Emma Löwenstamm",
 "ref":
 "pmb2327"}],
 "listBibl":
  [
 {
 "title":
 "Arthur Schnitzler",
 "ref":
 "pmb32656"}
 ],
 "listPlace":
  [
 {
 "placeName":
 "Wien",
 "ref":
 "pmb50"}
 ,  {
 "placeName":
 "Salzburg",
 "ref":
 "pmb30"}
 ]
}
}, {
 "type":
 "schnitzler-bahr",
 "color":
 "#F9BD63",
 "filename":
 "D041353",
 "caption":
 "Schnitzler/Bahr",
 "idno":
 "https://schnitzler-bahr.acdh.oeaw.ac.at/D041353.html",
 "head":
 "Tagebuch von Schnitzler, 19. 7. 1913",
 "desc":
{"listPerson":
  [
{
 "persName":
 "Hermann Bahr",
 "ref":
 "pmb10815"},
 {
 "persName":
 "Mary Halton",
 "ref":
 "pmb3165"},
 {
 "persName":
 "Hugo Felix",
 "ref":
 "pmb3167"},
 {
 "persName":
 "Olga Schnitzler",
 "ref":
 "pmb2173"},
 {
 "persName":
 "Lili Schnitzler",
 "ref":
 "pmb2238"},
 {
 "persName":
 "Elisabeth Jacobus",
 "ref":
 "pmb18732"},
 {
 "persName":
 "Otto Zuckerkandl",
 "ref":
 "pmb3091"},
 {
 "persName":
 "Julius Schnitzler",
 "ref":
 "pmb12698"},
 {
 "persName":
 "Berta Zuckerkandl",
 "ref":
 "pmb2312"},
 {
 "persName":
 "Emil Zuckerkandl",
 "ref":
 "pmb3170"}],
 "listPlace":
  [
 {
 "placeName":
 "Grand Hotel Wien",
 "ref":
 "pmb255"}
 ,  {
 "placeName":
 "England",
 "ref":
 "pmb254"}
 ,  {
 "placeName":
 "Südbahnhof",
 "ref":
 "pmb132"}
 ,  {
 "placeName":
 "Hinterbrühl",
 "ref":
 "pmb75"}
 ,  {
 "placeName":
 "Schweizergarten",
 "ref":
 "pmb256"}
 ,  {
 "placeName":
 "Arsenal",
 "ref":
 "pmb257"}
 ]
}
}] 