[{
 "type":
 "schnitzler-tagebuch",
 "color":
 "#037a33",
 "filename":
 "entry__1914-07-15",
 "caption":
 "Tagebuch",
 "idno":
 "https://schnitzler-tagebuch.acdh.oeaw.ac.at/entry__1914-07-15.html",
 "head":
 "Tagebuch, 15. Juli 1914",
 "desc":
{"listPerson":
  [
{
 "persName":
 "Richard Arnold Bermann",
 "ref":
 "person_13657"},
 {
 "persName":
 "Gertrud Eysoldt",
 "ref":
 "person_14840"},
 {
 "persName":
 "Ida Roland",
 "ref":
 "person_19331"},
 {
 "persName":
 "Alfred von Schik-Markenau",
 "ref":
 "person_19686"},
 {
 "persName":
 "Hugo Schmidl",
 "ref":
 "person_19755"},
 {
 "persName":
 "Heinrich Schnitzler",
 "ref":
 "person_19822"},
 {
 "persName":
 "Hermann Schöne",
 "ref":
 "person_19848"},
 {
 "persName":
 "Gustav Schwarzkopf",
 "ref":
 "person_19986"},
 {
 "persName":
 "Hugo Thimig",
 "ref":
 "person_20714"},
 {
 "persName":
 "Ludwig Gabillon",
 "ref":
 "person_15319"}],
 "listBibl":
  [
 {
 "title":
 "Komödie der Worte. Drei Einakter",
 "ref":
 "pmb30717"}
 ,  {
 "title":
 "Die Mörderin",
 "ref":
 "pmb33792"}
 ,  {
 "title":
 "Das Seil",
 "ref":
 "pmb78526"}
 ],
 "listPlace":
  [
 {
 "placeName":
 "Wildalpen",
 "ref":
 "pmb34627"}
 ,  {
 "placeName":
 "Burgtheater",
 "ref":
 "pmb14"}
 ,  {
 "placeName":
 "Weichselboden",
 "ref":
 "pmb92057"}
 ,  {
 "placeName":
 "Mariazell",
 "ref":
 "pmb431"}
 ]
}
}, {
 "type":
 "schnitzler-briefe",
 "color":
 "#A63437",
 "filename":
 "L02186",
 "caption":
 "Briefe mit Autorinnen und Autoren",
 "idno":
 "https://schnitzler-briefe.acdh.oeaw.ac.at/L02186.html",
 "head":
 "Arthur Schnitzler, Olga Schnitzler, Hugo Schmidl, Paula Schmidl an Richard Beer-Hofmann, 15. 7. 1914",
 "desc":
{"listPerson":
  [
{
 "persName":
 "Olga Schnitzler",
 "ref":
 "pmb2173"},
 {
 "persName":
 "Hugo Schmidl",
 "ref":
 "pmb3159"},
 {
 "persName":
 "Paula Schmidl",
 "ref":
 "pmb24292"},
 {
 "persName":
 "Richard Beer-Hofmann",
 "ref":
 "pmb10863"}],
 "listPlace":
  [
 {
 "placeName":
 "Mariazell",
 "ref":
 "pmb431"}
 ,  {
 "placeName":
 "Wien",
 "ref":
 "pmb50"}
 ,  {
 "placeName":
 "Weißenbach am Attersee",
 "ref":
 "pmb34344"}
 ,  {
 "placeName":
 "Attersee",
 "ref":
 "pmb236"}
 ,  {
 "placeName":
 "Oberösterreich",
 "ref":
 "pmb519"}
 ,  {
 "placeName":
 "Steiermark",
 "ref":
 "pmb17"}
 ,  {
 "placeName":
 "Hochschwab",
 "ref":
 "pmb52353"}
 ,  {
 "placeName":
 "Lunz am See",
 "ref":
 "pmb941"}
 ]
}
}, {
 "type":
 "schnitzler-briefe",
 "color":
 "#A63437",
 "filename":
 "L02187",
 "caption":
 "Briefe mit Autorinnen und Autoren",
 "idno":
 "https://schnitzler-briefe.acdh.oeaw.ac.at/L02187.html",
 "head":
 "Hugo von Hofmannsthal, Gerty von Hofmannsthal, Richard Beer-Hofmann, Paula Beer-Hofmann, Gustav Schwarzkopf an Arthur Schnitzler, 15. [7. 1914]",
 "desc":
{"listPerson":
  [
{
 "persName":
 "Hugo von Hofmannsthal",
 "ref":
 "pmb11740"},
 {
 "persName":
 "Gertrude von Hofmannsthal",
 "ref":
 "pmb2292"},
 {
 "persName":
 "Richard Beer-Hofmann",
 "ref":
 "pmb10863"},
 {
 "persName":
 "Paula Beer-Hofmann",
 "ref":
 "pmb10860"},
 {
 "persName":
 "Gustav Schwarzkopf",
 "ref":
 "pmb12740"},
 {
 "persName":
 "Hugo Schmidl",
 "ref":
 "pmb3159"}],
 "listPlace":
  [
 {
 "placeName":
 "Weißenbach am Attersee",
 "ref":
 "pmb34344"}
 ,  {
 "placeName":
 "XVIII., Währing",
 "ref":
 "pmb68"}
 ,  {
 "placeName":
 "Sternwartestraße",
 "ref":
 "pmb150"}
 ,  {
 "placeName":
 "Lunz am See",
 "ref":
 "pmb941"}
 ,  {
 "placeName":
 "Wien",
 "ref":
 "pmb50"}
 ,  {
 "placeName":
 "Niederösterreich",
 "ref":
 "pmb1003"}
 ,  {
 "placeName":
 "Salzkammergut",
 "ref":
 "pmb429"}
 ,  {
 "placeName":
 "Obertressen",
 "ref":
 "pmb36473"}
 ]
}
}, {
 "type":
 "schnitzler-orte",
 "color":
 "#045344",
 "filename":
 "entity/941/",
 "caption":
 "Aufenthaltsorte",
 "idno":
 "https://pmb.acdh.oeaw.ac.at/entity/941/",
 "head":
 "Lunz am See"
}, {
 "type":
 "schnitzler-orte",
 "color":
 "#045344",
 "filename":
 "entity/34627/",
 "caption":
 "Aufenthaltsorte",
 "idno":
 "https://pmb.acdh.oeaw.ac.at/entity/34627/",
 "head":
 "Wildalpen"
}, {
 "type":
 "schnitzler-orte",
 "color":
 "#045344",
 "filename":
 "entity/92057/",
 "caption":
 "Aufenthaltsorte",
 "idno":
 "https://pmb.acdh.oeaw.ac.at/entity/92057/",
 "head":
 "Weichselboden"
}, {
 "type":
 "schnitzler-orte",
 "color":
 "#045344",
 "filename":
 "entity/431/",
 "caption":
 "Aufenthaltsorte",
 "idno":
 "https://pmb.acdh.oeaw.ac.at/entity/431/",
 "head":
 "Mariazell"
}, {
 "type":
 "schnitzler-orte",
 "color":
 "#045344",
 "filename":
 "entity/50/",
 "caption":
 "Aufenthaltsorte",
 "idno":
 "https://pmb.acdh.oeaw.ac.at/entity/50/",
 "head":
 "Wien"
}] 