[{
 "type":
 "schnitzler-tagebuch",
 "color":
 "#037a33",
 "filename":
 "entry__1914-05-21",
 "caption":
 "Tagebuch",
 "idno":
 "https://schnitzler-tagebuch.acdh.oeaw.ac.at/entry__1914-05-21.html",
 "head":
 "Tagebuch, 21. Mai 1914",
 "desc":
{"listPerson":
  [
{
 "persName":
 "Paula Schmidl",
 "ref":
 "person_19756"},
 {
 "persName":
 "Emilie Sgal",
 "ref":
 "person_20075"},
 {
 "persName":
 "Schulz",
 "ref":
 "person_19933"}],
 "listPlace":
  [
 {
 "placeName":
 "Antwerp",
 "ref":
 "pmb90252"}
 ,  {
 "placeName":
 "Diepenbeeckstr.",
 "ref":
 "pmb92204"}
 ]
}
}, {
 "type":
 "schnitzler-briefe",
 "color":
 "#A63437",
 "filename":
 "L02180",
 "caption":
 "Briefe mit Autorinnen und Autoren",
 "idno":
 "https://schnitzler-briefe.acdh.oeaw.ac.at/L02180.html",
 "head":
 "Arthur Schnitzler, Olga Schnitzler an Richard Beer-Hofmann, Paula Beer-Hofmann, 21. 5. 1914",
 "desc":
{"listPerson":
  [
{
 "persName":
 "Olga Schnitzler",
 "ref":
 "pmb2173"},
 {
 "persName":
 "Richard Beer-Hofmann",
 "ref":
 "pmb10863"},
 {
 "persName":
 "Paula Beer-Hofmann",
 "ref":
 "pmb10860"},
 {
 "persName":
 "Rembrandt van Rijn",
 "ref":
 "pmb5428"}],
 "listBibl":
  [
 {
 "title":
 "Alter Mann",
 "ref":
 "pmb52342"}
 ],
 "listOrg":
  [
 {
 "orgName":
 "Königliches Museum der Schönen Künste",
 "ref":
 "pmb52339"}
 ],
 "listPlace":
  [
 {
 "placeName":
 "Antwerpen",
 "ref":
 "pmb995"}
 ,  {
 "placeName":
 "Wien",
 "ref":
 "pmb50"}
 ,  {
 "placeName":
 "XVIII., Währing",
 "ref":
 "pmb68"}
 ,  {
 "placeName":
 "Hasenauerstraße",
 "ref":
 "pmb383"}
 ,  {
 "placeName":
 "Österreich",
 "ref":
 "pmb41240"}
 ,  {
 "placeName":
 "Algiers",
 "ref":
 "pmb43991"}
 ]
}
}, {
 "type":
 "schnitzler-orte",
 "color":
 "#045344",
 "filename":
 "entity/47658/",
 "caption":
 "Aufenthaltsorte",
 "idno":
 "https://pmb.acdh.oeaw.ac.at/entity/47658/",
 "head":
 "Southampton"
}, {
 "type":
 "schnitzler-orte",
 "color":
 "#045344",
 "filename":
 "entity/90252/",
 "caption":
 "Aufenthaltsorte",
 "idno":
 "https://pmb.acdh.oeaw.ac.at/entity/90252/",
 "head":
 "Antwerp"
}, {
 "type":
 "kalliope-verbund",
 "color":
 "#003574",
 "caption":
 "Kalliope Verbundkatalog",
 "idno":
 "http://kalliope-verbund.info/DE-2498-HS00037602",
 "head":
 "Klabund an Schnitzler, Arthur [Briefe]",
 "text":
 "1 Bl.",
 "desc":
{"listPerson":
  [
{
 "persName":
 "Klabund (1890-1928)",
 "ref":
 "http://d-nb.info/gnd/118562681"},
 {
 "persName":
 "Hugo (1886-1927) Ball",
 "ref":
 "http://d-nb.info/gnd/118506234"}]
}
}] 