[{
 "type":
 "schnitzler-tagebuch",
 "color":
 "#037a33",
 "filename":
 "entry__1914-03-30",
 "caption":
 "Tagebuch",
 "idno":
 "https://schnitzler-tagebuch.acdh.oeaw.ac.at/entry__1914-03-30.html",
 "head":
 "Tagebuch, 30. März 1914",
 "desc":
{"listPerson":
  [
{
 "persName":
 "Raoul Auernheimer",
 "ref":
 "person_13305"},
 {
 "persName":
 "Albert Frankfurter",
 "ref":
 "person_15134"},
 {
 "persName":
 "Leonie Guttmann",
 "ref":
 "person_15781"},
 {
 "persName":
 "Friedrich Jodl",
 "ref":
 "person_16557"},
 {
 "persName":
 "Gustav Schwarzkopf",
 "ref":
 "person_19986"},
 {
 "persName":
 "Alberto Stringa",
 "ref":
 "person_20532"},
 {
 "persName":
 "Otto Weizsaecker",
 "ref":
 "person_21219"},
 {
 "persName":
 "Marianne Giustiniani",
 "ref":
 "person_21600"},
 {
 "persName":
 "Jakob Wassermann",
 "ref":
 "person_21107"},
 {
 "persName":
 "Anton Bettelheim",
 "ref":
 "person_13699"}],
 "listBibl":
  [
 {
 "title":
 "Professor Bernhardi. Komödie in fünf Akten",
 "ref":
 "pmb30203"}
 ]
}
}, {
 "type":
 "schnitzler-briefe",
 "color":
 "#A63437",
 "filename":
 "L02169",
 "caption":
 "Briefe mit Autorinnen und Autoren",
 "idno":
 "https://schnitzler-briefe.acdh.oeaw.ac.at/L02169.html",
 "head":
 "Arthur Schnitzler an Hermann Bahr, 30. 3. 1914",
 "desc":
{"listPerson":
  [
{
 "persName":
 "Anna Bahr-Mildenburg",
 "ref":
 "pmb10818"},
 {
 "persName":
 "Hermann Bahr",
 "ref":
 "pmb10815"},
 {
 "persName":
 "Olga Schnitzler",
 "ref":
 "pmb2173"},
 {
 "persName":
 "Arnold Schönberg",
 "ref":
 "pmb12743"}],
 "listBibl":
  [
 {
 "title":
 "Gurre-Lieder",
 "ref":
 "pmb30039"}
 ],
 "listPlace":
  [
 {
 "placeName":
 "Wien",
 "ref":
 "pmb50"}
 ,  {
 "placeName":
 "Sternwartestraße",
 "ref":
 "pmb150"}
 ,  {
 "placeName":
 "Florenz",
 "ref":
 "pmb263"}
 ,  {
 "placeName":
 "Genua",
 "ref":
 "pmb994"}
 ,  {
 "placeName":
 "Antwerpen",
 "ref":
 "pmb995"}
 ,  {
 "placeName":
 "Niederlande",
 "ref":
 "pmb44016"}
 ,  {
 "placeName":
 "Engadin",
 "ref":
 "pmb1061"}
 ]
}
}, {
 "type":
 "schnitzler-briefe",
 "color":
 "#A63437",
 "filename":
 "L02170",
 "caption":
 "Briefe mit Autorinnen und Autoren",
 "idno":
 "https://schnitzler-briefe.acdh.oeaw.ac.at/L02170.html",
 "head":
 "Bertha von Suttner an Arthur Schnitzler, Olga Schnitzler, 30. 3. 1914",
 "desc":
{"listPerson":
  [
{
 "persName":
 "Bertha von Suttner",
 "ref":
 "pmb12906"},
 {
 "persName":
 "Olga Schnitzler",
 "ref":
 "pmb2173"},
 {
 "persName":
 "Karoline Franziska von Metternich-Winneburg",
 "ref":
 "pmb21355"},
 {
 "persName":
 "Pauline von Metternich-Sándor",
 "ref":
 "pmb12231"}],
 "listPlace":
  [
 {
 "placeName":
 "Wien",
 "ref":
 "pmb50"}
 ]
}
}, {
 "type":
 "schnitzler-orte",
 "color":
 "#045344",
 "filename":
 "entity/50/",
 "caption":
 "Aufenthaltsorte",
 "idno":
 "https://pmb.acdh.oeaw.ac.at/entity/50/",
 "head":
 "Wien"
}, {
 "type":
 "schnitzler-bahr",
 "color":
 "#F9BD63",
 "filename":
 "L041131",
 "caption":
 "Schnitzler/Bahr",
 "idno":
 "https://schnitzler-bahr.acdh.oeaw.ac.at/L041131.html",
 "head":
 "Schnitzler an Bahr, 30. 3. 1914",
 "desc":
{"listPerson":
  [
{
 "persName":
 "Hermann Bahr",
 "ref":
 "pmb10815"},
 {
 "persName":
 "Olga Schnitzler",
 "ref":
 "pmb2173"},
 {
 "persName":
 "Anna Bahr-Mildenburg",
 "ref":
 "pmb10818"}],
 "listBibl":
  [
 {
 "title":
 "Gurre-Lieder",
 "ref":
 "pmb30039"}
 ],
 "listPlace":
  [
 {
 "placeName":
 "Wien",
 "ref":
 "pmb50"}
 ,  {
 "placeName":
 "Sternwartestraße",
 "ref":
 "pmb150"}
 ,  {
 "placeName":
 "Florenz",
 "ref":
 "pmb263"}
 ,  {
 "placeName":
 "Genua",
 "ref":
 "pmb994"}
 ,  {
 "placeName":
 "Antwerpen",
 "ref":
 "pmb995"}
 ,  {
 "placeName":
 "Niederlande",
 "ref":
 "pmb44016"}
 ]
}
}, {
 "type":
 "kalliope-verbund",
 "color":
 "#003574",
 "caption":
 "Kalliope Verbundkatalog",
 "idno":
 "http://kalliope-verbund.info/DE-2498-HS00039009",
 "head":
 "Loewy, Fritz an Schnitzler, Arthur [Briefe]",
 "text":
 "2 Bl. Mit Kinokarten"
}] 