[{
 "type":
 "schnitzler-tagebuch",
 "color":
 "#037a33",
 "filename":
 "entry__1914-08-23",
 "caption":
 "Tagebuch",
 "idno":
 "https://schnitzler-tagebuch.acdh.oeaw.ac.at/entry__1914-08-23.html",
 "head":
 "Tagebuch, 23. August 1914",
 "desc":
{"listPerson":
  [
{
 "persName":
 "Franz Joseph I. von Österreich-Ungarn",
 "ref":
 "person_15150"},
 {
 "persName":
 "Gertrude von Hofmannsthal",
 "ref":
 "person_16292"},
 {
 "persName":
 "Julius Klein",
 "ref":
 "person_16890"},
 {
 "persName":
 "Irene Mandl",
 "ref":
 "person_17821"},
 {
 "persName":
 "Hugo von Hofmannsthal",
 "ref":
 "person_16293"},
 {
 "persName":
 "Frieda Pollak",
 "ref":
 "person_18881"}],
 "listPlace":
  [
 {
 "placeName":
 "Matzleinsdorferstraße",
 "ref":
 "pmb92392"}
 ,  {
 "placeName":
 "Rettenbach",
 "ref":
 "pmb91578"}
 ,  {
 "placeName":
 "Pazin",
 "ref":
 "pmb91486"}
 ]
}
}, {
 "type":
 "schnitzler-briefe",
 "color":
 "#A63437",
 "filename":
 "L02195",
 "caption":
 "Briefe mit Autorinnen und Autoren",
 "idno":
 "https://schnitzler-briefe.acdh.oeaw.ac.at/L02195.html",
 "head":
 "Georg Brandes an Arthur Schnitzler, 23. 8. 1914",
 "desc":
{"listPerson":
  [
{
 "persName":
 "Georg Brandes",
 "ref":
 "pmb10992"},
 {
 "persName":
 "mit dem Arthur Schnitzler über den Nobelpreis spricht]
                
                  ?? [Schwede",
 "ref":
 "pmb27748"},
 {
 "persName":
 "Anatole France",
 "ref":
 "pmb4279"},
 {
 "persName":
 "?? [Russischer Flüchtling in Stockholm]",
 "ref":
 "pmb27749"},
 {
 "persName":
 "Edith Philipp",
 "ref":
 "pmb4395"},
 {
 "persName":
 "Reinhold Philipp",
 "ref":
 "pmb4394"},
 {
 "persName":
 "Gerda Philipp",
 "ref":
 "pmb29131"},
 {
 "persName":
 "Georg Philipp",
 "ref":
 "pmb29133"},
 {
 "persName":
 "Olga Schnitzler",
 "ref":
 "pmb2173"}],
 "listOrg":
  [
 {
 "orgName":
 "Kungliga Vetenskapsakademien",
 "ref":
 "pmb29530"}
 ,  {
 "orgName":
 "Österreichische Akademie der Wissenschaften",
 "ref":
 "pmb29395"}
 ,  {
 "orgName":
 "American Academy of Arts and Sciences",
 "ref":
 "pmb29534"}
 ,  {
 "orgName":
 "Società Italiana delle Scienze detta dei XL",
 "ref":
 "pmb29536"}
 ,  {
 "orgName":
 "Det Kongelige Norske Videnskabers Selskab",
 "ref":
 "pmb29538"}
 ,  {
 "orgName":
 "Royal Society",
 "ref":
 "pmb29541"}
 ,  {
 "orgName":
 "Kongelige Danske Videnskabernes Selskab",
 "ref":
 "pmb29532"}
 ,  {
 "orgName":
 "Københavns Universitet",
 "ref":
 "pmb29543"}
 ,  {
 "orgName":
 "Nobelpreis",
 "ref":
 "pmb29679"}
 ],
 "listPlace":
  [
 {
 "placeName":
 "Kopenhagen",
 "ref":
 "pmb36300"}
 ,  {
 "placeName":
 "Schweiz",
 "ref":
 "pmb43435"}
 ,  {
 "placeName":
 "Österreich",
 "ref":
 "pmb41240"}
 ,  {
 "placeName":
 "Ministerium für Unterricht",
 "ref":
 "pmb24"}
 ,  {
 "placeName":
 "Schottland",
 "ref":
 "pmb576"}
 ,  {
 "placeName":
 "Schweden",
 "ref":
 "pmb44335"}
 ,  {
 "placeName":
 "Russland",
 "ref":
 "pmb34438"}
 ,  {
 "placeName":
 "Stockholm",
 "ref":
 "pmb1119"}
 ,  {
 "placeName":
 "England",
 "ref":
 "pmb254"}
 ,  {
 "placeName":
 "Amerika",
 "ref":
 "pmb175"}
 ,  {
 "placeName":
 "New Haven",
 "ref":
 "pmb44165"}
 ,  {
 "placeName":
 "Chicago",
 "ref":
 "pmb880"}
 ,  {
 "placeName":
 "Minneapolis",
 "ref":
 "pmb44140"}
 ,  {
 "placeName":
 "New York City",
 "ref":
 "pmb44053"}
 ,  {
 "placeName":
 "Comedy Theatre",
 "ref":
 "pmb1141"}
 ,  {
 "placeName":
 "Frankreich",
 "ref":
 "pmb166"}
 ]
}
}, {
 "type":
 "schnitzler-orte",
 "color":
 "#045344",
 "filename":
 "entity/213/",
 "caption":
 "Aufenthaltsorte",
 "idno":
 "https://pmb.acdh.oeaw.ac.at/entity/213/",
 "head":
 "Bad Ischl"
}, {
 "type":
 "schnitzler-orte",
 "color":
 "#045344",
 "filename":
 "entity/655/",
 "caption":
 "Aufenthaltsorte",
 "idno":
 "https://pmb.acdh.oeaw.ac.at/entity/655/",
 "head":
 "Hotel Kaiserkrone"
}, {
 "type":
 "schnitzler-traeume",
 "subtype":
 "#ISBN978-3-8353-1029-2",
 "color":
 "#1193CC",
 "caption":
 "Traumtagebuch",
 "head":
 "Traum vom 23. August 1914",
 "source":
 "Arthur Schnitzler: Träume. Das Traumtagebuch 1875–1931. Herausgegeben von Peter Michael Braunwarth und Leo A. Lensing. Göttingen: Wallstein 2012 (Bibliothek Janowitz, Bd. 20)"
}] 