[{
 "type":
 "schnitzler-tagebuch",
 "color":
 "#037a33",
 "filename":
 "entry__1914-08-03",
 "caption":
 "Tagebuch",
 "idno":
 "https://schnitzler-tagebuch.acdh.oeaw.ac.at/entry__1914-08-03.html",
 "head":
 "Tagebuch, 3. August 1914",
 "desc":
{"listPerson":
  [
{
 "persName":
 "Georg Brandes",
 "ref":
 "person_13920"},
 {
 "persName":
 "Heinrich Schnitzler",
 "ref":
 "person_19822"}],
 "listPlace":
  [
 {
 "placeName":
 "Sankt Moritz",
 "ref":
 "pmb44374"}
 ,  {
 "placeName":
 "Samedan",
 "ref":
 "pmb44306"}
 ]
}
}, {
 "type":
 "schnitzler-briefe",
 "color":
 "#A63437",
 "filename":
 "L02190",
 "caption":
 "Briefe mit Autorinnen und Autoren",
 "idno":
 "https://schnitzler-briefe.acdh.oeaw.ac.at/L02190.html",
 "head":
 "Arthur Schnitzler an Georg Brandes, 3. 8. 1914",
 "desc":
{"listPerson":
  [
{
 "persName":
 "Georg Brandes",
 "ref":
 "pmb10992"},
 {
 "persName":
 "Carl Sonderhof",
 "ref":
 "pmb29130"},
 {
 "persName":
 "mit dem Arthur Schnitzler über den Nobelpreis spricht]
                
                  ?? [Schwede",
 "ref":
 "pmb27748"},
 {
 "persName":
 "Olga Schnitzler",
 "ref":
 "pmb2173"},
 {
 "persName":
 "Lili Schnitzler",
 "ref":
 "pmb2238"}],
 "listOrg":
  [
 {
 "orgName":
 "Nobelpreis",
 "ref":
 "pmb29679"}
 ,  {
 "orgName":
 "Österreichische Akademie der Wissenschaften",
 "ref":
 "pmb29395"}
 ],
 "listPlace":
  [
 {
 "placeName":
 "Celerina",
 "ref":
 "pmb12589"}
 ,  {
 "placeName":
 "Kopenhagen",
 "ref":
 "pmb36300"}
 ,  {
 "placeName":
 "Cresta Palace",
 "ref":
 "pmb1138"}
 ,  {
 "placeName":
 "Schweden",
 "ref":
 "pmb44335"}
 ,  {
 "placeName":
 "Österreich",
 "ref":
 "pmb41240"}
 ,  {
 "placeName":
 "Ministerium für Unterricht",
 "ref":
 "pmb24"}
 ,  {
 "placeName":
 "Schweiz",
 "ref":
 "pmb43435"}
 ,  {
 "placeName":
 "Wien",
 "ref":
 "pmb50"}
 ,  {
 "placeName":
 "Sternwartestraße",
 "ref":
 "pmb150"}
 ]
}
}, {
 "type":
 "schnitzler-orte",
 "color":
 "#045344",
 "filename":
 "entity/12589/",
 "caption":
 "Aufenthaltsorte",
 "idno":
 "https://pmb.acdh.oeaw.ac.at/entity/12589/",
 "head":
 "Celerina"
}, {
 "type":
 "schnitzler-orte",
 "color":
 "#045344",
 "filename":
 "entity/1138/",
 "caption":
 "Aufenthaltsorte",
 "idno":
 "https://pmb.acdh.oeaw.ac.at/entity/1138/",
 "head":
 "Cresta Palace"
}] 