[{
 "type":
 "schnitzler-tagebuch",
 "color":
 "#037a33",
 "filename":
 "entry__1916-08-01",
 "caption":
 "Tagebuch",
 "idno":
 "https://schnitzler-tagebuch.acdh.oeaw.ac.at/entry__1916-08-01.html",
 "head":
 "Tagebuch, 1. August 1916",
 "desc":
{"listPerson":
  [
{
 "persName":
 "Leopold von Andrian-Werburg",
 "ref":
 "person_13202"},
 {
 "persName":
 "Raoul Auernheimer",
 "ref":
 "person_13305"},
 {
 "persName":
 "Martha Wassermann",
 "ref":
 "person_21110"},
 {
 "persName":
 "Franz von Conrad-Hötzendorf",
 "ref":
 "person_14266"},
 {
 "persName":
 "Jakob Wassermann",
 "ref":
 "person_21107"},
 {
 "persName":
 "Christiane von Hofmannsthal",
 "ref":
 "person_21564"},
 {
 "persName":
 "Hermann Bahr",
 "ref":
 "person_13374"},
 {
 "persName":
 "Hugo von Hofmannsthal",
 "ref":
 "person_16293"}],
 "listBibl":
  [
 {
 "title":
 "Die Schwestern oder Casanova in Spa. Lustspiel in Versen",
 "ref":
 "pmb30819"}
 ],
 "listPlace":
  [
 {
 "placeName":
 "Österreich",
 "ref":
 "pmb41240"}
 ]
}
}, {
 "type":
 "schnitzler-briefe",
 "color":
 "#A63437",
 "filename":
 "L02236",
 "caption":
 "Briefe mit Autorinnen und Autoren",
 "idno":
 "https://schnitzler-briefe.acdh.oeaw.ac.at/L02236.html",
 "head":
 "Arthur Schnitzler an Richard Beer-Hofmann, 1. 8. 1916",
 "desc":
{"listPerson":
  [
{
 "persName":
 "Richard Beer-Hofmann",
 "ref":
 "pmb10863"},
 {
 "persName":
 "Olga Schnitzler",
 "ref":
 "pmb2173"}],
 "listPlace":
  [
 {
 "placeName":
 "Altaussee",
 "ref":
 "pmb34401"}
 ,  {
 "placeName":
 "Bad Ischl",
 "ref":
 "pmb213"}
 ,  {
 "placeName":
 "Grazer Straße",
 "ref":
 "pmb1220"}
 ,  {
 "placeName":
 "Salzkammergut",
 "ref":
 "pmb429"}
 ,  {
 "placeName":
 "Loser",
 "ref":
 "pmb52428"}
 ,  {
 "placeName":
 "Hotel Kaiserkrone",
 "ref":
 "pmb655"}
 ,  {
 "placeName":
 "Restaurant Sonnenschein",
 "ref":
 "pmb40450"}
 ,  {
 "placeName":
 "Aschau",
 "ref":
 "pmb40452"}
 ]
}
}, {
 "type":
 "schnitzler-orte",
 "color":
 "#045344",
 "filename":
 "entity/34401/",
 "caption":
 "Aufenthaltsorte",
 "idno":
 "https://pmb.acdh.oeaw.ac.at/entity/34401/",
 "head":
 "Altaussee"
}, {
 "type":
 "schnitzler-orte",
 "color":
 "#045344",
 "filename":
 "entity/34387/",
 "caption":
 "Aufenthaltsorte",
 "idno":
 "https://pmb.acdh.oeaw.ac.at/entity/34387/",
 "head":
 "Villa Annerl"
}, {
 "type":
 "pollaczek",
 "color":
 "#1e81b0",
 "filename":
 "ckp056",
 "caption":
 "Pollazczek: Schnitzler und ich",
 "idno":
 "https://pollaczek.acdh.oeaw.ac.at/ckp056.html",
 "head":
 "Arthur Schnitzler an Clara Katharina Pollaczek, 3. Juni – 11. August
                  1916"
}, {
 "type":
 "schnitzler-bahr",
 "color":
 "#F9BD63",
 "filename":
 "D041378",
 "caption":
 "Schnitzler/Bahr",
 "idno":
 "https://schnitzler-bahr.acdh.oeaw.ac.at/D041378.html",
 "head":
 "Tagebuch von Schnitzler, 1. 8. 1916",
 "desc":
{"listPerson":
  [
{
 "persName":
 "Hugo von Hofmannsthal",
 "ref":
 "pmb11740"},
 {
 "persName":
 "Christiane von Hofmannsthal",
 "ref":
 "pmb3220"},
 {
 "persName":
 "Franz von Conrad-Hötzendorf",
 "ref":
 "pmb11102"},
 {
 "persName":
 "Hermann Bahr",
 "ref":
 "pmb10815"},
 {
 "persName":
 "Leopold von Andrian-Werburg",
 "ref":
 "pmb10765"},
 {
 "persName":
 "Raoul Auernheimer",
 "ref":
 "pmb10788"},
 {
 "persName":
 "Irene Auernheimer",
 "ref":
 "pmb3223"},
 {
 "persName":
 "Jakob Wassermann",
 "ref":
 "pmb13055"},
 {
 "persName":
 "Martha Wassermann",
 "ref":
 "pmb3227"}],
 "listBibl":
  [
 {
 "title":
 "Österreichische Bibliothek",
 "ref":
 "pmb32464"}
 ,  {
 "title":
 "Rudigier",
 "ref":
 "pmb30901"}
 ,  {
 "title":
 "Die Schwestern oder Casanova in Spa. Lustspiel in Versen",
 "ref":
 "pmb30819"}
 ],
 "listPlace":
  [
 {
 "placeName":
 "Österreich",
 "ref":
 "pmb41240"}
 ,  {
 "placeName":
 "Italien",
 "ref":
 "pmb40306"}
 ,  {
 "placeName":
 "Parkhotel Schönbrunn",
 "ref":
 "pmb283"}
 ]
}
}] 