[{
 "type":
 "schnitzler-tagebuch",
 "color":
 "#037a33",
 "filename":
 "entry__1917-06-29",
 "caption":
 "Tagebuch",
 "idno":
 "https://schnitzler-tagebuch.acdh.oeaw.ac.at/entry__1917-06-29.html",
 "head":
 "Tagebuch, 29. Juni 1917",
 "desc":
{"listPerson":
  [
{
 "persName":
 "Emil Lucka",
 "ref":
 "person_17719"},
 {
 "persName":
 "Gustav Schwarzkopf",
 "ref":
 "person_19986"},
 {
 "persName":
 "Anna Donath",
 "ref":
 "person_14481"}],
 "listBibl":
  [
 {
 "title":
 "Fink und Fliederbusch. Komödie in drei Akten",
 "ref":
 "pmb30881"}
 ,  {
 "title":
 "Flucht in die Finsternis",
 "ref":
 "pmb30863"}
 ,  {
 "title":
 "Der Gang zum Weiher. Dramatische Dichtung",
 "ref":
 "pmb30775"}
 ,  {
 "title":
 "Komödie der Verführung. In drei Akten",
 "ref":
 "pmb30205"}
 ,  {
 "title":
 "Grenzen der Seele",
 "ref":
 "pmb78542"}
 ],
 "listPlace":
  [
 {
 "placeName":
 "Salmannsdorf",
 "ref":
 "pmb91641"}
 ,  {
 "placeName":
 "Sofienalpe",
 "ref":
 "pmb92533"}
 ,  {
 "placeName":
 "Neuwaldegg",
 "ref":
 "pmb170"}
 ]
}
}, {
 "type":
 "schnitzler-briefe",
 "color":
 "#A63437",
 "filename":
 "L02265",
 "caption":
 "Briefe mit Autorinnen und Autoren",
 "idno":
 "https://schnitzler-briefe.acdh.oeaw.ac.at/L02265.html",
 "head":
 "Arthur Schnitzler an Richard Beer-Hofmann, 29. 6. 1917",
 "desc":
{"listPerson":
  [
{
 "persName":
 "Richard Beer-Hofmann",
 "ref":
 "pmb10863"},
 {
 "persName":
 "Arthur Kaufmann",
 "ref":
 "pmb2496"},
 {
 "persName":
 "Emil Redlich",
 "ref":
 "pmb23127"}],
 "listBibl":
  [
 {
 "title":
 "[Philosophisches Werk]",
 "ref":
 "pmb52447"}
 ],
 "listPlace":
  [
 {
 "placeName":
 "Wien",
 "ref":
 "pmb50"}
 ,  {
 "placeName":
 "Bad Ischl",
 "ref":
 "pmb213"}
 ,  {
 "placeName":
 "Sternwartestraße",
 "ref":
 "pmb150"}
 ,  {
 "placeName":
 "Grazer Straße",
 "ref":
 "pmb1220"}
 ,  {
 "placeName":
 "Bad Gastein",
 "ref":
 "pmb521"}
 ,  {
 "placeName":
 "Purkersdorf",
 "ref":
 "pmb39792"}
 ]
}
}, {
 "type":
 "schnitzler-orte",
 "color":
 "#045344",
 "filename":
 "entity/50/",
 "caption":
 "Aufenthaltsorte",
 "idno":
 "https://pmb.acdh.oeaw.ac.at/entity/50/",
 "head":
 "Wien"
}, {
 "type":
 "kalliope-verbund",
 "color":
 "#003574",
 "caption":
 "Kalliope Verbundkatalog",
 "idno":
 "http://kalliope-verbund.info/DE-2498-HS00033688",
 "head":
 "Erichsen, Leo an Schnitzler, Arthur [Briefe]",
 "text":
 "1 Bl."
}] 