[{
 "type":
 "schnitzler-tagebuch",
 "color":
 "#037a33",
 "filename":
 "entry__1918-06-11",
 "caption":
 "Tagebuch",
 "idno":
 "https://schnitzler-tagebuch.acdh.oeaw.ac.at/entry__1918-06-11.html",
 "head":
 "Tagebuch, 11. Juni 1918",
 "desc":
{"listPerson":
  [
{
 "persName":
 "Karl I. von Österreich-Ungarn",
 "ref":
 "person_16723"},
 {
 "persName":
 "Friedrich Kerst",
 "ref":
 "person_16823"},
 {
 "persName":
 "Nikolaus II. von Russland",
 "ref":
 "person_18456"},
 {
 "persName":
 "Felix Salten",
 "ref":
 "person_19542"},
 {
 "persName":
 "Heinrich Schnitzler",
 "ref":
 "person_19822"},
 {
 "persName":
 "Johanna Schopf",
 "ref":
 "person_19867"},
 {
 "persName":
 "Fritz Schrödter",
 "ref":
 "person_19895"},
 {
 "persName":
 "Gustav Schwarzkopf",
 "ref":
 "person_19986"},
 {
 "persName":
 "Rahel von Varnhagen-Ense",
 "ref":
 "person_20930"},
 {
 "persName":
 "Hugo Ganz",
 "ref":
 "person_15345"}],
 "listBibl":
  [
 {
 "title":
 "Jugend in Wien",
 "ref":
 "pmb33838"}
 ,  {
 "title":
 "Die Erinnerungen an Beethoven",
 "ref":
 "pmb78915"}
 ,  {
 "title":
 "Don Karlos, Infant von Spanien",
 "ref":
 "pmb33023"}
 ,  {
 "title":
 "Briefe",
 "ref":
 "pmb76536"}
 ,  {
 "title":
 "Aida",
 "ref":
 "pmb30365"}
 ],
 "listPlace":
  [
 {
 "placeName":
 "Tulln",
 "ref":
 "pmb91959"}
 ,  {
 "placeName":
 "Deutschland",
 "ref":
 "pmb151"}
 ,  {
 "placeName":
 "Meran",
 "ref":
 "pmb43520"}
 ]
}
}, {
 "type":
 "schnitzler-briefe",
 "color":
 "#A63437",
 "filename":
 "L02286",
 "caption":
 "Briefe mit Autorinnen und Autoren",
 "idno":
 "https://schnitzler-briefe.acdh.oeaw.ac.at/L02286.html",
 "head":
 "Arthur Schnitzler an Robert Adam, 11. 6. 1918",
 "desc":
{"listPerson":
  [
{
 "persName":
 "Robert Adam",
 "ref":
 "pmb12438"}],
 "listPlace":
  [
 {
 "placeName":
 "Wien",
 "ref":
 "pmb50"}
 ,  {
 "placeName":
 "VIII., Josefstadt",
 "ref":
 "pmb58"}
 ,  {
 "placeName":
 "XII., Meidling",
 "ref":
 "pmb62"}
 ,  {
 "placeName":
 "Meidlinger Hauptstraße",
 "ref":
 "pmb1239"}
 ,  {
 "placeName":
 "Sternwartestraße",
 "ref":
 "pmb150"}
 ]
}
}, {
 "type":
 "schnitzler-orte",
 "color":
 "#045344",
 "filename":
 "entity/50/",
 "caption":
 "Aufenthaltsorte",
 "idno":
 "https://pmb.acdh.oeaw.ac.at/entity/50/",
 "head":
 "Wien"
}] 