[{
 "type":
 "schnitzler-tagebuch",
 "color":
 "#037a33",
 "filename":
 "entry__1921-07-30",
 "caption":
 "Tagebuch",
 "idno":
 "https://schnitzler-tagebuch.acdh.oeaw.ac.at/entry__1921-07-30.html",
 "head":
 "Tagebuch, 30. Juli 1921",
 "desc":
{"listPerson":
  [
{
 "persName":
 "Raoul Auernheimer",
 "ref":
 "person_13305"},
 {
 "persName":
 "Marianne Benedict",
 "ref":
 "person_13581"},
 {
 "persName":
 "Lili Schnitzler",
 "ref":
 "person_14130"},
 {
 "persName":
 "Getz",
 "ref":
 "person_15411"},
 {
 "persName":
 "Vilma Lichtenstern",
 "ref":
 "person_17510"},
 {
 "persName":
 "Franz Machherndl",
 "ref":
 "person_17770"},
 {
 "persName":
 "Adrienne Sachs",
 "ref":
 "person_19498"},
 {
 "persName":
 "Heinrich Schnitzler",
 "ref":
 "person_19822"},
 {
 "persName":
 "Julie Wassermann",
 "ref":
 "person_21109"},
 {
 "persName":
 "Marianne Giustiniani",
 "ref":
 "person_21600"},
 {
 "persName":
 "Anna Donath",
 "ref":
 "person_14481"},
 {
 "persName":
 "Anna Reiter",
 "ref":
 "person_19170"},
 {
 "persName":
 "Jakob Wassermann",
 "ref":
 "person_21107"},
 {
 "persName":
 "Hermine von Schaffgotsch",
 "ref":
 "person_19611"},
 {
 "persName":
 "Olga Schnitzler",
 "ref":
 "person_19832"}],
 "listBibl":
  [
 {
 "title":
 "Komödie der Verführung. In drei Akten",
 "ref":
 "pmb30205"}
 ,  {
 "title":
 "Reigen. Zehn Dialoge",
 "ref":
 "pmb29855"}
 ],
 "listPlace":
  [
 {
 "placeName":
 "Bad Aussee",
 "ref":
 "pmb415"}
 ,  {
 "placeName":
 "Tressenstein",
 "ref":
 "pmb91938"}
 ,  {
 "placeName":
 "Salzburg",
 "ref":
 "pmb30"}
 ,  {
 "placeName":
 "München",
 "ref":
 "pmb45258"}
 ,  {
 "placeName":
 "Wien",
 "ref":
 "pmb50"}
 ,  {
 "placeName":
 "Bad Goisern am Hallstättersee",
 "ref":
 "pmb90731"}
 ,  {
 "placeName":
 "Bad Gastein",
 "ref":
 "pmb521"}
 ,  {
 "placeName":
 "Frankfurt am Main",
 "ref":
 "pmb146"}
 ]
}
}, {
 "type":
 "schnitzler-orte",
 "color":
 "#045344",
 "filename":
 "entity/415/",
 "caption":
 "Aufenthaltsorte",
 "idno":
 "https://pmb.acdh.oeaw.ac.at/entity/415/",
 "head":
 "Bad Aussee"
}] 