[{
 "type":
 "schnitzler-tagebuch",
 "color":
 "#037a33",
 "filename":
 "entry__1922-08-02",
 "caption":
 "Tagebuch",
 "idno":
 "https://schnitzler-tagebuch.acdh.oeaw.ac.at/entry__1922-08-02.html",
 "head":
 "Tagebuch, 2. August 1922",
 "desc":
{"listPerson":
  [
{
 "persName":
 "Lili Schnitzler",
 "ref":
 "person_14130"},
 {
 "persName":
 "Friedrich Gundolf",
 "ref":
 "person_15751"},
 {
 "persName":
 "Gisela Hajek",
 "ref":
 "person_15854"},
 {
 "persName":
 "Lisa Mautner",
 "ref":
 "person_18001"},
 {
 "persName":
 "Alfred Nirenstein",
 "ref":
 "person_18458"},
 {
 "persName":
 "Marianne Pollaczek",
 "ref":
 "person_18868"},
 {
 "persName":
 "Heinrich Schnitzler",
 "ref":
 "person_19822"},
 {
 "persName":
 "Richard Specht",
 "ref":
 "person_20238"},
 {
 "persName":
 "Wilhelm Grosz",
 "ref":
 "person_15685"},
 {
 "persName":
 "Hans von Kaltneker-Wahlkampf",
 "ref":
 "person_16672"},
 {
 "persName":
 "Olga Schnitzler",
 "ref":
 "person_19832"}],
 "listBibl":
  [
 {
 "title":
 "Komödie der Verführung. In drei Akten",
 "ref":
 "pmb30205"}
 ,  {
 "title":
 "Dichter und Helden",
 "ref":
 "pmb77087"}
 ,  {
 "title":
 "Das Bergwerk",
 "ref":
 "pmb80765"}
 ],
 "listPlace":
  [
 {
 "placeName":
 "II., Leopoldstadt",
 "ref":
 "pmb52"}
 ,  {
 "placeName":
 "Kärntnerstraße",
 "ref":
 "pmb92330"}
 ,  {
 "placeName":
 "Giselastraße",
 "ref":
 "pmb92256"}
 ,  {
 "placeName":
 "Kreuzberg",
 "ref":
 "pmb91067"}
 ,  {
 "placeName":
 "Feldafing",
 "ref":
 "pmb53150"}
 ,  {
 "placeName":
 "Norderney",
 "ref":
 "pmb91363"}
 ,  {
 "placeName":
 "Niederlande",
 "ref":
 "pmb44016"}
 ,  {
 "placeName":
 "Bremen",
 "ref":
 "pmb891"}
 ]
}
}, {
 "type":
 "schnitzler-orte",
 "color":
 "#045344",
 "filename":
 "entity/53150/",
 "caption":
 "Aufenthaltsorte",
 "idno":
 "https://pmb.acdh.oeaw.ac.at/entity/53150/",
 "head":
 "Feldafing"
}, {
 "type":
 "schnitzler-traeume",
 "subtype":
 "#ISBN978-3-8353-1029-2",
 "color":
 "#1193CC",
 "caption":
 "Traumtagebuch",
 "head":
 "Traum vom 02. August 1922",
 "source":
 "Arthur Schnitzler: Träume. Das Traumtagebuch 1875–1931. Herausgegeben von Peter Michael Braunwarth und Leo A. Lensing. Göttingen: Wallstein 2012 (Bibliothek Janowitz, Bd. 20)"
}] 