[{
 "type":
 "schnitzler-tagebuch",
 "color":
 "#037a33",
 "filename":
 "entry__1922-06-06",
 "caption":
 "Tagebuch",
 "idno":
 "https://schnitzler-tagebuch.acdh.oeaw.ac.at/entry__1922-06-06.html",
 "head":
 "Tagebuch, 6. Juni 1922",
 "desc":
{"listPerson":
  [
{
 "persName":
 "Lili Schnitzler",
 "ref":
 "person_14130"},
 {
 "persName":
 "Hedy Kempny",
 "ref":
 "person_16807"},
 {
 "persName":
 "Walter Pfund",
 "ref":
 "person_18748"},
 {
 "persName":
 "Alice Schmutzer",
 "ref":
 "person_19783"}],
 "listPlace":
  [
 {
 "placeName":
 "Niederlande",
 "ref":
 "pmb44016"}
 ]
}
}, {
 "type":
 "schnitzler-briefe",
 "color":
 "#A63437",
 "filename":
 "L02385",
 "caption":
 "Briefe mit Autorinnen und Autoren",
 "idno":
 "https://schnitzler-briefe.acdh.oeaw.ac.at/L02385.html",
 "head":
 "Arthur Schnitzler an Hermann Bahr, 6. 6. 1922",
 "desc":
{"listPerson":
  [
{
 "persName":
 "Hermann Bahr",
 "ref":
 "pmb10815"}],
 "listBibl":
  [
 {
 "title":
 "Brief an Arthur Schnitzler",
 "ref":
 "pmb30049"}
 ,  {
 "title":
 "Arthur Schnitzler zu seinem sechzigsten Geburtstag",
 "ref":
 "pmb31455"}
 ],
 "listPlace":
  [
 {
 "placeName":
 "Wien",
 "ref":
 "pmb50"}
 ,  {
 "placeName":
 "München",
 "ref":
 "pmb45258"}
 ,  {
 "placeName":
 "XVIII., Währing",
 "ref":
 "pmb68"}
 ,  {
 "placeName":
 "Sternwartestraße",
 "ref":
 "pmb150"}
 ,  {
 "placeName":
 "Barerstraße",
 "ref":
 "pmb161"}
 ]
}
}, {
 "type":
 "schnitzler-briefe",
 "color":
 "#A63437",
 "filename":
 "L02386",
 "caption":
 "Briefe mit Autorinnen und Autoren",
 "idno":
 "https://schnitzler-briefe.acdh.oeaw.ac.at/L02386.html",
 "head":
 "Arthur Schnitzler an Gerhart Hauptmann, 6. 6. 1922",
 "desc":
{"listPerson":
  [
{
 "persName":
 "Gerhart Hauptmann",
 "ref":
 "pmb11617"},
 {
 "persName":
 "Margarete Hauptmann",
 "ref":
 "pmb11621"}],
 "listPlace":
  [
 {
 "placeName":
 "Wien",
 "ref":
 "pmb50"}
 ,  {
 "placeName":
 "Agnetendorf",
 "ref":
 "pmb735"}
 ,  {
 "placeName":
 "Schlesien",
 "ref":
 "pmb1122"}
 ]
}
}, {
 "type":
 "schnitzler-orte",
 "color":
 "#045344",
 "filename":
 "entity/50/",
 "caption":
 "Aufenthaltsorte",
 "idno":
 "https://pmb.acdh.oeaw.ac.at/entity/50/",
 "head":
 "Wien"
}, {
 "type":
 "schnitzler-bahr",
 "color":
 "#F9BD63",
 "filename":
 "L041139",
 "caption":
 "Schnitzler/Bahr",
 "idno":
 "https://schnitzler-bahr.acdh.oeaw.ac.at/L041139.html",
 "head":
 "Schnitzler an Bahr, 6. 6. 1922",
 "desc":
{"listPerson":
  [
{
 "persName":
 "Hermann Bahr",
 "ref":
 "pmb10815"}],
 "listBibl":
  [
 {
 "title":
 "Brief an Arthur Schnitzler",
 "ref":
 "pmb30049"}
 ,  {
 "title":
 "Arthur Schnitzler zu seinem sechzigsten Geburtstag",
 "ref":
 "pmb31455"}
 ],
 "listPlace":
  [
 {
 "placeName":
 "Wien",
 "ref":
 "pmb50"}
 ,  {
 "placeName":
 "München",
 "ref":
 "pmb45258"}
 ,  {
 "placeName":
 "XVIII., Währing",
 "ref":
 "pmb68"}
 ,  {
 "placeName":
 "Sternwartestraße",
 "ref":
 "pmb150"}
 ,  {
 "placeName":
 "Barerstraße",
 "ref":
 "pmb161"}
 ]
}
}, {
 "type":
 "schnitzler-cmif",
 "subtype":
 "#gc49cd7e-1c35-4af4-808b-831b06a17f3d",
 "color":
 "#654321",
 "caption":
 "Gedruckte Briefwechsel",
 "head":
 "Theodor Reik an Arthur Schnitzler, 6.6.1922",
 "source":
 "Jeffrey B. Berlin/Hans Ulrich Lindken: Theodor Reiks unveröffentlichte Briefe an Arthur Schnitzler. In: Literatur und Kritik, 1983, H. 173/174, 182-197."
}] 