[{
 "type":
 "schnitzler-tagebuch",
 "color":
 "#037a33",
 "filename":
 "entry__1922-07-09",
 "caption":
 "Tagebuch",
 "idno":
 "https://schnitzler-tagebuch.acdh.oeaw.ac.at/entry__1922-07-09.html",
 "head":
 "Tagebuch, 9. Juli 1922",
 "desc":
{"listPerson":
  [
{
 "persName":
 "Hedy Kempny",
 "ref":
 "person_16807"},
 {
 "persName":
 "Walter Pfund",
 "ref":
 "person_18748"}],
 "listBibl":
  [
 {
 "title":
 "Komödie der Verführung. In drei Akten",
 "ref":
 "pmb30205"}
 ],
 "listPlace":
  [
 {
 "placeName":
 "Schafberg (St. Gilgen)",
 "ref":
 "pmb59367"}
 ]
}
}, {
 "type":
 "schnitzler-orte",
 "color":
 "#045344",
 "filename":
 "entity/50/",
 "caption":
 "Aufenthaltsorte",
 "idno":
 "https://pmb.acdh.oeaw.ac.at/entity/50/",
 "head":
 "Wien"
}, {
 "type":
 "schnitzler-bahr",
 "color":
 "#F9BD63",
 "filename":
 "L041368",
 "caption":
 "Schnitzler/Bahr",
 "idno":
 "https://schnitzler-bahr.acdh.oeaw.ac.at/L041368.html",
 "head":
 "Scofield Thayer an Schnitzler, 9. 7. 1922",
 "desc":
{"listPerson":
  [
{
 "persName":
 "Scofield Thayer",
 "ref":
 "pmb2276"},
 {
 "persName":
 "Otto Busch",
 "ref":
 "pmb28335"},
 {
 "persName":
 "Thomas Mann",
 "ref":
 "pmb12176"},
 {
 "persName":
 "Katia Mann",
 "ref":
 "pmb12173"},
 {
 "persName":
 "Heinrich Schnitzler",
 "ref":
 "pmb12692"},
 {
 "persName":
 "Hermann Bahr",
 "ref":
 "pmb10815"},
 {
 "persName":
 "?? [Schreibkraft für Hermann Bahr]",
 "ref":
 "pmb27697"},
 {
 "persName":
 "Walt Whitman",
 "ref":
 "pmb13102"},
 {
 "persName":
 "George Santayana",
 "ref":
 "pmb3794"},
 {
 "persName":
 "Eduard von Keyserling",
 "ref":
 "pmb3797"},
 {
 "persName":
 "Lovis Corinth",
 "ref":
 "pmb11106"}],
 "listBibl":
  [
 {
 "title":
 "Tristan",
 "ref":
 "pmb31295"}
 ,  {
 "title":
 "Civilization in America. An Inquiry by Thirty Americans",
 "ref":
 "pmb30119"}
 ,  {
 "title":
 "Marginal Notes on Civilization in the United States",
 "ref":
 "pmb30115"}
 ,  {
 "title":
 "Character and Opinion in the United States",
 "ref":
 "pmb32484"}
 ,  {
 "title":
 "Doktor Gräsler, Badearzt",
 "ref":
 "pmb30201"}
 ,  {
 "title":
 "Das Schicksal des Freiherrn von Leisenbohg. Novellette",
 "ref":
 "pmb30057"}
 ,  {
 "title":
 "Eduard Graf von Keyserling",
 "ref":
 "pmb32254"}
 ],
 "listPlace":
  [
 {
 "placeName":
 "München",
 "ref":
 "pmb45258"}
 ,  {
 "placeName":
 "Wien",
 "ref":
 "pmb50"}
 ,  {
 "placeName":
 "Hotel Vier Jahreszeiten",
 "ref":
 "pmb485"}
 ,  {
 "placeName":
 "Hotel Drei Mohren",
 "ref":
 "pmb486"}
 ,  {
 "placeName":
 "Hotel Riessersee",
 "ref":
 "pmb487"}
 ,  {
 "placeName":
 "Kuranstalt Hohenlohe",
 "ref":
 "pmb488"}
 ,  {
 "placeName":
 "Kurhaus",
 "ref":
 "pmb489"}
 ,  {
 "placeName":
 "Friedrichshall",
 "ref":
 "pmb965"}
 ,  {
 "placeName":
 "Thüringen",
 "ref":
 "pmb432"}
 ,  {
 "placeName":
 "Vereinigte Staaten von Amerika (USA)",
 "ref":
 "pmb43406"}
 ,  {
 "placeName":
 "Alte Pinakothek",
 "ref":
 "pmb511"}
 ,  {
 "placeName":
 "Neue Pinakothek",
 "ref":
 "pmb101"}
 ],
 "listOrg":
  [
 {
 "orgName":
 "The Dial",
 "ref":
 "pmb29371"}
 ]
}
}, {
 "type":
 "schnitzler-cmif",
 "subtype":
 "#hbas_0a380dfe-61d4-4b9e-8641-01eba8e50777",
 "color":
 "#654321",
 "caption":
 "Gedruckte Briefwechsel",
 "head":
 "Scofield Thayer an Arthur Schnitzler, 9.7.1922",
 "source":
 "Hermann Bahr, Arthur Schnitzler. Briefwechsel, Aufzeichnungen, Dokumente 1891–1931. Herausgegeben von Kurt Ifkovits, Martin Anton Müller. Göttingen: Wallstein Verlag 2018"
}] 