[{
 "type":
 "schnitzler-tagebuch",
 "color":
 "#037a33",
 "filename":
 "entry__1922-03-19",
 "caption":
 "Tagebuch",
 "idno":
 "https://schnitzler-tagebuch.acdh.oeaw.ac.at/entry__1922-03-19.html",
 "head":
 "Tagebuch, 19. März 1922",
 "desc":
{"listPerson":
  [
{
 "persName":
 "Julius Roderich Benedix",
 "ref":
 "person_13596"},
 {
 "persName":
 "Lili Schnitzler",
 "ref":
 "person_14130"},
 {
 "persName":
 "Hedy Kempny",
 "ref":
 "person_16807"},
 {
 "persName":
 "Rosa Menczel",
 "ref":
 "person_18064"},
 {
 "persName":
 "Walter Pfund",
 "ref":
 "person_18748"},
 {
 "persName":
 "Heinrich Schnitzler",
 "ref":
 "person_19822"},
 {
 "persName":
 "Ludwig Thoma",
 "ref":
 "person_20716"}],
 "listBibl":
  [
 {
 "title":
 "Komödie der Verführung. In drei Akten",
 "ref":
 "pmb30205"}
 ,  {
 "title":
 "Die zärtlichen Verwandten",
 "ref":
 "pmb77945"}
 ,  {
 "title":
 "Lottchens Geburtstag",
 "ref":
 "pmb77318"}
 ],
 "listPlace":
  [
 {
 "placeName":
 "Gersthof",
 "ref":
 "pmb90705"}
 ,  {
 "placeName":
 "Währing",
 "ref":
 "pmb90546"}
 ,  {
 "placeName":
 "Galitzinberg",
 "ref":
 "pmb90687"}
 ,  {
 "placeName":
 "Liebhartstal",
 "ref":
 "pmb92374"}
 ,  {
 "placeName":
 "Bologna",
 "ref":
 "pmb896"}
 ,  {
 "placeName":
 "X., Favoriten",
 "ref":
 "pmb60"}
 ]
}
}, {
 "type":
 "schnitzler-orte",
 "color":
 "#045344",
 "filename":
 "entity/50/",
 "caption":
 "Aufenthaltsorte",
 "idno":
 "https://pmb.acdh.oeaw.ac.at/entity/50/",
 "head":
 "Wien"
}, {
 "type":
 "schnitzler-bahr",
 "color":
 "#F9BD63",
 "filename":
 "D041595",
 "caption":
 "Schnitzler/Bahr",
 "idno":
 "https://schnitzler-bahr.acdh.oeaw.ac.at/D041595.html",
 "head":
 "Aufzeichnung von Bahr, 19. 3. 1922",
 "desc":
{"listPerson":
  [
{
 "persName":
 "Hermann Bahr",
 "ref":
 "pmb10815"},
 {
 "persName":
 "Anna Bahr-Mildenburg",
 "ref":
 "pmb10818"},
 {
 "persName":
 "Paul Kornfeld",
 "ref":
 "pmb38617"},
 {
 "persName":
 "Paul Stefan",
 "ref":
 "pmb12826"},
 {
 "persName":
 "Arno Holz",
 "ref":
 "pmb11763"},
 {
 "persName":
 "Hilde Wagner",
 "ref":
 "pmb28784"},
 {
 "persName":
 "Johannes Eckardt",
 "ref":
 "pmb28459"},
 {
 "persName":
 "Samuel Fischer",
 "ref":
 "pmb11324"},
 {
 "persName":
 "Auguste Adler",
 "ref":
 "pmb28067"}],
 "listBibl":
  [
 {
 "title":
 "Arthur Schnitzler zu seinem sechzigsten Geburtstag",
 "ref":
 "pmb31455"}
 ],
 "listPlace":
  [
 {
 "placeName":
 "Freiburg im Breisgau",
 "ref":
 "pmb631"}
 ,  {
 "placeName":
 "Aigen",
 "ref":
 "pmb269"}
 ,  {
 "placeName":
 "Hellbrunner Brücke",
 "ref":
 "pmb755"}
 ,  {
 "placeName":
 "Hellbrunn",
 "ref":
 "pmb31"}
 ],
 "listOrg":
  [
 {
 "orgName":
 "Engelhorn",
 "ref":
 "pmb29200"}
 ,  {
 "orgName":
 "Neue Rundschau, Neue Deutsche Rundschau, Freie Bühne",
 "ref":
 "pmb29212"}
 ]
}
}] 