[{
 "type":
 "schnitzler-tagebuch",
 "color":
 "#037a33",
 "filename":
 "entry__1922-04-26",
 "caption":
 "Tagebuch",
 "idno":
 "https://schnitzler-tagebuch.acdh.oeaw.ac.at/entry__1922-04-26.html",
 "head":
 "Tagebuch, 26. April 1922",
 "desc":
{"listPerson":
  [
{
 "persName":
 "Egbertje Alida Brevée",
 "ref":
 "person_13969"},
 {
 "persName":
 "Franz von Calice",
 "ref":
 "person_14116"},
 {
 "persName":
 "Louis Justman-Jacob",
 "ref":
 "person_16606"},
 {
 "persName":
 "Geza de Koos",
 "ref":
 "person_17031"},
 {
 "persName":
 "Max Reinhardt",
 "ref":
 "person_19154"},
 {
 "persName":
 "Auguste Rodin",
 "ref":
 "person_19314"},
 {
 "persName":
 "Henri Adolph Tels",
 "ref":
 "person_20660"},
 {
 "persName":
 "David Lloyd George",
 "ref":
 "person_17605"},
 {
 "persName":
 "Jan Fabricius",
 "ref":
 "person_14852"},
 {
 "persName":
 "Hellmuth von Lucius von Stoedten",
 "ref":
 "person_17717"},
 {
 "persName":
 "Lodewijk Emanuel Tels",
 "ref":
 "person_20661"}],
 "listBibl":
  [
 {
 "title":
 "Weihnachts-Einkäufe",
 "ref":
 "pmb30163"}
 ,  {
 "title":
 "Casanovas Heimfahrt",
 "ref":
 "pmb30971"}
 ,  {
 "title":
 "Das Schicksal des Freiherrn von Leisenbohg. Novellette",
 "ref":
 "pmb30057"}
 ,  {
 "title":
 "Lebendige Stunden",
 "ref":
 "pmb29957"}
 ],
 "listPlace":
  [
 {
 "placeName":
 "Den Haag",
 "ref":
 "pmb58810"}
 ,  {
 "placeName":
 "Genua",
 "ref":
 "pmb994"}
 ,  {
 "placeName":
 "Delft",
 "ref":
 "pmb90517"}
 ,  {
 "placeName":
 "Rotterdam",
 "ref":
 "pmb44303"}
 ]
}
}, {
 "type":
 "schnitzler-briefe",
 "color":
 "#A63437",
 "filename":
 "L02378",
 "caption":
 "Briefe mit Autorinnen und Autoren",
 "idno":
 "https://schnitzler-briefe.acdh.oeaw.ac.at/L02378.html",
 "head":
 "Stefan Großmann an Arthur Schnitzler, 26. 4. 1922",
 "desc":
{"listPerson":
  [
{
 "persName":
 "Stefan Großmann",
 "ref":
 "pmb11527"},
 {
 "persName":
 "Felix Salten",
 "ref":
 "pmb2167"}],
 "listBibl":
  [
 {
 "title":
 "Das Tage-Buch",
 "ref":
 "pmb46493"}
 ,  {
 "title":
 "Von der kleinen Liebe",
 "ref":
 "pmb47287"}
 ],
 "listOrg":
  [
 {
 "orgName":
 "Das Tage-Buch",
 "ref":
 "pmb37544"}
 ,  {
 "orgName":
 "Ernst Rowohlt Verlag",
 "ref":
 "pmb29756"}
 ,  {
 "orgName":
 "Fernsprechamt Lietzow",
 "ref":
 "pmb47285"}
 ],
 "listPlace":
  [
 {
 "placeName":
 "Berlin",
 "ref":
 "pmb168"}
 ,  {
 "placeName":
 "Wien",
 "ref":
 "pmb50"}
 ,  {
 "placeName":
 "Potsdamerstraße",
 "ref":
 "pmb362"}
 ,  {
 "placeName":
 "Österreich",
 "ref":
 "pmb41240"}
 ,  {
 "placeName":
 "Deutschland",
 "ref":
 "pmb151"}
 ]
}
}, {
 "type":
 "schnitzler-orte",
 "color":
 "#045344",
 "filename":
 "entity/58810/",
 "caption":
 "Aufenthaltsorte",
 "idno":
 "https://pmb.acdh.oeaw.ac.at/entity/58810/",
 "head":
 "Den Haag"
}, {
 "type":
 "schnitzler-orte",
 "color":
 "#045344",
 "filename":
 "entity/44303/",
 "caption":
 "Aufenthaltsorte",
 "idno":
 "https://pmb.acdh.oeaw.ac.at/entity/44303/",
 "head":
 "Rotterdam"
}, {
 "type":
 "schnitzler-bahr",
 "color":
 "#F9BD63",
 "filename":
 "L041673",
 "caption":
 "Schnitzler/Bahr",
 "idno":
 "https://schnitzler-bahr.acdh.oeaw.ac.at/L041673.html",
 "head":
 "Olga an Arthur Schnitzler, 26. 4. 1922",
 "desc":
{"listPerson":
  [
{
 "persName":
 "Olga Schnitzler",
 "ref":
 "pmb2173"},
 {
 "persName":
 "Suzanne Clauser",
 "ref":
 "pmb15015"},
 {
 "persName":
 "Margarethe Lichtenstein",
 "ref":
 "pmb27973"},
 {
 "persName":
 "Elisabeth Bergner",
 "ref":
 "pmb10886"},
 {
 "persName":
 "Ephraim Frisch",
 "ref":
 "pmb28366"},
 {
 "persName":
 "Friederike Stößler",
 "ref":
 "pmb27990"},
 {
 "persName":
 "Margarethe Kainz",
 "ref":
 "pmb2273"},
 {
 "persName":
 "Hermann Bahr",
 "ref":
 "pmb10815"},
 {
 "persName":
 "Lili Schnitzler",
 "ref":
 "pmb2238"},
 {
 "persName":
 "Heinrich Schnitzler",
 "ref":
 "pmb12692"},
 {
 "persName":
 "Albert Steinrück",
 "ref":
 "pmb12837"},
 {
 "persName":
 "Elisabeth Steinrück",
 "ref":
 "pmb25427"}],
 "listBibl":
  [
 {
 "title":
 "Kiki",
 "ref":
 "pmb32384"}
 ],
 "listPlace":
  [
 {
 "placeName":
 "Salzburg",
 "ref":
 "pmb30"}
 ,  {
 "placeName":
 "Den Haag",
 "ref":
 "pmb58810"}
 ,  {
 "placeName":
 "Sibirien",
 "ref":
 "pmb49077"}
 ,  {
 "placeName":
 "Österreichischer Hof",
 "ref":
 "pmb230"}
 ,  {
 "placeName":
 "München",
 "ref":
 "pmb45258"}
 ,  {
 "placeName":
 "Bad Aussee",
 "ref":
 "pmb415"}
 ,  {
 "placeName":
 "Wien",
 "ref":
 "pmb50"}
 ]
}
}, {
 "type":
 "schnitzler-cmif",
 "subtype":
 "#hbas_0a380dfe-61d4-4b9e-8641-01eba8e50777",
 "color":
 "#654321",
 "caption":
 "Gedruckte Briefwechsel",
 "head":
 "Olga Schnitzler an Arthur Schnitzler, 26.4.1922",
 "source":
 "Hermann Bahr, Arthur Schnitzler. Briefwechsel, Aufzeichnungen, Dokumente 1891–1931. Herausgegeben von Kurt Ifkovits, Martin Anton Müller. Göttingen: Wallstein Verlag 2018"
}, {
 "type":
 "kalliope-verbund",
 "color":
 "#003574",
 "caption":
 "Kalliope Verbundkatalog",
 "idno":
 "http://kalliope-verbund.info/DE-2498-HS00077075",
 "head":
 "Schnitzler, L. an Schnitzler, Arthur [Briefe]",
 "text":
 "1 Bl."
}, {
 "type":
 "kalliope-verbund",
 "color":
 "#003574",
 "caption":
 "Kalliope Verbundkatalog",
 "idno":
 "http://kalliope-verbund.info/DE-2498-HS00892523",
 "head":
 "Japan / Kaiserliche Japanische Gesellschaft an Schnitzler, Arthur [Briefe]",
 "text":
 "1 Bl."
}] 