[{
 "type":
 "schnitzler-tagebuch",
 "color":
 "#037a33",
 "filename":
 "entry__1922-05-15",
 "caption":
 "Tagebuch",
 "idno":
 "https://schnitzler-tagebuch.acdh.oeaw.ac.at/entry__1922-05-15.html",
 "head":
 "Tagebuch, 15. Mai 1922",
 "desc":
{"listPerson":
  [
{
 "persName":
 "Raoul Auernheimer",
 "ref":
 "person_13305"},
 {
 "persName":
 "Marie Glümer",
 "ref":
 "person_15485"},
 {
 "persName":
 "Hans Müller",
 "ref":
 "person_18297"},
 {
 "persName":
 "Siegfried Loewy",
 "ref":
 "person_17666"},
 {
 "persName":
 "Marie Reinhard",
 "ref":
 "person_19150"},
 {
 "persName":
 "Richard Specht",
 "ref":
 "person_20238"},
 {
 "persName":
 "Adolf Gelber",
 "ref":
 "person_15375"},
 {
 "persName":
 "Olga Schnitzler",
 "ref":
 "person_19832"}],
 "listBibl":
  [
 {
 "title":
 "Tagebuch",
 "ref":
 "pmb33243"}
 ],
 "listPlace":
  [
 {
 "placeName":
 "Bayreuth",
 "ref":
 "pmb734"}
 ,  {
 "placeName":
 "Nürnberg",
 "ref":
 "pmb44172"}
 ]
}
}, {
 "type":
 "schnitzler-briefe",
 "color":
 "#A63437",
 "filename":
 "L02382",
 "caption":
 "Briefe mit Autorinnen und Autoren",
 "idno":
 "https://schnitzler-briefe.acdh.oeaw.ac.at/L02382.html",
 "head":
 "Arthur Schnitzler an Richard Beer-Hofmann, 15. 5. 1921",
 "desc":
{"listPerson":
  [
{
 "persName":
 "Richard Beer-Hofmann",
 "ref":
 "pmb10863"}],
 "listPlace":
  [
 {
 "placeName":
 "Nürnberg",
 "ref":
 "pmb44172"}
 ,  {
 "placeName":
 "Wien",
 "ref":
 "pmb50"}
 ,  {
 "placeName":
 "XVIII., Währing",
 "ref":
 "pmb68"}
 ,  {
 "placeName":
 "Hasenauerstraße",
 "ref":
 "pmb383"}
 ,  {
 "placeName":
 "Museumsbrücke Nürnberg",
 "ref":
 "pmb52588"}
 ,  {
 "placeName":
 "Heilig-Geist-Spital",
 "ref":
 "pmb52591"}
 ]
}
}, {
 "type":
 "schnitzler-briefe",
 "color":
 "#A63437",
 "filename":
 "L02383",
 "caption":
 "Briefe mit Autorinnen und Autoren",
 "idno":
 "https://schnitzler-briefe.acdh.oeaw.ac.at/L02383.html",
 "head":
 "Georg Brandes an Arthur Schnitzler, 15. 5. 1922",
 "desc":
{"listPerson":
  [
{
 "persName":
 "Georg Brandes",
 "ref":
 "pmb10992"},
 {
 "persName":
 "Louise Schnitzler",
 "ref":
 "pmb12701"},
 {
 "persName":
 "?? [Köchin von Georg Brandes]",
 "ref":
 "pmb27752"},
 {
 "persName":
 "Sokrates",
 "ref":
 "pmb3723"}],
 "listPlace":
  [
 {
 "placeName":
 "Kopenhagen",
 "ref":
 "pmb36300"}
 ,  {
 "placeName":
 "Wien",
 "ref":
 "pmb50"}
 ,  {
 "placeName":
 "Griechenland",
 "ref":
 "pmb44293"}
 ,  {
 "placeName":
 "Athen",
 "ref":
 "pmb505"}
 ,  {
 "placeName":
 "Griechisches Parlament",
 "ref":
 "pmb1149"}
 ,  {
 "placeName":
 "Nationale und Kapodistrias-Universität Athen",
 "ref":
 "pmb1147"}
 ,  {
 "placeName":
 "Izmir",
 "ref":
 "pmb44099"}
 ,  {
 "placeName":
 "Frankreich",
 "ref":
 "pmb166"}
 ]
}
}, {
 "type":
 "schnitzler-briefe",
 "color":
 "#A63437",
 "filename":
 "L02384",
 "caption":
 "Briefe mit Autorinnen und Autoren",
 "idno":
 "https://schnitzler-briefe.acdh.oeaw.ac.at/L02384.html",
 "head":
 "Gerhart Hauptmann an Arthur Schnitzler, 15. 5. 1922",
 "desc":
{"listPerson":
  [
{
 "persName":
 "Gerhart Hauptmann",
 "ref":
 "pmb11617"},
 {
 "persName":
 "Anna Otto",
 "ref":
 "pmb50114"},
 {
 "persName":
 "Margarete Hauptmann",
 "ref":
 "pmb11621"}],
 "listPlace":
  [
 {
 "placeName":
 "Agnetendorf",
 "ref":
 "pmb735"}
 ,  {
 "placeName":
 "Wien",
 "ref":
 "pmb50"}
 ,  {
 "placeName":
 "Sternwartestraße",
 "ref":
 "pmb150"}
 ]
}
}, {
 "type":
 "schnitzler-orte",
 "color":
 "#045344",
 "filename":
 "entity/44172/",
 "caption":
 "Aufenthaltsorte",
 "idno":
 "https://pmb.acdh.oeaw.ac.at/entity/44172/",
 "head":
 "Nürnberg"
}, {
 "type":
 "schnitzler-cmif",
 "subtype":
 "#v02efeb3-b382-4ed8-a71f-1366a4647e76",
 "color":
 "#654321",
 "caption":
 "Gedruckte Briefwechsel",
 "head":
 "Arthur Schnitzler an Raoul Auernheimer, 15.5.1922",
 "source":
 "The Correspondence of Arthur Schnitzler and Raoul Auernheimer with Raoul Auernheimer’s Aphorism. Edited with introduction and notes by Donald G. Daviau and Jorun B. Johns. Chapel Hill: The University of North Carolina Press, 1972 (University of North Carolina Studies in the Germanic Languages and Literatures, 73)."
}, {
 "type":
 "schnitzler-traeume",
 "subtype":
 "#ISBN978-3-8353-1029-2",
 "color":
 "#1193CC",
 "caption":
 "Traumtagebuch",
 "head":
 "Traum vom 15. Mai 1922",
 "source":
 "Arthur Schnitzler: Träume. Das Traumtagebuch 1875–1931. Herausgegeben von Peter Michael Braunwarth und Leo A. Lensing. Göttingen: Wallstein 2012 (Bibliothek Janowitz, Bd. 20)"
}, {
 "type":
 "kalliope-verbund",
 "color":
 "#003574",
 "caption":
 "Kalliope Verbundkatalog",
 "idno":
 "http://kalliope-verbund.info/DE-2498-HS00063508",
 "head":
 "Walzel, Oskar an Schnitzler, Arthur [Briefe]",
 "text":
 "1 Bl.",
 "desc":
{"listPerson":
  [
{
 "persName":
 "Oskar (1864-1944) Walzel",
 "ref":
 "http://d-nb.info/gnd/11876425X"}]
}
}] 