[{
 "type":
 "schnitzler-tagebuch",
 "color":
 "#037a33",
 "filename":
 "entry__1923-08-04",
 "caption":
 "Tagebuch",
 "idno":
 "https://schnitzler-tagebuch.acdh.oeaw.ac.at/entry__1923-08-04.html",
 "head":
 "Tagebuch, 4. August 1923",
 "desc":
{"listPerson":
  [
{
 "persName":
 "K.",
 "ref":
 "person_16609"},
 {
 "persName":
 "Maurice Maeterlinck",
 "ref":
 "person_17779"},
 {
 "persName":
 "Romain Rolland",
 "ref":
 "person_19333"},
 {
 "persName":
 "William Shakespeare",
 "ref":
 "person_20078"},
 {
 "persName":
 "Friderike Maria Zweig",
 "ref":
 "person_21383"},
 {
 "persName":
 "Stefan Zweig",
 "ref":
 "person_21614"},
 {
 "persName":
 "Anatole France",
 "ref":
 "person_15108"},
 {
 "persName":
 "Leo N. von Tolstoi",
 "ref":
 "person_20772"},
 {
 "persName":
 "Franz Löser",
 "ref":
 "person_17628"}],
 "listBibl":
  [
 {
 "title":
 "Komödie der Verführung. In drei Akten",
 "ref":
 "pmb30205"}
 ],
 "listPlace":
  [
 {
 "placeName":
 "Salzburg",
 "ref":
 "pmb30"}
 ,  {
 "placeName":
 "Mönchsberg",
 "ref":
 "pmb91270"}
 ,  {
 "placeName":
 "Nonnberg",
 "ref":
 "pmb92422"}
 ,  {
 "placeName":
 "Salzach",
 "ref":
 "pmb91647"}
 ,  {
 "placeName":
 "Mirabellgarten",
 "ref":
 "pmb92405"}
 ]
}
}, {
 "type":
 "schnitzler-orte",
 "color":
 "#045344",
 "filename":
 "entity/30/",
 "caption":
 "Aufenthaltsorte",
 "idno":
 "https://pmb.acdh.oeaw.ac.at/entity/30/",
 "head":
 "Salzburg"
}, {
 "type":
 "schnitzler-bahr",
 "color":
 "#F9BD63",
 "filename":
 "L041612",
 "caption":
 "Schnitzler/Bahr",
 "idno":
 "https://schnitzler-bahr.acdh.oeaw.ac.at/L041612.html",
 "head":
 "Stefan Zweig an Bahr, 4. 8. 1923",
 "desc":
{"listPerson":
  [
{
 "persName":
 "Stefan Zweig",
 "ref":
 "pmb13212"},
 {
 "persName":
 "Hermann Bahr",
 "ref":
 "pmb10815"},
 {
 "persName":
 "Romain Rolland",
 "ref":
 "pmb12543"},
 {
 "persName":
 "Anna Bahr-Mildenburg",
 "ref":
 "pmb10818"}],
 "listPlace":
  [
 {
 "placeName":
 "Salzburg",
 "ref":
 "pmb30"}
 ,  {
 "placeName":
 "München",
 "ref":
 "pmb45258"}
 ,  {
 "placeName":
 "Kapuzinerberg",
 "ref":
 "pmb297"}
 ,  {
 "placeName":
 "Barerstraße",
 "ref":
 "pmb161"}
 ,  {
 "placeName":
 "Baden-Baden",
 "ref":
 "pmb228"}
 ]
}
}, {
 "type":
 "schnitzler-traeume",
 "subtype":
 "#ISBN978-3-8353-1029-2",
 "color":
 "#1193CC",
 "caption":
 "Traumtagebuch",
 "head":
 "Traum vom 04. August 1923",
 "source":
 "Arthur Schnitzler: Träume. Das Traumtagebuch 1875–1931. Herausgegeben von Peter Michael Braunwarth und Leo A. Lensing. Göttingen: Wallstein 2012 (Bibliothek Janowitz, Bd. 20)"
}] 