[{
 "type":
 "schnitzler-tagebuch",
 "color":
 "#037a33",
 "filename":
 "entry__1926-10-12",
 "caption":
 "Tagebuch",
 "idno":
 "https://schnitzler-tagebuch.acdh.oeaw.ac.at/entry__1926-10-12.html",
 "head":
 "Tagebuch, 12. Oktober 1926",
 "desc":
{"listPerson":
  [
{
 "persName":
 "Helene Binder",
 "ref":
 "person_13733"},
 {
 "persName":
 "Arnoldo Cappellini",
 "ref":
 "person_14129"},
 {
 "persName":
 "Lili Schnitzler",
 "ref":
 "person_14130"},
 {
 "persName":
 "Arthur Ferraris",
 "ref":
 "person_14952"},
 {
 "persName":
 "Vilma Lichtenstern",
 "ref":
 "person_17510"},
 {
 "persName":
 "Rosa Menczel",
 "ref":
 "person_18064"},
 {
 "persName":
 "Clara Katharina Pollaczek",
 "ref":
 "person_18863"},
 {
 "persName":
 "Heinrich Schnitzler",
 "ref":
 "person_19822"},
 {
 "persName":
 "Anna von Zsolnay",
 "ref":
 "person_21584"},
 {
 "persName":
 "Olga Schnitzler",
 "ref":
 "person_19832"}],
 "listBibl":
  [
 {
 "title":
 "Der Geist im Wort und der Geist in der Tat",
 "ref":
 "pmb30051"}
 ,  {
 "title":
 "Die Brüder Schellenberg",
 "ref":
 "pmb77325"}
 ],
 "listPlace":
  [
 {
 "placeName":
 "Vereinigte Staaten von Amerika (USA)",
 "ref":
 "pmb43406"}
 ,  {
 "placeName":
 "Venedig",
 "ref":
 "pmb462"}
 ,  {
 "placeName":
 "Wien",
 "ref":
 "pmb50"}
 ,  {
 "placeName":
 "Sternwartestraße",
 "ref":
 "pmb150"}
 ]
}
}, {
 "type":
 "schnitzler-briefe",
 "color":
 "#A63437",
 "filename":
 "L02479",
 "caption":
 "Briefe mit Autorinnen und Autoren",
 "idno":
 "https://schnitzler-briefe.acdh.oeaw.ac.at/L02479.html",
 "head":
 "Gabriel Beer-Hofmann an Arthur Schnitzler, 12. 10. 1926",
 "desc":
{"listPerson":
  [
{
 "persName":
 "Gabriel Beer-Hofmann",
 "ref":
 "pmb13923"},
 {
 "persName":
 "Richard Beer-Hofmann",
 "ref":
 "pmb10863"},
 {
 "persName":
 "Anton-Emil Langer",
 "ref":
 "pmb45926"},
 {
 "persName":
 "Lili Schnitzler",
 "ref":
 "pmb2238"}],
 "listPlace":
  [
 {
 "placeName":
 "Hamburg",
 "ref":
 "pmb506"}
 ,  {
 "placeName":
 "Hauptbahnhof",
 "ref":
 "pmb45920"}
 ,  {
 "placeName":
 "Kirchenallee",
 "ref":
 "pmb45922"}
 ,  {
 "placeName":
 "Hotel Reichshof",
 "ref":
 "pmb45924"}
 ,  {
 "placeName":
 "Berlin",
 "ref":
 "pmb168"}
 ,  {
 "placeName":
 "New York City",
 "ref":
 "pmb44053"}
 ,  {
 "placeName":
 "Venedig",
 "ref":
 "pmb462"}
 ]
}
}, {
 "type":
 "schnitzler-orte",
 "color":
 "#045344",
 "filename":
 "entity/50/",
 "caption":
 "Aufenthaltsorte",
 "idno":
 "https://pmb.acdh.oeaw.ac.at/entity/50/",
 "head":
 "Wien"
}, {
 "type":
 "schnitzler-cmif",
 "subtype":
 "#n0827e77-245d-4359-a0b0-5b601a5370ee",
 "color":
 "#654321",
 "caption":
 "Gedruckte Briefwechsel",
 "head":
 "Arthur Schnitzler an Hedy Kempny, 12.10.1926",
 "source":
 "Hedy Kempny und Arthur Schnitzler: Das Mädchen mit den dreizehn Seelen. Eine Korrespondenz ergänzt durch Blätter aus Hedy Kempnys Tagebuch sowie durch eine Auswahl ihrer Erzählungen. Hg. v. Heinz P. Adamek. Reinbek bei Hamburg: Rowohlt 1984. (Neue Frau)"
}] 