[{
 "type":
 "schnitzler-tagebuch",
 "color":
 "#037a33",
 "filename":
 "entry__1930-08-10",
 "caption":
 "Tagebuch",
 "idno":
 "https://schnitzler-tagebuch.acdh.oeaw.ac.at/entry__1930-08-10.html",
 "head":
 "Tagebuch, 10. August 1930",
 "desc":
{"listPerson":
  [
{
 "persName":
 "Appel",
 "ref":
 "person_13240"},
 {
 "persName":
 "Arnoldo Cappellini",
 "ref":
 "person_14129"},
 {
 "persName":
 "Emil Ludwig",
 "ref":
 "person_17726"},
 {
 "persName":
 "Heinrich Schnitzler",
 "ref":
 "person_19822"},
 {
 "persName":
 "Helene Schnitzler",
 "ref":
 "person_19823"},
 {
 "persName":
 "Julius Schnitzler",
 "ref":
 "person_19827"},
 {
 "persName":
 "Theoderich der Große",
 "ref":
 "person_20697"},
 {
 "persName":
 "Ruth Schnitzler",
 "ref":
 "person_13139"}],
 "listBibl":
  [
 {
 "title":
 "Dämmerseele",
 "ref":
 "pmb33776"}
 ,  {
 "title":
 "Professor Bernhardi. Komödie in fünf Akten",
 "ref":
 "pmb30203"}
 ],
 "listPlace":
  [
 {
 "placeName":
 "Sankt Moritz",
 "ref":
 "pmb44374"}
 ,  {
 "placeName":
 "Maloja District",
 "ref":
 "pmb91199"}
 ,  {
 "placeName":
 "Como",
 "ref":
 "pmb60525"}
 ,  {
 "placeName":
 "Mailand",
 "ref":
 "pmb886"}
 ,  {
 "placeName":
 "Samedan",
 "ref":
 "pmb44306"}
 ,  {
 "placeName":
 "Scuol",
 "ref":
 "pmb63808"}
 ,  {
 "placeName":
 "Landeck",
 "ref":
 "pmb91111"}
 ,  {
 "placeName":
 "Inntal",
 "ref":
 "pmb90933"}
 ,  {
 "placeName":
 "Imst",
 "ref":
 "pmb64553"}
 ,  {
 "placeName":
 "Innsbruck",
 "ref":
 "pmb867"}
 ,  {
 "placeName":
 "Inn",
 "ref":
 "pmb63153"}
 ]
}
}, {
 "type":
 "schnitzler-orte",
 "color":
 "#045344",
 "filename":
 "entity/44374/",
 "caption":
 "Aufenthaltsorte",
 "idno":
 "https://pmb.acdh.oeaw.ac.at/entity/44374/",
 "head":
 "Sankt Moritz"
}, {
 "type":
 "schnitzler-orte",
 "color":
 "#045344",
 "filename":
 "entity/63808/",
 "caption":
 "Aufenthaltsorte",
 "idno":
 "https://pmb.acdh.oeaw.ac.at/entity/63808/",
 "head":
 "Scuol"
}, {
 "type":
 "schnitzler-orte",
 "color":
 "#045344",
 "filename":
 "entity/91111/",
 "caption":
 "Aufenthaltsorte",
 "idno":
 "https://pmb.acdh.oeaw.ac.at/entity/91111/",
 "head":
 "Landeck"
}, {
 "type":
 "schnitzler-orte",
 "color":
 "#045344",
 "filename":
 "entity/90933/",
 "caption":
 "Aufenthaltsorte",
 "idno":
 "https://pmb.acdh.oeaw.ac.at/entity/90933/",
 "head":
 "Inntal"
}, {
 "type":
 "schnitzler-orte",
 "color":
 "#045344",
 "filename":
 "entity/64553/",
 "caption":
 "Aufenthaltsorte",
 "idno":
 "https://pmb.acdh.oeaw.ac.at/entity/64553/",
 "head":
 "Imst"
}, {
 "type":
 "schnitzler-orte",
 "color":
 "#045344",
 "filename":
 "entity/867/",
 "caption":
 "Aufenthaltsorte",
 "idno":
 "https://pmb.acdh.oeaw.ac.at/entity/867/",
 "head":
 "Innsbruck"
}, {
 "type":
 "pollaczek",
 "color":
 "#1e81b0",
 "filename":
 "ckp822",
 "caption":
 "Pollazczek: Schnitzler und ich",
 "idno":
 "https://pollaczek.acdh.oeaw.ac.at/ckp822.html",
 "head":
 "Tagebuch von Clara Katharina Pollaczek, 9.–12. August 1930"
}, {
 "type":
 "kalliope-verbund",
 "color":
 "#003574",
 "caption":
 "Kalliope Verbundkatalog",
 "idno":
 "http://kalliope-verbund.info/DE-2498-HS00043479",
 "head":
 "Stumpfe, Lola an Schnitzler, Arthur [Briefe]",
 "text":
 "2 Bl."
}] 