[{
 "type":
 "schnitzler-bahr",
 "color":
 "#F9BD63",
 "filename":
 "L041198",
 "caption":
 "Schnitzler/Bahr",
 "idno":
 "https://schnitzler-bahr.acdh.oeaw.ac.at/L041198.html",
 "head":
 "Olga Schnitzler an Bahr-Mildenburg, 24. 1. 1934",
 "desc":
{"listPerson":
  [
{
 "persName":
 "Olga Schnitzler",
 "ref":
 "pmb2173"},
 {
 "persName":
 "Anna Bahr-Mildenburg",
 "ref":
 "pmb10818"},
 {
 "persName":
 "Hermann Bahr",
 "ref":
 "pmb10815"}],
 "listBibl":
  [
 {
 "title":
 "Tristan und Isolde",
 "ref":
 "pmb29897"}
 ,  {
 "title":
 "Die Walküre",
 "ref":
 "pmb30063"}
 ],
 "listPlace":
  [
 {
 "placeName":
 "Wien",
 "ref":
 "pmb50"}
 ,  {
 "placeName":
 "Füssen",
 "ref":
 "pmb596"}
 ,  {
 "placeName":
 "Hotel Hirsch",
 "ref":
 "pmb496"}
 ,  {
 "placeName":
 "XVIII., Währing",
 "ref":
 "pmb68"}
 ,  {
 "placeName":
 "München",
 "ref":
 "pmb45258"}
 ,  {
 "placeName":
 "Sternwartestraße",
 "ref":
 "pmb150"}
 ,  {
 "placeName":
 "Barerstraße",
 "ref":
 "pmb161"}
 ,  {
 "placeName":
 "Salzburg",
 "ref":
 "pmb30"}
 ]
}
}] 